lat,lon,Z,Name,Organisme,Adresse,Ville,Province,Code_postal,Localisation_de_l_amiante,Source,L__gislation,Cat__gorie,Latitude,Longitude,Code postal,amiante,gislation,gorie
-73.674766,45.537204,0,Édifice Ignace-Bourget,Cégep de Bois-de-Boulogne,10500 Ave de Bois-de-Boulogne,Montréal,Québec,H4N 1L3,Réservoir murs plafonds planchers et isolants conduits tuyauterie,Rapport 351 BAPE 2020,LSST RSST et CSTC,Établissement scolaire,45.537204,-73.674766,H4N 1L3,Réservoir murs plafonds planchers et isolants conduits tuyauterie,LSST RSST et CSTC,Établissement scolaire
-73.676566,45.537352,0,Pavillon Saint-Paul,Cégep de Bois-de-Boulogne,10555 Ave de Bois-de-Boulogne,Montréal,Québec,H4N 1L3,Calorifuge chaudière murs plafonds planchers et isolants conduits tuyauterie,Rapport 351 BAPE 2020,LSST RSST et CSTC,Établissement scolaire,45.537352,-73.676566,H4N 1L3,Calorifuge chaudière murs plafonds planchers et isolants conduits tuyauterie,LSST RSST et CSTC,Établissement scolaire
-73.555049,45.549854,0,Collège De Maisonneuve,Cégep de Maisonneuve,3800 R. Sherbrooke E,Montréal,Québec,H1X 2A2,Murs plafonds planchers et isolants conduits ventilation et tuyauterie,Rapport 351 BAPE 2020,LSST RSST et CSTC,Établissement scolaire,45.549854,-73.555049,H1X 2A2,Murs plafonds planchers et isolants conduits ventilation et tuyauterie,LSST RSST et CSTC,Établissement scolaire
-73.545097,45.579336,0,Institut Des Procédés Industriels,Cégep de Maisonneuve,6220 Rue Sherbrooke Est,Montréal,Québec,HIN 1C1,Murs plafonds planchers et isolants conduits ventilation,Rapport 351 BAPE 2020,LSST RSST et CSTC,Établissement scolaire,45.579336,-73.545097,HIN 1C1,Murs plafonds planchers et isolants conduits ventilation,LSST RSST et CSTC,Établissement scolaire
-73.58333,45.558318,0,Édifice Principal,Cégep de Rosemont,6400 16E Avenue,Montréal,Québec,H1X 2S9,Murs plafonds planchers et isolants conduits,Rapport 351 BAPE 2020,LSST RSST et CSTC,Établissement scolaire,45.558318,-73.58333,H1X 2S9,Murs plafonds planchers et isolants conduits,LSST RSST et CSTC,Établissement scolaire
-73.56603,45.513999,0,Bloc A B C,Cégep du Vieux Montréal,255 Rue Ontario E,Montréal,Québec,H2X 1X6,Murs (crépi composé à joints) plancher (tuile vinyle) plafond (composé à joints) conduite irrégulière (pâte cimentaire) et éléments mécaniques - chaudière (pâte cimentaire). La plupart des systèmes légèrement ou moyennement endommagés.,Rapport 351 BAPE 2020,LSST RSST et CSTC,Établissement scolaire,45.513999,-73.56603,H2X 1X6,Murs (crépi composé à joints) plancher (tuile vinyle) plafond (composé à joints) conduite irrégulière (pâte cimentaire) et éléments mécaniques - chaudière (pâte cimentaire). La plupart des systèmes légèrement ou moyennement endommagés.,LSST RSST et CSTC,Établissement scolaire
-73.607944,45.616674,0,École de mode du Cégep Marie-Victorin,Cégep Marie-Victorin,7025 Rue Marie-Victorin,Montréal,Québec,H1G 2J7,Murs plafonds planchers et isolants conduits tuyauterie,Rapport 351 BAPE 2020,LSST RSST et CSTC,Établissement scolaire,45.616674,-73.607944,H1G 2J7,Murs plafonds planchers et isolants conduits tuyauterie,LSST RSST et CSTC,Établissement scolaire
-73.558699,45.54879,0,Bloc G,Cégep Vanier,3519 Rue Rachel E,Montréal,Québec,H1W 3Y1,"Conduite irrégulière (pâte cimentaire) mur (composé à joints) et élément mécanique(pâte
cimentaire). Certains murs et conduites très endommagés.",Rapport 351 BAPE 2020,LSST RSST et CSTC,Établissement scolaire,45.548790,-73.558699,H1W 3Y1,Conduite irrégulière (pâte cimentaire) mur (composé à joints) et élément mécanique(pâte,LSST RSST et CSTC,Établissement scolaire
-73.57434,45.497478,0,1230 Rue de la Montagne,CSSDM,1230 Rue De La Montagne,Montréal,Québec,H3G 1Z1,Mur plafond plancher calorifuge,Rapport 351 BAPE 2020,LSST RSST et CSTC,Établissement scolaire,45.497478,-73.57434,H3G 1Z1,Mur plafond plancher calorifuge,LSST RSST et CSTC,Établissement scolaire
-73.613978,45.475498,0,Farhan School,CSSDM,3744 Avenue Prud'Homme,Montréal,Québec,H4A 3H4,,Rapport 351 BAPE 2020,LSST RSST et CSTC,Établissement scolaire,45.475498,-73.613978,H4A 3H4,,LSST RSST et CSTC,Établissement scolaire
-73.544893,45.595771,0,Académie Dunton,CSSDM,5555 Rue De Bouvcherville,Montréal,Québec,H1K 4B6,Mur plafond plancher flocage calorifuge,Rapport 351 BAPE 2020,LSST RSST et CSTC,Établissement scolaire,45.595771,-73.544893,H1K 4B6,Mur plafond plancher flocage calorifuge,LSST RSST et CSTC,Établissement scolaire
-73.562015,45.518062,0,CPE La Sourithèque,CSSDM,1750 Rue Saint-André,Montréal,Québec,H2L 3T8,Mur plafond plancher calorifuge,Rapport 351 BAPE 2020,LSST RSST et CSTC,Établissement scolaire,45.518062,-73.562015,H2L 3T8,Mur plafond plancher calorifuge,LSST RSST et CSTC,Établissement scolaire
-73.623253,45.549168,0,Academie-Roberval,CSSDM,1275 Rue Jarry Est,Montréal,Québec,HH2P 1W9,Mur plafond plancher calorifuge,Rapport 351 BAPE 2020,LSST RSST et CSTC,Établissement scolaire,45.549168,-73.623253,HH2P 1W9,Mur plafond plancher calorifuge,LSST RSST et CSTC,Établissement scolaire
-73.657557,45.554719,0,Ahuntsic,CSSDM,10085 Avenue Durham,Montréal,Québec,H2C 2G3,Mur plafond plancher calorifuge,Rapport 351 BAPE 2020,LSST RSST et CSTC,Établissement scolaire,45.554719,-73.657557,H2C 2G3,Mur plafond plancher calorifuge,LSST RSST et CSTC,Établissement scolaire
-73.695165,45.528739,0,Alice-Parizeau,CSSDM,11715 Rue Filion,Montréal,Québec,H4J 1T2,Mur extérieur mur plancher calorifuge,Rapport 351 BAPE 2020,LSST RSST et CSTC,Établissement scolaire,45.528739,-73.695165,H4J 1T2,Mur extérieur mur plancher calorifuge,LSST RSST et CSTC,Établissement scolaire
-73.571256,45.578043,0,Alphonse-Desjardins,CSSDM,6600 Rue Lemay,Montréal,Québec,H1T 2L7,Mur plancher entretoit calorifuge,Rapport 351 BAPE 2020,LSST RSST et CSTC,Établissement scolaire,45.578043,-73.571256,H1T 2L7,Mur plancher entretoit calorifuge,LSST RSST et CSTC,Établissement scolaire
-73.575036,45.57352,0,Alphonse-Desjardins,CSSDM,6650 39E Avenue,Montréal,Québec,H1T 2W8,Mur plafond plancher calorifuge,Rapport 351 BAPE 2020,LSST RSST et CSTC,Établissement scolaire,45.573520,-73.575036,H1T 2W8,Mur plafond plancher calorifuge,LSST RSST et CSTC,Établissement scolaire
-73.581985,45.521386,0,Arc-En-Ciel,CSSDM,4265 Avenue Laval,Montréal,Québec,H2W 2J6,Mur extérieur plancher calorifuge,Rapport 351 BAPE 2020,LSST RSST et CSTC,Établissement scolaire,45.521386,-73.581985,H2W 2J6,Mur extérieur plancher calorifuge,LSST RSST et CSTC,Établissement scolaire
-73.517043,45.609159,0,Armand-Lavergne,CSSDM,2600 Avenue Fletcher,Montréal,Québec,H1L 4C5,Plafond plancher calorifuge,Rapport 351 BAPE 2020,LSST RSST et CSTC,Établissement scolaire,45.609159,-73.517043,H1L 4C5,Plafond plancher calorifuge,LSST RSST et CSTC,Établissement scolaire
-73.639117,45.57638,0,Atelier,CSSDM,10055 Rue J-J-Gagnier,Montréal,Québec,H2B 2Z7,Mur calorifuge plancher,Rapport 351 BAPE 2020,LSST RSST et CSTC,Établissement scolaire,45.576380,-73.639117,H2B 2Z7,Mur calorifuge plancher,LSST RSST et CSTC,Établissement scolaire
-73.572519,45.518282,0,Au Pied De La Montagne,CSSDM,311 Avenue Des Pins Est,Montréal,Québec,H2W 1P5,Mur plancher calorifuge,Rapport 351 BAPE 2020,LSST RSST et CSTC,Établissement scolaire,45.518282,-73.572519,H2W 1P5,Mur plancher calorifuge,LSST RSST et CSTC,Établissement scolaire
-73.634011,45.528369,0,Barclay,CSSDM,7941 Avenue Wiseman,Montréal,Québec,H3N 2P2,Mur plancher calorifuge,Rapport 351 BAPE 2020,LSST RSST et CSTC,Établissement scolaire,45.528369,-73.634011,H3N 2P2,Mur plancher calorifuge,LSST RSST et CSTC,Établissement scolaire
-73.62844,45.53163,0,Barthélemy-Vimont,CSSDM,415 Rue Saint-Roch,Montréal,Québec,H3N 1K2,Plancher calorifuge,Rapport 351 BAPE 2020,LSST RSST et CSTC,Établissement scolaire,45.531630,-73.62844,H3N 1K2,Plancher calorifuge,LSST RSST et CSTC,Établissement scolaire
-73.629514,45.52952,0,Barthélemy-VimontAnnexe,CSSDM,630 Rue Saint-Roch,Montréal,Québec,H3N 1K8,Mur extérieur mur plafond plancher calorifuge,Rapport 351 BAPE 2020,LSST RSST et CSTC,Établissement scolaire,45.529520,-73.629514,H3N 1K8,Mur extérieur mur plafond plancher calorifuge,LSST RSST et CSTC,Établissement scolaire
-73.633058,45.507295,0,Bedford,CSSDM,3131 Rue Goyer,Montréal,Québec,H3S 1H7,Plafond plancher calorifuge,Rapport 351 BAPE 2020,LSST RSST et CSTC,Établissement scolaire,45.507295,-73.633058,H3S 1H7,Plafond plancher calorifuge,LSST RSST et CSTC,Établissement scolaire
-73.621904,45.582722,0,Bienville,CSSDM,9275 25E Avenue,Montréal,Québec,H1Z 4E2,Mur plafond plancher calorifuge,Rapport 351 BAPE 2020,LSST RSST et CSTC,Établissement scolaire,45.582722,-73.621904,H1Z 4E2,Mur plafond plancher calorifuge,LSST RSST et CSTC,Établissement scolaire
-73.513606,45.588067,0,Boucher-La-Bruère,CSSDM,7760 Rue La Fontaine,Montréal,Québec,H1L 3H2,Plancher calorifuge,Rapport 351 BAPE 2020,LSST RSST et CSTC,Établissement scolaire,45.588067,-73.513606,H1L 3H2,Plancher calorifuge,LSST RSST et CSTC,Établissement scolaire
-73.632778,45.530467,0,Camille-Laurin,CSSDM,8000 Avenue De L'Épée,Montréal,Québec,H3N 2E9,Plancher calorifuge,Rapport 351 BAPE 2020,LSST RSST et CSTC,Établissement scolaire,45.530467,-73.632778,H3N 2E9,Plancher calorifuge,LSST RSST et CSTC,Établissement scolaire
-73.632778,45.530467,0,Camille-Laurin Annexe,CSSDM,8000 Avenue De L'Épée,Montréal,Québec,H3N 2E9,Mur plafond plancher calorifuge,Rapport 351 BAPE 2020,LSST RSST et CSTC,Établissement scolaire,45.530467,-73.632778,H3N 2E9,Mur plafond plancher calorifuge,LSST RSST et CSTC,Établissement scolaire
-73.566714,45.480087,0,Carrefour D'Éducation Populaire Pointe-Saint-Charles,CSSDM,2356 Rue Centre,Montréal,Québec,H3K 1J7,Mur plafond plancher,Rapport 351 BAPE 2020,LSST RSST et CSTC,Établissement scolaire,45.480087,-73.566714,H3K 1J7,Mur plafond plancher,LSST RSST et CSTC,Établissement scolaire
-73.611109,45.559342,0,Carrefour Populaire De St-Michel,CSSDM,2651 Boul. Cremazie-E,Montréal,Québec,H1Z 2H6,Mur plafond plancher calorifuge,Rapport 351 BAPE 2020,LSST RSST et CSTC,Établissement scolaire,45.559342,-73.611109,H1Z 2H6,Mur plafond plancher calorifuge,LSST RSST et CSTC,Établissement scolaire
-73.577229,45.483498,0,Céda-Petite-Bourgogne,CSSDM,2515 Rue Delisle,Montréal,Québec,H3J 1K8,Mur plafond plancher calorifuge,Rapport 351 BAPE 2020,LSST RSST et CSTC,Établissement scolaire,45.483498,-73.577229,H3J 1K8,Mur plafond plancher calorifuge,LSST RSST et CSTC,Établissement scolaire
-73.584978,45.493361,0,Centienniel Academy,CSSDM,2075 Rue Sherbrooke Ouest,Montréal,Québec,H3H 1G6,Mur extérieur mur plafond plancher calorifuge,Rapport 351 BAPE 2020,LSST RSST et CSTC,Établissement scolaire,45.493361,-73.584978,H3H 1G6,Mur extérieur mur plafond plancher calorifuge,LSST RSST et CSTC,Établissement scolaire
-73.67205,45.55259,0,Centre Communautaire D'Ahuntsic,CSSDM,10780 Rue Laverdure,Montréal,Québec,H3L 2L9,Mur plafond plancher calorifuge,Rapport 351 BAPE 2020,LSST RSST et CSTC,Établissement scolaire,45.552590,-73.67205,H3L 2L9,Mur plafond plancher calorifuge,LSST RSST et CSTC,Établissement scolaire
-73.704034,45.526113,0,Centre De La Petite Enfance Cartierville,CSSDM,11760 Avenue Robert-Giffard,Montréal,Québec,H4J 2C6,Mur plafond plancher calorifuge,Rapport 351 BAPE 2020,LSST RSST et CSTC,Établissement scolaire,45.526113,-73.704034,H4J 2C6,Mur plafond plancher calorifuge,LSST RSST et CSTC,Établissement scolaire
-73.544436,45.541796,0,Centre De La Petite Enfance Casse-Noisette,CSSDM,1635 Rue Darling,Montréal,Québec,H1W 2W4,Mur plafond plancher calorifuge,Rapport 351 BAPE 2020,LSST RSST et CSTC,Établissement scolaire,45.541796,-73.544436,H1W 2W4,Mur plafond plancher calorifuge,LSST RSST et CSTC,Établissement scolaire
-73.583544,45.555942,0,Centre De La Petite Enfance Galijode,CSSDM,6315 13E Avenue,Montréal,Québec,H1X 2Y6,Mur plancher calorifuge,Rapport 351 BAPE 2020,LSST RSST et CSTC,Établissement scolaire,45.555942,-73.583544,H1X 2Y6,Mur plancher calorifuge,LSST RSST et CSTC,Établissement scolaire
-73.623968,45.570219,0,Centre De La Petite Enfance Le Camélia,CSSDM,8833 Boul. St-Michel,Montréal,Québec,H1Z 3G3,Mur plancher calorifuge,Rapport 351 BAPE 2020,LSST RSST et CSTC,Établissement scolaire,45.570219,-73.623968,H1Z 3G3,Mur plancher calorifuge,LSST RSST et CSTC,Établissement scolaire
-73.553317,45.566953,0,Centre De Ressources Éducatives Et Pédagogiques (Crep),CSSDM,5100 Rue Sherbrooke Est9E Étage,Montréal,Québec,H1V 3R9,Mur plafond plancher calorifuge calfeutrage des fenêtres,Rapport 351 BAPE 2020,LSST RSST et CSTC,Établissement scolaire,45.566953,-73.553317,H1V 3R9,Mur plafond plancher calorifuge calfeutrage des fenêtres,LSST RSST et CSTC,Établissement scolaire
-73.527157,45.570411,0,Centre De Sports,CSSDM,1905 Rue De Cadillac,Montréal,Québec,H1N 2T4,Mur plafond plancher calorifuge,Rapport 351 BAPE 2020,LSST RSST et CSTC,Établissement scolaire,45.570411,-73.527157,H1N 2T4,Mur plafond plancher calorifuge,LSST RSST et CSTC,Établissement scolaire
-73.588727,45.552293,0,École Loui-Hébert,CSSDM,6361 6E Av.,Montréal,Québec,H1Y 2R7,Mur plafond plancher calorifuge,Rapport 351 BAPE 2020,LSST RSST et CSTC,Établissement scolaire,45.552293,-73.588727,H1Y 2R7,Mur plafond plancher calorifuge,LSST RSST et CSTC,Établissement scolaire
-73.622218,45.58027,0,Centre Éducatif Et Communautaire René-Goupil (Cecrg),CSSDM,4105 47E Rue,Montréal,Québec,H1Z 1L6,Mur plafond plancher calorifuge,Rapport 351 BAPE 2020,LSST RSST et CSTC,Établissement scolaire,45.580270,-73.622218,H1Z 1L6,Mur plafond plancher calorifuge,LSST RSST et CSTC,Établissement scolaire
-73.621516,45.569161,0,Centre Gabrielle-Roy,CSSDM,8699 Boul. St-Michel,Montréal,Québec,H1Z 3G1,Mur plancher calorifuge,Rapport 351 BAPE 2020,LSST RSST et CSTC,Établissement scolaire,45.569161,-73.621516,H1Z 3G1,Mur plancher calorifuge,LSST RSST et CSTC,Établissement scolaire
-73.599531,45.556784,0,Centre Saint-Mathieu,CSSDM,7230 8E Avenue,Montréal,Québec,H2A 3C7,Mur plafond plancher calorifuge,Rapport 351 BAPE 2020,LSST RSST et CSTC,Établissement scolaire,45.556784,-73.599531,H2A 3C7,Mur plafond plancher calorifuge,LSST RSST et CSTC,Établissement scolaire
-73.590835,45.470576,0,Centre Saint-Paul,CSSDM,4976 Rue Notre-Dame Ouest,Montréal,Québec,H4C 1S8,Mur plafond plancher calorifuge,Rapport 351 BAPE 2020,LSST RSST et CSTC,Établissement scolaire,45.470576,-73.590835,H4C 1S8,Mur plafond plancher calorifuge,LSST RSST et CSTC,Établissement scolaire
-73.628503,45.531517,0,Centre William-Hingston,CSSDM,419 Rue Saint-Roch,Montréal,Québec,H3N 1K2,Mur extérieur plafond plancher calorifuge,Rapport 351 BAPE 2020,LSST RSST et CSTC,Établissement scolaire,45.531517,-73.628503,H3N 1K2,Mur extérieur plafond plancher calorifuge,LSST RSST et CSTC,Établissement scolaire
-73.580193,45.52191,0,Centre St-Louis,CSSDM,4285 Rue Drolet,Montréal,Québec,H2W 2L7,Mur plafond plancher calorifuge,Rapport 351 BAPE 2020,LSST RSST et CSTC,Établissement scolaire,45.521910,-73.580193,H2W 2L7,Mur plafond plancher calorifuge,LSST RSST et CSTC,Établissement scolaire
-73.587661,45.528969,0,Centre-Champagnat,CSSDM,5017 Rue Saint-Hubert,Montréal,Québec,H2J 2X9,Mur plancher calorifuge,Rapport 351 BAPE 2020,LSST RSST et CSTC,Établissement scolaire,45.528969,-73.587661,H2J 2X9,Mur plancher calorifuge,LSST RSST et CSTC,Établissement scolaire
-73.553678,45.53189,0,Centre-Gédéon-Ouimet,CSSDM,1960 Rue Poupart,Montréal,Québec,H2K 3H2,Mur plafond plancher calorifuge,Rapport 351 BAPE 2020,LSST RSST et CSTC,Établissement scolaire,45.531890,-73.553678,H2K 3H2,Mur plafond plancher calorifuge,LSST RSST et CSTC,Établissement scolaire
-73.554739,45.583246,0,Centre-Hochelaga-Maisonneuve,CSSDM,5850 Avenue De Carignan,Montréal,Québec,H1M 2V4,Plafond plancher calorifuge,Rapport 351 BAPE 2020,LSST RSST et CSTC,Établissement scolaire,45.583246,-73.554739,H1M 2V4,Plafond plancher calorifuge,LSST RSST et CSTC,Établissement scolaire
-73.562994,45.527572,0,Centre-Lartigue,CSSDM,2217 Avenue Papineau,Montréal,Québec,H2K 4J5,Mur plafond plancher calorifuge,Rapport 351 BAPE 2020,LSST RSST et CSTC,Établissement scolaire,45.527572,-73.562994,H2K 4J5,Mur plafond plancher calorifuge,LSST RSST et CSTC,Établissement scolaire
-73.589588,45.546026,0,Centre-Marie-Médiatrice,CSSDM,6200 Rue Des Écores,Montréal,Québec,H2G 2J5,Plancher calorifuge,Rapport 351 BAPE 2020,LSST RSST et CSTC,Établissement scolaire,45.546026,-73.589588,H2G 2J5,Plancher calorifuge,LSST RSST et CSTC,Établissement scolaire
-73.632604,45.537159,0,Centre-Ste-Croix,CSSDM,85 Rue Jarry,Montréal,Québec,H2P 1S6,Mur plafond plancher calorifuge,Rapport 351 BAPE 2020,LSST RSST et CSTC,Établissement scolaire,45.537159,-73.632604,H2P 1S6,Mur plafond plancher calorifuge,LSST RSST et CSTC,Établissement scolaire
-73.554739,45.583246,0,Centre-Tetreaultville,CSSDM,5850 Avenue De Carignan,Montréal,Québec,H1M 2V4,Mur plafond plancher calorifuge,Rapport 351 BAPE 2020,LSST RSST et CSTC,Établissement scolaire,45.583246,-73.554739,H1M 2V4,Mur plafond plancher calorifuge,LSST RSST et CSTC,Établissement scolaire
-73.597925,45.568048,0,Centre-Yves-Theriault,CSSDM,3925 Rue Villeray,Montréal,Québec,H2A 1H1,Murplancher calorifuge,Rapport 351 BAPE 2020,LSST RSST et CSTC,Établissement scolaire,45.568048,-73.597925,H2A 1H1,Murplancher calorifuge,LSST RSST et CSTC,Établissement scolaire
-73.551455,45.527957,0,Champlain,CSSDM,2260 Rue Logan,Montréal,Québec,H2K 4K7,Plafond plancher calorifuge,Rapport 351 BAPE 2020,LSST RSST et CSTC,Établissement scolaire,45.527957,-73.551455,H2K 4K7,Plafond plancher calorifuge,LSST RSST et CSTC,Établissement scolaire
-73.583318,45.545251,0,Charles-Bruneau,CSSDM,2515 Rue Holt,Montréal,Québec,H1Y 1N4,Mur plafond plancher calorifuge,Rapport 351 BAPE 2020,LSST RSST et CSTC,Établissement scolaire,45.545251,-73.583318,H1Y 1N4,Mur plafond plancher calorifuge,LSST RSST et CSTC,Établissement scolaire
-73.56265,45.480007,0,Charles-Lemoyne,CSSDM,2001 Rue Mullins,Montréal,Québec,H3K 1N9,Mur plafond plancher calorifuge,Rapport 351 BAPE 2020,LSST RSST et CSTC,Établissement scolaire,45.480007,-73.56265,H3K 1N9,Mur plafond plancher calorifuge,LSST RSST et CSTC,Établissement scolaire
-73.621325,45.550899,0,Charlevoix Annexe,CSSDM,8150 Rue Rousselot,Montréal,Québec,H2E 1Z6,Plafond plancher calorifuge,Rapport 351 BAPE 2020,LSST RSST et CSTC,Établissement scolaire,45.550899,-73.621325,H2E 1Z6,Plafond plancher calorifuge,LSST RSST et CSTC,Établissement scolaire
-73.539322,45.553283,0,Chomedey-De-Maisonneuve,CSSDM,1860 Avenue Morgan,Montréal,Québec,H1V 2R2,Mur plafond plancher calorifuge,Rapport 351 BAPE 2020,LSST RSST et CSTC,Établissement scolaire,45.553283,-73.539322,H1V 2R2,Mur plafond plancher calorifuge,LSST RSST et CSTC,Établissement scolaire
-73.651436,45.55027,0,Christ-Roi,CSSDM,525 Rue Louvain Est,Montréal,Québec,H2M 1A1,Mur plafond plancher calorifuge,Rapport 351 BAPE 2020,LSST RSST et CSTC,Établissement scolaire,45.550270,-73.651436,H2M 1A1,Mur plafond plancher calorifuge,LSST RSST et CSTC,Établissement scolaire
-73.588751,45.455611,0,Coeur-Immaculé-De-Marie,CSSDM,1845 Boul. Desmarchais,Montréal,Québec,H4E 2B7,Mur plafond plancher,Rapport 351 BAPE 2020,LSST RSST et CSTC,Établissement scolaire,45.455611,-73.588751,H4E 2B7,Mur plafond plancher,LSST RSST et CSTC,Établissement scolaire
-73.588751,45.455611,0,Coeur-Immaculé-De-Marie,CSSDM,1845 Boul. Desmarchais,Montréal,Québec,H4E 2B7,Mur plafond plancher calorifuge,Rapport 351 BAPE 2020,LSST RSST et CSTC,Établissement scolaire,45.455611,-73.588751,H4E 2B7,Mur plafond plancher calorifuge,LSST RSST et CSTC,Établissement scolaire
-73.559543,45.520438,0,Com-Social-Centre-Sud,CSSDM,1710 Rue Beaudry,Montréal,Québec,H2L 3E7,Mur plafond plancher calorifuge,Rapport 351 BAPE 2020,LSST RSST et CSTC,Établissement scolaire,45.520438,-73.559543,H2L 3E7,Mur plafond plancher calorifuge,LSST RSST et CSTC,Établissement scolaire
-73.612032,45.536128,0,Crac De La Petite-Patrie,CSSDM,6839 Rue Drolet,Montréal,Québec,H2S 2T1,Mur plancher calorifuge,Rapport 351 BAPE 2020,LSST RSST et CSTC,Établissement scolaire,45.536128,-73.612032,H2S 2T1,Mur plancher calorifuge,LSST RSST et CSTC,Établissement scolaire
-73.665995,45.562076,0,Créca,CSSDM,10770 Rue Chambord,Montréal,Québec,H2C 2R8,Mur plafond plancher calorifuge,Rapport 351 BAPE 2020,LSST RSST et CSTC,Établissement scolaire,45.562076,-73.665995,H2C 2R8,Mur plafond plancher calorifuge,LSST RSST et CSTC,Établissement scolaire
-73.600772,45.525943,0,Crep,CSSDM,5643 Rue Clark,Montréal,Québec,H2T 2V5,Plancher,Rapport 351 BAPE 2020,LSST RSST et CSTC,Établissement scolaire,45.525943,-73.600772,H2T 2V5,Plancher,LSST RSST et CSTC,Établissement scolaire
-73.553317,45.566953,0,Csdm Centre-Administratif,CSSDM,5100 Rue Sherbrooke Est,Montréal,Québec,H1V 3R9,Mur plafond plancher calorifuge,Rapport 351 BAPE 2020,LSST RSST et CSTC,Établissement scolaire,45.566953,-73.553317,H1V 3R9,Mur plafond plancher calorifuge,LSST RSST et CSTC,Établissement scolaire
-73.553317,45.566953,0,Csdm Centre-Administratif Annexe,CSSDM,5100 Rue Sherbrooke Est,Montréal,Québec,H1V 3R9,Mur plancher calorifuge,Rapport 351 BAPE 2020,LSST RSST et CSTC,Établissement scolaire,45.566953,-73.553317,H1V 3R9,Mur plancher calorifuge,LSST RSST et CSTC,Établissement scolaire
-73.570983,45.488677,0,De La Petite Bourgogne,CSSDM,555 Rue Des Seigneurs,Montréal,Québec,H3J 1Y1,Mur plafond plancher Flocage calorifuge,Rapport 351 BAPE 2020,LSST RSST et CSTC,Établissement scolaire,45.488677,-73.570983,H3J 1Y1,Mur plafond plancher Flocage calorifuge,LSST RSST et CSTC,Établissement scolaire
-73.655967,45.570615,0,De La Visitation,CSSDM,10591 Rue Séguin,Montréal,Québec,H2B 2B8,Plancher calorifuge,Rapport 351 BAPE 2020,LSST RSST et CSTC,Établissement scolaire,45.570615,-73.655967,H2B 2B8,Plancher calorifuge,LSST RSST et CSTC,Établissement scolaire
-73.608801,45.526936,0,De L'Etincelle,CSSDM,6080 Avenue De L'Esplanade,Montréal,Québec,H2T 3A3,Mur plafond plancher calorifuge,Rapport 351 BAPE 2020,LSST RSST et CSTC,Établissement scolaire,45.526936,-73.608801,H2T 3A3,Mur plafond plancher calorifuge,LSST RSST et CSTC,Établissement scolaire
-73.63619,45.486388,0,Des Cinq-Continents,CSSDM,5330 Avenue Dupuis,Montréal,Québec,H3X 1N8,Mur plafond plancher calorifuge,Rapport 351 BAPE 2020,LSST RSST et CSTC,Établissement scolaire,45.486388,-73.63619,H3X 1N8,Mur plafond plancher calorifuge,LSST RSST et CSTC,Établissement scolaire
-73.638366,45.484104,0,Des Cinq-Continents Pavillon Saint-Antonin,CSSDM,5530 Avenue Dupuis,Montréal,Québec,H3X 1N8,Mur plafond plancher calorifuge,Rapport 351 BAPE 2020,LSST RSST et CSTC,Établissement scolaire,45.484104,-73.638366,H3X 1N8,Mur plafond plancher calorifuge,LSST RSST et CSTC,Établissement scolaire
-73.577186,45.565529,0,Des Monarques Édifice Saint-Jean-Vianney,CSSDM,6455 27E Avenue,Montréal,Québec,H1T 3J8,Mur plafond plancher calorifuge,Rapport 351 BAPE 2020,LSST RSST et CSTC,Établissement scolaire,45.565529,-73.577186,H1T 3J8,Mur plafond plancher calorifuge,LSST RSST et CSTC,Établissement scolaire
-73.597194,45.451646,0,Dollard-Des-Ormeaux,CSSDM,6639 Rue D'Aragon,Montréal,Québec,H4E 3B4,Mur extérieur plafond plancher calorifuge,Rapport 351 BAPE 2020,LSST RSST et CSTC,Établissement scolaire,45.451646,-73.597194,H4E 3B4,Mur extérieur plafond plancher calorifuge,LSST RSST et CSTC,Établissement scolaire
-73.657557,45.554719,0,École Ahuntsic,CSSDM,10085 Avenue Durham,Montréal,Québec,H2C 2G3,Mur plafond plancher calorifuge,Rapport 351 BAPE 2020,LSST RSST et CSTC,Établissement scolaire,45.554719,-73.657557,H2C 2G3,Mur plafond plancher calorifuge,LSST RSST et CSTC,Établissement scolaire
-73.648753,45.563608,0,École Au Jardin Bleu,CSSDM,1690 Sauvé Est,Montréal,Québec,H2C 2A8,Plancher calorifuge,Rapport 351 BAPE 2020,LSST RSST et CSTC,Établissement scolaire,45.563608,-73.648753,H2C 2A8,Plancher calorifuge,LSST RSST et CSTC,Établissement scolaire
-73.594557,45.529334,0,École Des Métiers De L'Équipement Motorisé De Montréal,CSSDM,5455 Rue Saint-Denis,Montréal,Québec,H2J 4B7,Mur plafond plancher calorifuge,Rapport 351 BAPE 2020,LSST RSST et CSTC,Établissement scolaire,45.529334,-73.594557,H2J 4B7,Mur plafond plancher calorifuge,LSST RSST et CSTC,Établissement scolaire
-73.576756,45.571784,0,École Des Monarques,CSSDM,6755 36E Avenue,Montréal,Québec,H1T 3J8,Mur plafond plancher calorifuge,Rapport 351 BAPE 2020,LSST RSST et CSTC,Établissement scolaire,45.571784,-73.576756,H1T 3J8,Mur plafond plancher calorifuge,LSST RSST et CSTC,Établissement scolaire
-73.617318,45.540456,0,École Laurier,CSSDM,7378 Rue Lajeunesse,Montréal,Québec,H1T 2Z9,Mur plafond plancher calorifuge,Rapport 351 BAPE 2020,LSST RSST et CSTC,Établissement scolaire,45.540456,-73.617318,H1T 2Z9,Mur plafond plancher calorifuge,LSST RSST et CSTC,Établissement scolaire
-73.52743,45.601335,0,École Saint-Claire Annexe,CSSDM,3075 Avenue Lebrun,Montréal,Québec,H1L 5G2,Mur plafond plancher calorifuge,Rapport 351 BAPE 2020,LSST RSST et CSTC,Établissement scolaire,45.601335,-73.52743,H1L 5G2,Mur plafond plancher calorifuge,LSST RSST et CSTC,Établissement scolaire
-73.584013,45.530247,0,École Saint-Joseph,CSSDM,1130 Boul. Saint-Joseph Est,Montréal,Québec,H2J 1L4,Plafond plancher calorifuge,Rapport 351 BAPE 2020,LSST RSST et CSTC,Établissement scolaire,45.530247,-73.584013,H2J 1L4,Plafond plancher calorifuge,LSST RSST et CSTC,Établissement scolaire
-73.537478,45.576857,0,Édouard-Montpetit,CSSDM,6200 Avenue Pierre-De-Coubertin,Montréal,Québec,H1N 1S4,Plafond plancher calorifuge,Rapport 351 BAPE 2020,LSST RSST et CSTC,Établissement scolaire,45.576857,-73.537478,H1N 1S4,Plafond plancher calorifuge,LSST RSST et CSTC,Établissement scolaire
-73.563973,45.531069,0,Elan,CSSDM,3450 Avenue De Lorimier,Montréal,Québec,H2K 3X6,Mur plafond plancher calorifuge,Rapport 351 BAPE 2020,LSST RSST et CSTC,Établissement scolaire,45.531069,-73.563973,H2K 3X6,Mur plafond plancher calorifuge,LSST RSST et CSTC,Établissement scolaire
-73.556295,45.529438,0,Emfm,CSSDM,2000 Rue Parthenais,Montréal,Québec,H2K 3S9,Mur plafond plancher calorifuge,Rapport 351 BAPE 2020,LSST RSST et CSTC,Établissement scolaire,45.529438,-73.556295,H2K 3S9,Mur plafond plancher calorifuge,LSST RSST et CSTC,Établissement scolaire
-73.935496,45.4066,0,Emica,CSSDM,3955 Rue de Bellechasse,Montréal,Québec,H1X 1J6,Plafond plancher calorifuge,Rapport 351 BAPE 2020,LSST RSST et CSTC,Établissement scolaire,45.406600,-73.935496,H1X 1J6,Plafond plancher calorifuge,LSST RSST et CSTC,Établissement scolaire
-73.581497,45.555317,0,Émica Annexe,CSSDM,6255 13E Avenue,Montréal,Québec,H1X 2Y6,Mur plafond plancher calorifuge,Rapport 351 BAPE 2020,LSST RSST et CSTC,Établissement scolaire,45.555317,-73.581497,H1X 2Y6,Mur plafond plancher calorifuge,LSST RSST et CSTC,Établissement scolaire
-73.648836,45.466741,0,Enfants-Du-Monde,CSSDM,5350 Avenue Rosedale,Montréal,Québec,H4V 2H9,Plafond plancher calorifuge,Rapport 351 BAPE 2020,LSST RSST et CSTC,Établissement scolaire,45.466741,-73.648836,H4V 2H9,Plafond plancher calorifuge,LSST RSST et CSTC,Établissement scolaire
-73.546237,45.554621,0,École secondaire Eulalie-Durocher,CSSDM,2455 Av. Letourneux,Montréal,Québec,H1V 2N9,Mur plafond plancher marquise calorifuge,Rapport 351 BAPE 2020,LSST RSST et CSTC,Établissement scolaire,45.554621,-73.546237,H1V 2N9,Mur plafond plancher marquise calorifuge,LSST RSST et CSTC,Établissement scolaire
-73.692051,45.539524,0,Evangeline,CSSDM,11845 Boul. L'Acadie,Montréal,Québec,H3M 2T4,Plafond plancher calorifuge,Rapport 351 BAPE 2020,LSST RSST et CSTC,Établissement scolaire,45.539524,-73.692051,H3M 2T4,Plafond plancher calorifuge,LSST RSST et CSTC,Établissement scolaire
-73.574265,45.505408,0,Face,CSSDM,3449 Rue University,Montréal,Québec,H3A 2A8,Mur plafond plancher calorifuge,Rapport 351 BAPE 2020,LSST RSST et CSTC,Établissement scolaire,45.505408,-73.574265,H3A 2A8,Mur plafond plancher calorifuge,LSST RSST et CSTC,Établissement scolaire
-73.624547,45.507471,0,Félix-Leclerc,CSSDM,6055 Avenue De Darlington,Montréal,Québec,H3S 2H9,Colonne plancher calorifuge,Rapport 351 BAPE 2020,LSST RSST et CSTC,Établissement scolaire,45.507471,-73.624547,H3S 2H9,Colonne plancher calorifuge,LSST RSST et CSTC,Établissement scolaire
-73.65762,45.554613,0,Fernand-Seguin Pavillon Hubert-Reeves,CSSDM,10050 Avenue Durham,Montréal,Québec,H2C 2G4,Mur plafond plancher calorifuge,Rapport 351 BAPE 2020,LSST RSST et CSTC,Établissement scolaire,45.554613,-73.65762,H2C 2G4,Mur plafond plancher calorifuge,LSST RSST et CSTC,Établissement scolaire
-73.65762,45.554613,0,Fernand-Seguin Pavillon Julie-Payette,CSSDM,10050 Avenue Durham,Montréal,Québec,H2C 2G3,Mur plafond plancher calorifuge,Rapport 351 BAPE 2020,LSST RSST et CSTC,Établissement scolaire,45.554613,-73.65762,H2C 2G3,Mur plafond plancher calorifuge,LSST RSST et CSTC,Établissement scolaire
-73.696698,45.543436,0,Francois-De-Laval,CSSDM,12050 Avenue Bois-De-Boulogne,Montréal,Québec,H3M 2X9,Mur extérieur mur plancher calorifuge,Rapport 351 BAPE 2020,LSST RSST et CSTC,Établissement scolaire,45.543436,-73.696698,H3M 2X9,Mur extérieur mur plancher calorifuge,LSST RSST et CSTC,Établissement scolaire
-73.696698,45.543436,0,François-De-Laval,CSSDM,12050 Avenue Bois-De-Boulogne,Montréal,Québec,H3M 2X9,Mur plafond plancher marquise calorifuge,Rapport 351 BAPE 2020,LSST RSST et CSTC,Établissement scolaire,45.543436,-73.696698,H3M 2X9,Mur plafond plancher marquise calorifuge,LSST RSST et CSTC,Établissement scolaire
-73.629146,45.54797,0,Gadbois,CSSDM,8305 Rue Saint-André,Montréal,Québec,H2P 1Y7,Mur plafond plancher calorifuge,Rapport 351 BAPE 2020,LSST RSST et CSTC,Établissement scolaire,45.547970,-73.629146,H2P 1Y7,Mur plafond plancher calorifuge,LSST RSST et CSTC,Établissement scolaire
-73.557633,45.524947,0,Garneau,CSSDM,1808 Avenue Papineau,Montréal,Québec,H2K 4J1,Mur plafond plancher calorifuge,Rapport 351 BAPE 2020,LSST RSST et CSTC,Établissement scolaire,45.524947,-73.557633,H2K 4J1,Mur plafond plancher calorifuge,LSST RSST et CSTC,Établissement scolaire
-73.623794,45.54882,0,Georges-Vanier,CSSDM,1205 Rue Jarry Est,Montréal,Québec,H2P 1W9,Mur plafond plancher calorifuge,Rapport 351 BAPE 2020,LSST RSST et CSTC,Établissement scolaire,45.548820,-73.623794,H2P 1W9,Mur plafond plancher calorifuge,LSST RSST et CSTC,Établissement scolaire
-73.69065,45.531285,0,Gilles-Vigneault,CSSDM,11400 Avenue De Poutrincourt,Montréal,Québec,H3M 1Z7,Mur plafond plancher calorifuge,Rapport 351 BAPE 2020,LSST RSST et CSTC,Établissement scolaire,45.531285,-73.69065,H3M 1Z7,Mur plafond plancher calorifuge,LSST RSST et CSTC,Établissement scolaire
-73.559951,45.583429,0,Guillaume-Couture,CSSDM,6300 Avenue Albani,Montréal,Québec,H1M 2R8,Mur plafond plancher calorifuge,Rapport 351 BAPE 2020,LSST RSST et CSTC,Établissement scolaire,45.583429,-73.559951,H1M 2R8,Mur plafond plancher calorifuge,LSST RSST et CSTC,Établissement scolaire
-73.629621,45.540427,0,Hélène Boulle,CSSDM,8050 Avenue De Gaspé,Montréal,Québec,H2R 2A7,Mur plancher calorifuge,Rapport 351 BAPE 2020,LSST RSST et CSTC,Établissement scolaire,45.540427,-73.629621,H2R 2A7,Mur plancher calorifuge,LSST RSST et CSTC,Établissement scolaire
-73.621325,45.550899,0,Henri-Julien,CSSDM,8150 Rue Rousselot,Montréal,Québec,H2E 1Z6,Mur plafond plancher calorifuge,Rapport 351 BAPE 2020,LSST RSST et CSTC,Établissement scolaire,45.550899,-73.621325,H2E 1Z6,Mur plafond plancher calorifuge,LSST RSST et CSTC,Établissement scolaire
-73.59091,45.455697,0,Honore-Mercier,CSSDM,1935 Boul. Desmarchais,Montréal,Québec,H4E 2B9,Mur plafond plancher flocage isolant grenier calorifuge,Rapport 351 BAPE 2020,LSST RSST et CSTC,Établissement scolaire,45.455697,-73.59091,H4E 2B9,Mur plafond plancher flocage isolant grenier calorifuge,LSST RSST et CSTC,Établissement scolaire
-73.629726,45.482466,0,Internationale De Montréal Primaire,CSSDM,5010 Avenue Coolbrook,Montréal,Québec,H3X 2K9,Mur plafond plancher calorifuge,Rapport 351 BAPE 2020,LSST RSST et CSTC,Établissement scolaire,45.482466,-73.629726,H3X 2K9,Mur plafond plancher calorifuge,LSST RSST et CSTC,Établissement scolaire
-73.625195,45.484597,0,Iona,CSSDM,5000 Avenue Iona,Montréal,Québec,H3W 2A2,Mur plafond plancher calorifuge,Rapport 351 BAPE 2020,LSST RSST et CSTC,Établissement scolaire,45.484597,-73.625195,H3W 2A2,Mur plafond plancher calorifuge,LSST RSST et CSTC,Établissement scolaire
-73.546,45.555863,0,Irenée-Lussier,CSSDM,4420 Rue Hochelaga,Montréal,Québec,H1V 0C1,Mur plafond plancher calorifuge,Rapport 351 BAPE 2020,LSST RSST et CSTC,Établissement scolaire,45.555863,-73.546,H1V 0C1,Mur plafond plancher calorifuge,LSST RSST et CSTC,Établissement scolaire
-73.548182,45.552621,0,Irénée-Lussier Annexes,CSSDM,4100 Rue Hochelaga,Montréal,Québec,H1V 1B6,Mur plafond plancher calorifuge,Rapport 351 BAPE 2020,LSST RSST et CSTC,Établissement scolaire,45.552621,-73.548182,H1V 1B6,Mur plafond plancher calorifuge,LSST RSST et CSTC,Établissement scolaire
-73.558607,45.53208,0,Jean-Baptiste-Meilleur,CSSDM,2237 Rue Fullum,Montréal,Québec,H2K 3P1,Mur plancher calorifuge,Rapport 351 BAPE 2020,LSST RSST et CSTC,Établissement scolaire,45.532080,-73.558607,H2K 3P1,Mur plancher calorifuge,LSST RSST et CSTC,Établissement scolaire
-73.556538,45.477762,0,Jeanne-Leber,CSSDM,2120 Rue Favard,Montréal,Québec,H3K 1Z7,Mur plafond plancher calorifuge,Rapport 351 BAPE 2020,LSST RSST et CSTC,Établissement scolaire,45.477762,-73.556538,H3K 1Z7,Mur plafond plancher calorifuge,LSST RSST et CSTC,Établissement scolaire
-73.569072,45.532567,0,Jeanne-Mance,CSSDM,4240 Rue De Bordeaux,Montréal,Québec,H2H 1Z5,Mur plafond plancher calorifuge,Rapport 351 BAPE 2020,LSST RSST et CSTC,Établissement scolaire,45.532567,-73.569072,H2H 1Z5,Mur plafond plancher calorifuge,LSST RSST et CSTC,Établissement scolaire
-73.622536,45.551437,0,Joseph-Charbonneau,CSSDM,8200 Rue Rousselot,Montréal,Québec,H2E 1Z6,Plafond plancher calorifuge,Rapport 351 BAPE 2020,LSST RSST et CSTC,Établissement scolaire,45.551437,-73.622536,H2E 1Z6,Plafond plancher calorifuge,LSST RSST et CSTC,Établissement scolaire
-73.600036,45.563695,0,Joseph-François-Perrault,CSSDM,7450 Rue François-Perreault,Montréal,Québec,H2A 1L9,Mur plafond plancher calorifuge,Rapport 351 BAPE 2020,LSST RSST et CSTC,Établissement scolaire,45.563695,-73.600036,H2A 1L9,Mur plafond plancher calorifuge,LSST RSST et CSTC,Établissement scolaire
-73.600036,45.563695,0,Joseph-François-Perrault,CSSDM,7450 Rue François-Perreault,Montréal,Québec,H2A 1L9,Plancher,Rapport 351 BAPE 2020,LSST RSST et CSTC,Établissement scolaire,45.563695,-73.600036,H2A 1L9,Plancher,LSST RSST et CSTC,Établissement scolaire
-73.640178,45.462651,0,Judith-Jasmin,CSSDM,4575 Avenue Mariette,Montréal,Québec,H4B 2G3,Mur plafond plancher calorifuge,Rapport 351 BAPE 2020,LSST RSST et CSTC,Établissement scolaire,45.462651,-73.640178,H4B 2G3,Mur plafond plancher calorifuge,LSST RSST et CSTC,Établissement scolaire
-73.641102,45.498753,0,La Voie,CSSDM,6755 Rue Lavoie,Montréal,Québec,H3W 2K8,Mur plafond plancher calorifuge,Rapport 351 BAPE 2020,LSST RSST et CSTC,Établissement scolaire,45.498753,-73.641102,H3W 2K8,Mur plafond plancher calorifuge,LSST RSST et CSTC,Établissement scolaire
-73.687824,45.537266,0,La-Dauversiere,CSSDM,11600 Boul. De L'Acadie,Montréal,Québec,H3M 2T2,Mur plafond plancher calorifuge,Rapport 351 BAPE 2020,LSST RSST et CSTC,Établissement scolaire,45.537266,-73.687824,H3M 2T2,Mur plafond plancher calorifuge,LSST RSST et CSTC,Établissement scolaire
-73.603283,45.526238,0,Lambert-Closse,CSSDM,5840 Rue Saint-Urbain,Montréal,Québec,H2T 2X5,Mur plafond plancher calorifuge,Rapport 351 BAPE 2020,LSST RSST et CSTC,Établissement scolaire,45.526238,-73.603283,H2T 2X5,Mur plafond plancher calorifuge,LSST RSST et CSTC,Établissement scolaire
-73.605472,45.534242,0,La-Mennais,CSSDM,6521 Rue Saint-Denis,Montréal,Québec,H2S 2S1,Mur plafond plancher calorifuge,Rapport 351 BAPE 2020,LSST RSST et CSTC,Établissement scolaire,45.534242,-73.605472,H2S 2S1,Mur plafond plancher calorifuge,LSST RSST et CSTC,Établissement scolaire
-73.574379,45.528901,0,Lanaudiere,CSSDM,4300 Rue De Lanaudière,Montréal,Québec,H2J 3N9,Mur plafond plancher calorifuge,Rapport 351 BAPE 2020,LSST RSST et CSTC,Établissement scolaire,45.528901,-73.574379,H2J 3N9,Mur plafond plancher calorifuge,LSST RSST et CSTC,Établissement scolaire
-73.588346,45.528389,0,Laurier,CSSDM,505 Avenue Laurier Est,Montréal,Québec,H2J 1E9,Mur extérieur mur plafond plancher calorifuge marquise,Rapport 351 BAPE 2020,LSST RSST et CSTC,Établissement scolaire,45.528389,-73.588346,H2J 1E9,Mur extérieur mur plafond plancher calorifuge marquise,LSST RSST et CSTC,Établissement scolaire
-73.52769,45.604657,0,La-Verendrye,CSSDM,3055 Rue Mousseau,Montréal,Québec,H1L 4W1,Mur plafond plancher calorifuge,Rapport 351 BAPE 2020,LSST RSST et CSTC,Établissement scolaire,45.604657,-73.52769,H1L 4W1,Mur plafond plancher calorifuge,LSST RSST et CSTC,Établissement scolaire
-73.568603,45.52615,0,Le-Plateau,CSSDM,3700 Avenue Calixa-Lavallée,Montréal,Québec,H2L 3A8,Mur plafond plancher calorifuge,Rapport 351 BAPE 2020,LSST RSST et CSTC,Établissement scolaire,45.526150,-73.568603,H2L 3A8,Mur plafond plancher calorifuge,LSST RSST et CSTC,Établissement scolaire
-73.597664,45.535038,0,Le-Vitrail,CSSDM,5927 Rue Boyer,Montréal,Québec,H2S 2H8,Mur plafond plancher,Rapport 351 BAPE 2020,LSST RSST et CSTC,Établissement scolaire,45.535038,-73.597664,H2S 2H8,Mur plafond plancher,LSST RSST et CSTC,Établissement scolaire
-73.599199,45.535714,0,6255 Rue Boyer,CSSDM,6255 Rue Boyer,Montréal,Québec,H2S 2J2,Mur plafond plancher,Rapport 351 BAPE 2020,LSST RSST et CSTC,Établissement scolaire,45.535714,-73.599199,H2S 2J2,Mur plafond plancher,LSST RSST et CSTC,Établissement scolaire
-73.647244,45.571428,0,Loisirs Smc,CSSDM,10125 Rue Parthenais,Montréal,Québec,H2B 2L6,Mur plafond plancher calorifuge,Rapport 351 BAPE 2020,LSST RSST et CSTC,Établissement scolaire,45.571428,-73.647244,H2B 2L6,Mur plafond plancher calorifuge,LSST RSST et CSTC,Établissement scolaire
-73.708845,45.526657,0,Louisbourg,CSSDM,11880 Rue Michel-Sarrazin,Montréal,Québec,H4J 2G7,Plafond plancher calorifuge,Rapport 351 BAPE 2020,LSST RSST et CSTC,Établissement scolaire,45.526657,-73.708845,H4J 2G7,Plafond plancher calorifuge,LSST RSST et CSTC,Établissement scolaire
-73.654138,45.560943,0,Louis-Colin,CSSDM,10122 Boul. Olympia,Montréal,Québec,H2C 2V9,Mur plafond plancher calorifuge,Rapport 351 BAPE 2020,LSST RSST et CSTC,Établissement scolaire,45.560943,-73.654138,H2C 2V9,Mur plafond plancher calorifuge,LSST RSST et CSTC,Établissement scolaire
-73.536545,45.578319,0,Louis-Dupire,CSSDM,6400 Avenue Pierre-De-Courbertin,Montréal,Québec,H1N 1S4,Plafond plancher calorifuge,Rapport 351 BAPE 2020,LSST RSST et CSTC,Établissement scolaire,45.578319,-73.536545,H1N 1S4,Plafond plancher calorifuge,LSST RSST et CSTC,Établissement scolaire
-73.524699,45.59779,0,Louise-Trichet,CSSDM,2800 Boul. Lapointe,Montréal,Québec,H1L 5M1,Mur plafond plancher calorifuge calfeutrage des fenêtres,Rapport 351 BAPE 2020,LSST RSST et CSTC,Établissement scolaire,45.597790,-73.524699,H1L 5M1,Mur plafond plancher calorifuge calfeutrage des fenêtres,LSST RSST et CSTC,Établissement scolaire
-73.578073,45.523201,0,Louis-H-Lafontaine,CSSDM,4245 Rue Berri,Montréal,Québec,H2J 2P9,Mur plafond plancher calorifuge,Rapport 351 BAPE 2020,LSST RSST et CSTC,Établissement scolaire,45.523201,-73.578073,H2J 2P9,Mur plafond plancher calorifuge,LSST RSST et CSTC,Établissement scolaire
-73.632568,45.570849,0,Louis-Joseph-Papineau,CSSDM,2901 Rue De Louvain Est,Montréal,Québec,H1Z 1J7,Mur plafond plancher calorifuge,Rapport 351 BAPE 2020,LSST RSST et CSTC,Établissement scolaire,45.570849,-73.632568,H1Z 1J7,Mur plafond plancher calorifuge,LSST RSST et CSTC,Établissement scolaire
-73.554739,45.583246,0,Louis-Riel,CSSDM,5850 Avenue De Carignan,Montréal,Québec,H1M 2V4,Mur extérieur mur plancher calorifuge,Rapport 351 BAPE 2020,LSST RSST et CSTC,Établissement scolaire,45.583246,-73.554739,H1M 2V4,Mur extérieur mur plancher calorifuge,LSST RSST et CSTC,Établissement scolaire
-73.633216,45.539317,0,Lucien-Pagé,CSSDM,8200 Boul. Saint-Laurent,Montréal,Québec,H2P 2L8,Mur plafond plancher calorifuge,Rapport 351 BAPE 2020,LSST RSST et CSTC,Établissement scolaire,45.539317,-73.633216,H2P 2L8,Mur plafond plancher calorifuge,LSST RSST et CSTC,Établissement scolaire
-73.585308,45.478319,0,Ludger-Duvernay,CSSDM,770 Rue Du Couvent,Montréal,Québec,H4C 2R6,Mur plancher flocage calorifuge,Rapport 351 BAPE 2020,LSST RSST et CSTC,Établissement scolaire,45.478319,-73.585308,H4C 2R6,Mur plancher flocage calorifuge,LSST RSST et CSTC,Établissement scolaire
-73.592781,45.542033,0,Madeleine-De-Verchères,CSSDM,6017 Rue Cartier,Montréal,Québec,H2G 2V4,Mur plafond plancher calorifuge,Rapport 351 BAPE 2020,LSST RSST et CSTC,Établissement scolaire,45.542033,-73.592781,H2G 2V4,Mur plafond plancher calorifuge,LSST RSST et CSTC,Établissement scolaire
-73.535492,45.552045,0,Maisonneuve,CSSDM,1680 Avenue Morgan,Montréal,Québec,H1V 2P9,Mur plafond plancher calorifuge,Rapport 351 BAPE 2020,LSST RSST et CSTC,Établissement scolaire,45.552045,-73.535492,H1V 2P9,Mur plafond plancher calorifuge,LSST RSST et CSTC,Établissement scolaire
-73.635764,45.470403,0,Marc Favreau,CSSDM,6310 Avenue Somerled,Montréal,Québec,H3X 2B8,Mur plafond plancher flocage calorifuge,Rapport 351 BAPE 2020,LSST RSST et CSTC,Établissement scolaire,45.470403,-73.635764,H3X 2B8,Mur plafond plancher flocage calorifuge,LSST RSST et CSTC,Établissement scolaire
-73.561941,45.523988,0,Marguerite-Bourgeoys,CSSDM,2070 Rue Plessis,Montréal,Québec,H2L 2Y3,Mur plafond plancher calorifuge,Rapport 351 BAPE 2020,LSST RSST et CSTC,Établissement scolaire,45.523988,-73.561941,H2L 2Y3,Mur plafond plancher calorifuge,LSST RSST et CSTC,Établissement scolaire
-73.551206,45.570661,0,Marguerite-De-Lajemmerais,CSSDM,5555 Rue Sherbrooke Est,Montréal,Québec,H1N 1A2,Mur plafond plancher calorifuge,Rapport 351 BAPE 2020,LSST RSST et CSTC,Établissement scolaire,45.570661,-73.551206,H1N 1A2,Mur plafond plancher calorifuge,LSST RSST et CSTC,Établissement scolaire
-73.658938,45.548247,0,Marie-Anne,CSSDM,100 Rue Sauvé Est,Montréal,Québec,H3L 1H1,Mur plafond plancher calorifuge,Rapport 351 BAPE 2020,LSST RSST et CSTC,Établissement scolaire,45.548247,-73.658938,H3L 1H1,Mur plafond plancher calorifuge,LSST RSST et CSTC,Établissement scolaire
-73.61984,45.545764,0,Marie-Favery,CSSDM,7750 Avenue Christophe-Colomb,Montréal,Québec,H2R 2S9,Mur plafond plancher calorifuge,Rapport 351 BAPE 2020,LSST RSST et CSTC,Établissement scolaire,45.545764,-73.61984,H2R 2S9,Mur plafond plancher calorifuge,LSST RSST et CSTC,Établissement scolaire
-73.584496,45.464355,0,Marie-Incarnation,CSSDM,5446 Rue Angers,Montréal,Québec,H4E 4A3,Mur plafond plancher calorifuge,Rapport 351 BAPE 2020,LSST RSST et CSTC,Établissement scolaire,45.464355,-73.584496,H4E 4A3,Mur plafond plancher calorifuge,LSST RSST et CSTC,Établissement scolaire
-73.632018,45.571256,0,Marie-Rivier Pavillon Legendre,CSSDM,9200 8E Avenue,Montréal,Québec,H1Z 2Y5,Plafond plancher calorifuge,Rapport 351 BAPE 2020,LSST RSST et CSTC,Établissement scolaire,45.571256,-73.632018,H1Z 2Y5,Plafond plancher calorifuge,LSST RSST et CSTC,Établissement scolaire
-72.573799,46.348675,0,Marie-Rivier Pavillon Louvain,CSSDM,9200 8E Avenue,Montréal,Québec,H1Z 2Y5,Mur plafond plancher calorifuge,Rapport 351 BAPE 2020,LSST RSST et CSTC,Établissement scolaire,46.348675,-72.573799,H1Z 2Y5,Mur plafond plancher calorifuge,LSST RSST et CSTC,Établissement scolaire
-73.578693,45.539848,0,Métiers De La Construction De Montréal,CSSDM,5205 Rue Parthenais,Montréal,Québec,H2H 2H4,Mur plafond plancher calorifuge,Rapport 351 BAPE 2020,LSST RSST et CSTC,Établissement scolaire,45.539848,-73.578693,H2H 2H4,Mur plafond plancher calorifuge,LSST RSST et CSTC,Établissement scolaire
-73.580906,45.494176,0,Métiers De La Restauration Et Du Tourisme De Montréal,CSSDM,1822 Boul. De Maisonneuve Ouest,Montréal,Québec,H3H 1J8,Mur plafond plancher calorifuge,Rapport 351 BAPE 2020,LSST RSST et CSTC,Établissement scolaire,45.494176,-73.580906,H3H 1J8,Mur plafond plancher calorifuge,LSST RSST et CSTC,Établissement scolaire
-73.548094,45.569623,0,Métiers De L'Aérospatiale De Montréal,CSSDM,5300 Rue Chauveau,Montréal,Québec,H1N 3V7,Plancher,Rapport 351 BAPE 2020,LSST RSST et CSTC,Établissement scolaire,45.569623,-73.548094,H1N 3V7,Plancher,LSST RSST et CSTC,Établissement scolaire
-73.62134,45.569629,0,Montcalm,CSSDM,8800 12E Avenue,Montréal,Québec,H1Z 3J3,Mur plafond plancher flocage calorifuge,Rapport 351 BAPE 2020,LSST RSST et CSTC,Établissement scolaire,45.569629,-73.62134,H1Z 3J3,Mur plafond plancher flocage calorifuge,LSST RSST et CSTC,Établissement scolaire
-73.616658,45.475928,0,Notre-Dame-De-Grâce,CSSDM,5435 Avenue Notre-Dame-De-Grâche,Montréal,Québec,H4A 1L2,Mur plafond plancher calorifuge,Rapport 351 BAPE 2020,LSST RSST et CSTC,Établissement scolaire,45.475928,-73.616658,H4A 1L2,Mur plafond plancher calorifuge,LSST RSST et CSTC,Établissement scolaire
-73.616658,45.475928,0,Notre-Dame-De-Grâce Annexe,CSSDM,5435 Avenue Notre-Dame-De-Grâche,Montréal,Québec,H4A 1L2,Mur plafond plancher calorifuge,Rapport 351 BAPE 2020,LSST RSST et CSTC,Établissement scolaire,45.475928,-73.616658,H4A 1L2,Mur plafond plancher calorifuge,LSST RSST et CSTC,Établissement scolaire
-73.612061,45.535596,0,Notre-Dame-De-La-Défense,CSSDM,6841 Avenue Henri-Julien,Montréal,Québec,H2S 2V3,Mur plafond plancher calorifuge,Rapport 351 BAPE 2020,LSST RSST et CSTC,Établissement scolaire,45.535596,-73.612061,H2S 2V3,Mur plafond plancher calorifuge,LSST RSST et CSTC,Établissement scolaire
-73.552421,45.54405,0,Notre-Dame-De-L'Assomption,CSSDM,2430 Rue Darling,Montréal,Québec,H1W 2X1,Plancher calorifuge,Rapport 351 BAPE 2020,LSST RSST et CSTC,Établissement scolaire,45.544050,-73.552421,H1W 2X1,Plancher calorifuge,LSST RSST et CSTC,Établissement scolaire
-73.623391,45.496733,0,Notre-Dame-Des - Neiges,CSSDM,5309 Chemin De La Côte-Des-Neiges,Montréal,Québec,H3T 1Y4,Mur plafond plancher calorifuge,Rapport 351 BAPE 2020,LSST RSST et CSTC,Établissement scolaire,45.496733,-73.623391,H3T 1Y4,Mur plafond plancher calorifuge,LSST RSST et CSTC,Établissement scolaire
-73.539669,45.573737,0,École primaire Notre-Dame-des-Victoires,CSSDM,2720 Rue Bossuet,Montréal,Québec,H1N 2S6,Mur plafond plancher calorifuge,Rapport 351 BAPE 2020,LSST RSST et CSTC,Établissement scolaire,45.573737,-73.539669,H1N 2S6,Mur plafond plancher calorifuge,LSST RSST et CSTC,Établissement scolaire
-73.539669,45.573737,0,Notre-Dame-Des-Victoires Annexe,CSSDM,2720 Rue Bossuet,Montréal,Québec,H1N 2S6,Mur plafond plancher marquise calorifuge,Rapport 351 BAPE 2020,LSST RSST et CSTC,Établissement scolaire,45.573737,-73.539669,H1N 2S6,Mur plafond plancher marquise calorifuge,LSST RSST et CSTC,Établissement scolaire
-73.564249,45.571836,0,Notre-Dame-Du-Foyer,CSSDM,5955 41E Avenue,Montréal,Québec,H1T 2T7,Mur plafond plancher calorifuge,Rapport 351 BAPE 2020,LSST RSST et CSTC,Établissement scolaire,45.571836,-73.564249,H1T 2T7,Mur plafond plancher calorifuge,LSST RSST et CSTC,Établissement scolaire
-73.596731,45.457299,0,Notre-Dame-Du-Perpétuel-Secours,CSSDM,6025 Rue Beaulieu,Montréal,Québec,H4E 3E7,Plafond plancher calorifuge,Rapport 351 BAPE 2020,LSST RSST et CSTC,Établissement scolaire,45.457299,-73.596731,H4E 3E7,Plafond plancher calorifuge,LSST RSST et CSTC,Établissement scolaire
-73.582271,45.532103,0,Paul-Bruchési,CSSDM,1310 Boul. Saint-Joseph Est,Montréal,Québec,H2J 1M2,Plancher calorifuge,Rapport 351 BAPE 2020,LSST RSST et CSTC,Établissement scolaire,45.532103,-73.582271,H2J 1M2,Plancher calorifuge,LSST RSST et CSTC,Établissement scolaire
-73.537767,45.555703,0,Pavillon D'Éducation Commun. Hochelaga-Maisonneuve,CSSDM,4650 Rue Ontario Est,Montréal,Québec,H1V 1L2,Mur plafond plancher calorifuge,Rapport 351 BAPE 2020,LSST RSST et CSTC,Établissement scolaire,45.555703,-73.537767,H1V 1L2,Mur plafond plancher calorifuge,LSST RSST et CSTC,Établissement scolaire
-73.537767,45.555703,0,Pavillon D'Éducation Communautaire Hochelaga-Maisonneuve,CSSDM,4650 Ontario Est,Montréal,Québec,H1V 1L2,Mur plafond plancher calorifuge,Rapport 351 BAPE 2020,LSST RSST et CSTC,Établissement scolaire,45.555703,-73.537767,H1V 1L2,Mur plafond plancher calorifuge,LSST RSST et CSTC,Établissement scolaire
-73.59376,45.54108,0,Père-Marquette,CSSDM,6030 Rue Marquette,Montréal,Québec,H2G 2Y2,Plancher calorifuge,Rapport 351 BAPE 2020,LSST RSST et CSTC,Établissement scolaire,45.541080,-73.59376,H2G 2Y2,Plancher calorifuge,LSST RSST et CSTC,Établissement scolaire
-73.522315,45.610212,0,Philippe-Labarre,CSSDM,3125 Avenue Fletcher,Montréal,Québec,H1L 4E2,Mur extérieur mur plafond plancher calorifuge,Rapport 351 BAPE 2020,LSST RSST et CSTC,Établissement scolaire,45.610212,-73.522315,H1L 4E2,Mur extérieur mur plafond plancher calorifuge,LSST RSST et CSTC,Établissement scolaire
-73.556295,45.529438,0,Pierre-Dupuy,CSSDM,2000 Rue Parthenais,Montréal,Québec,H2K 3S9,Mur plafond plancher calorifuge,Rapport 351 BAPE 2020,LSST RSST et CSTC,Établissement scolaire,45.529438,-73.556295,H2K 3S9,Mur plafond plancher calorifuge,LSST RSST et CSTC,Établissement scolaire
-73.594758,45.524026,0,Robert-Gravel,CSSDM,38 Avenue Fairmount Est,Montréal,Québec,H2T 1C9,Mur plancher calorifuge,Rapport 351 BAPE 2020,LSST RSST et CSTC,Établissement scolaire,45.524026,-73.594758,H2T 1C9,Mur plancher calorifuge,LSST RSST et CSTC,Établissement scolaire
-73.551047,45.577523,0,Rosalie-Jetté,CSSDM,5100 Rue Bossuet,Montréal,Québec,H1M 2M4,Mur plafond plancher calorifuge,Rapport 351 BAPE 2020,LSST RSST et CSTC,Établissement scolaire,45.577523,-73.551047,H1M 2M4,Mur plafond plancher calorifuge,LSST RSST et CSTC,Établissement scolaire
-73.588722,45.552282,0,Rose-Des-Vents,CSSDM,3000 Rue Beaubien Est,Montréal,Québec,H1Y 1H2,Mur plafond plancher,Rapport 351 BAPE 2020,LSST RSST et CSTC,Établissement scolaire,45.552282,-73.588722,H1Y 1H2,Mur plafond plancher,LSST RSST et CSTC,Établissement scolaire
-73.564944,45.554141,0,Saint-Albert-Le-Grand Et Annexe,CSSDM,5050 18E Avenue,Montréal,Québec,H1X 2N9,Mur plafond plancher calorifuge,Rapport 351 BAPE 2020,LSST RSST et CSTC,Établissement scolaire,45.554141,-73.564944,H1X 2N9,Mur plafond plancher calorifuge,LSST RSST et CSTC,Établissement scolaire
-73.601256,45.539761,0,Saint-Ambroise,CSSDM,6555 De Normanville,Montréal,Québec,H2S 2B8,Mur plafond plancher,Rapport 351 BAPE 2020,LSST RSST et CSTC,Établissement scolaire,45.539761,-73.601256,H2S 2B8,Mur plafond plancher,LSST RSST et CSTC,Établissement scolaire
-73.648378,45.579476,0,Saint-Antoine-Marie-Claret,CSSDM,10600 Avenue Larose,Montréal,Québec,H2B 2Z3,Plancher calorifuge,Rapport 351 BAPE 2020,LSST RSST et CSTC,Établissement scolaire,45.579476,-73.648378,H2B 2Z3,Plancher calorifuge,LSST RSST et CSTC,Établissement scolaire
-73.606643,45.552372,0,Saint-Barthélémy Pavillon Sagard,CSSDM,7400 Rue Sagard,Montréal,Québec,H2E 2S9,Mur plafond plancher calorifuge,Rapport 351 BAPE 2020,LSST RSST et CSTC,Établissement scolaire,45.552372,-73.606643,H2E 2S9,Mur plafond plancher calorifuge,LSST RSST et CSTC,Établissement scolaire
-73.667663,45.541791,0,Saint-Benoît,CSSDM,500 Avenue Du Mont-Cassin,Montréal,Québec,H3L 1W6,Mur plafond plancher calorifuge,Rapport 351 BAPE 2020,LSST RSST et CSTC,Établissement scolaire,45.541791,-73.667663,H3L 1W6,Mur plafond plancher calorifuge,LSST RSST et CSTC,Établissement scolaire
-73.643557,45.461319,0,Sainte-Catherine-De-Sienne,CSSDM,7055 Avenue Somerled,Montréal,Québec,H4V 1V7,,Rapport 351 BAPE 2020,LSST RSST et CSTC,Établissement scolaire,45.461319,-73.643557,H4V 1V7,,LSST RSST et CSTC,Établissement scolaire
-73.590417,45.520518,0,Saint-Enfant-Jésus,CSSDM,75 Rue Villeneuve,Montréal,Québec,H2T 1L1,Mur extérieur plafond plancher calorifuge,Rapport 351 BAPE 2020,LSST RSST et CSTC,Établissement scolaire,45.520518,-73.590417,H2T 1L1,Mur extérieur plafond plancher calorifuge,LSST RSST et CSTC,Établissement scolaire
-73.518068,45.594373,0,Saint-François-D'Assise,CSSDM,2150 Rue Liébert,Montréal,Québec,H1L 5R1,Plafond plancher flocage calorifuge,Rapport 351 BAPE 2020,LSST RSST et CSTC,Établissement scolaire,45.594373,-73.518068,H1L 5R1,Plafond plancher flocage calorifuge,LSST RSST et CSTC,Établissement scolaire
-73.574474,45.55486,0,Saint-François-Solano,CSSDM,3580 Rue Dandurand,Montréal,Québec,H1X 1N6,Mur plafond plancher calorifuge,Rapport 351 BAPE 2020,LSST RSST et CSTC,Établissement scolaire,45.554860,-73.574474,H1X 1N6,Mur plafond plancher calorifuge,LSST RSST et CSTC,Établissement scolaire
-73.58704,45.47728,0,Saint-Henri,CSSDM,4115 Rue Saint-Jacques,Montréal,Québec,H4C 1J3,Mur plafond plancher calorifuge,Rapport 351 BAPE 2020,LSST RSST et CSTC,Établissement scolaire,45.477280,-73.58704,H4C 1J3,Mur plafond plancher calorifuge,LSST RSST et CSTC,Établissement scolaire
-73.547849,45.552536,0,Saint-Jean-Baptiste-De-La-Salle,CSSDM,2355 Boul. Pie-Ix,Montréal,Québec,H1V 2E6,Mur plafond plancher calorifuge,Rapport 351 BAPE 2020,LSST RSST et CSTC,Établissement scolaire,45.552536,-73.547849,H1V 2E6,Mur plafond plancher calorifuge,LSST RSST et CSTC,Établissement scolaire
-73.578067,45.548959,0,Saint-Jean-De-Brébeuf,CSSDM,2870 Rue Dandurand,Montréal,Québec,H1Y 1T5,Mur plafond plancher calorifuge,Rapport 351 BAPE 2020,LSST RSST et CSTC,Établissement scolaire,45.548959,-73.578067,H1Y 1T5,Mur plafond plancher calorifuge,LSST RSST et CSTC,Établissement scolaire
-73.570984,45.548598,0,Saint-Jean-De-La-Lande,CSSDM,3129 Avenue Laurier Est,Montréal,Québec,H1Y 1Z6,Mur plancher calorifuge,Rapport 351 BAPE 2020,LSST RSST et CSTC,Établissement scolaire,45.548598,-73.570984,H1Y 1Z6,Mur plancher calorifuge,LSST RSST et CSTC,Établissement scolaire
-73.59352,45.486371,0,Saint-Léon-De-Westmount,CSSDM,360 Avenue Clark,Montréal,Québec,H3Z 2E6,Mur plafond plancher calorifuge,Rapport 351 BAPE 2020,LSST RSST et CSTC,Établissement scolaire,45.486371,-73.59352,H3Z 2E6,Mur plafond plancher calorifuge,LSST RSST et CSTC,Établissement scolaire
-73.643137,45.474382,0,Saint-Luc,CSSDM,6300 Chemin De La Côte-Saint-Luc,Montréal,Québec,H3X 2H4,Mur plafond plancher calorifuge calfeutrage des fenêtres,Rapport 351 BAPE 2020,LSST RSST et CSTC,Établissement scolaire,45.474382,-73.643137,H3X 2H4,Mur plafond plancher calorifuge calfeutrage des fenêtres,LSST RSST et CSTC,Établissement scolaire
-73.589313,45.549871,0,Saint-Marc,CSSDM,6365 1E Avenue,Montréal,Québec,H1Y 3A9,Mur plafond plancher,Rapport 351 BAPE 2020,LSST RSST et CSTC,Établissement scolaire,45.549871,-73.589313,H1Y 3A9,Mur plafond plancher,LSST RSST et CSTC,Établissement scolaire
-73.599531,45.556784,0,Saint-Mathieu,CSSDM,7230 8E Avenue,Montréal,Québec,H2A 3C7,Mur plafond plancher calorifuge,Rapport 351 BAPE 2020,LSST RSST et CSTC,Établissement scolaire,45.556784,-73.599531,H2A 3C7,Mur plafond plancher calorifuge,LSST RSST et CSTC,Établissement scolaire
-73.613231,45.577764,0,Saint-Noël-Chabanel,CSSDM,8777 24E Avenue,Montréal,Québec,H1Z 3Z8,Mur plancher calorifuge calfeutrage des fenêtres,Rapport 351 BAPE 2020,LSST RSST et CSTC,Établissement scolaire,45.577764,-73.613231,H1Z 3Z8,Mur plancher calorifuge calfeutrage des fenêtres,LSST RSST et CSTC,Établissement scolaire
-73.537371,45.549161,0,Saint-Nom-Jésus,CSSDM,4131 Rue Adam,Montréal,Québec,H1V 1S8,Mur plancher calorifuge,Rapport 351 BAPE 2020,LSST RSST et CSTC,Établissement scolaire,45.549161,-73.537371,H1V 1S8,Mur plancher calorifuge,LSST RSST et CSTC,Établissement scolaire
-73.639153,45.540165,0,Saint-Pierre-Apôtre,CSSDM,8550 Rue Clark,Montréal,Québec,H2P 2N7,Mur plafond plancher calorifuge,Rapport 351 BAPE 2020,LSST RSST et CSTC,Établissement scolaire,45.540165,-73.639153,H2P 2N7,Mur plafond plancher calorifuge,LSST RSST et CSTC,Établissement scolaire
-73.647257,45.571173,0,Saints-Martyrs-Canadiens,CSSDM,9920 Rue Parthenais,Montréal,Québec,H2B 2LR,Mur plafond plancher calorifuge,Rapport 351 BAPE 2020,LSST RSST et CSTC,Établissement scolaire,45.571173,-73.647257,H2B 2LR,Mur plafond plancher calorifuge,LSST RSST et CSTC,Établissement scolaire
-73.590088,45.470239,0,Saint-Zotique,CSSDM,4841 Avenue Palm,Montréal,Québec,H4C 1Y1,Mur plafond plancher calorifuge,Rapport 351 BAPE 2020,LSST RSST et CSTC,Établissement scolaire,45.470239,-73.590088,H4C 1Y1,Mur plafond plancher calorifuge,LSST RSST et CSTC,Établissement scolaire
-73.582588,45.552383,0,Sans-Frontieres,CSSDM,5937 9E Avenue,Montréal,Québec,H1Y 2K4,Mur plafond plancher calorifuge,Rapport 351 BAPE 2020,LSST RSST et CSTC,Établissement scolaire,45.552383,-73.582588,H1Y 2K4,Mur plafond plancher calorifuge,LSST RSST et CSTC,Établissement scolaire
-73.627343,45.49721,0,Simonne-Monet,CSSDM,3850 Avenue Dupuis,Montréal,Québec,H3T 1E6,Mur plafond plancher calorifuge,Rapport 351 BAPE 2020,LSST RSST et CSTC,Établissement scolaire,45.497210,-73.627343,H3T 1E6,Mur plafond plancher calorifuge,LSST RSST et CSTC,Établissement scolaire
-73.66626,45.561942,0,Sophie-Barat,CSSDM,1239 Boul. Gouin Est,Montréal,Québec,H2C 1B3,Mur extérieur mur plafond plancher calorifuge,Rapport 351 BAPE 2020,LSST RSST et CSTC,Établissement scolaire,45.561942,-73.66626,H2C 1B3,Mur extérieur mur plafond plancher calorifuge,LSST RSST et CSTC,Établissement scolaire
-73.668265,45.558576,0,Sophie-Barat Annexe,CSSDM,750 Boul. Gouin Est,Montréal,Québec,H2C 1A6,Mur plafond plancher marquise calorifuge,Rapport 351 BAPE 2020,LSST RSST et CSTC,Établissement scolaire,45.558576,-73.668265,H2C 1A6,Mur plafond plancher marquise calorifuge,LSST RSST et CSTC,Établissement scolaire
-73.564944,45.554141,0,St-Albert-Le-Grand,CSSDM,5050 18E Avenue,Montréal,Québec,H1X 2N9,Mur plafond plancher calorifuge,Rapport 351 BAPE 2020,LSST RSST et CSTC,Établissement scolaire,45.554141,-73.564944,H1X 2N9,Mur plafond plancher calorifuge,LSST RSST et CSTC,Établissement scolaire
-73.601256,45.539761,0,St-Ambroise,CSSDM,6555 De Normanville,Montréal,Québec,H2S 2B8,Mur plafond plancher,Rapport 351 BAPE 2020,LSST RSST et CSTC,Établissement scolaire,45.539761,-73.601256,H2S 2B8,Mur plafond plancher,LSST RSST et CSTC,Établissement scolaire
-73.669869,45.546626,0,St-Andre-Apotre,CSSDM,215 Rue Prieur Ouest,Montréal,Québec,H3L 1R7,Mur extérieur plafond plancher marquise calorifuge,Rapport 351 BAPE 2020,LSST RSST et CSTC,Établissement scolaire,45.546626,-73.669869,H3L 1R7,Mur extérieur plafond plancher marquise calorifuge,LSST RSST et CSTC,Établissement scolaire
-73.554768,45.536203,0,St-Anselme,CSSDM,2743 Rue De Rouen,Montréal,Québec,H2K 1N2,Mur plafond plancher calorifuge,Rapport 351 BAPE 2020,LSST RSST et CSTC,Établissement scolaire,45.536203,-73.554768,H2K 1N2,Mur plafond plancher calorifuge,LSST RSST et CSTC,Établissement scolaire
-73.608719,45.540905,0,St-Arsène,CSSDM,6972 Avenue Christophe-Colomb,Montréal,Québec,H2S 2H5,Mur plafond plancher calorifuge,Rapport 351 BAPE 2020,LSST RSST et CSTC,Établissement scolaire,45.540905,-73.608719,H2S 2H5,Mur plafond plancher calorifuge,LSST RSST et CSTC,Établissement scolaire
-73.606643,45.552372,0,École primaire Saint-Barthélemy - Pavillon Sagard,CSSDM,7400 Rue Sagard,Montréal,Québec,H2E 2S9,Mur plancher,Rapport 351 BAPE 2020,LSST RSST et CSTC,Établissement scolaire,45.552372,-73.606643,H2E 2S9,Mur plancher,LSST RSST et CSTC,Établissement scolaire
-73.667663,45.541791,0,St-Benoit,CSSDM,500 Avenue Du Mont-Cassin,Montréal,Québec,H3L 1W6,Mur plafond plancher calorifuge,Rapport 351 BAPE 2020,LSST RSST et CSTC,Établissement scolaire,45.541791,-73.667663,H3L 1W6,Mur plafond plancher calorifuge,LSST RSST et CSTC,Établissement scolaire
-73.611814,45.561309,0,St-Bernardin,CSSDM,2950 Rue Jarry Est,Montréal,Québec,H1Z 2C8,Mur plafond plancher calorifuge,Rapport 351 BAPE 2020,LSST RSST et CSTC,Établissement scolaire,45.561309,-73.611814,H1Z 2C8,Mur plafond plancher calorifuge,LSST RSST et CSTC,Établissement scolaire
-73.53465,45.556619,0,St-Clément,CSSDM,4770 Rue La Fontaine,Montréal,Québec,H1V 1R3,Mur plafond plancher calorifuge,Rapport 351 BAPE 2020,LSST RSST et CSTC,Établissement scolaire,45.556619,-73.53465,H1V 1R3,Mur plafond plancher calorifuge,LSST RSST et CSTC,Établissement scolaire
-73.540205,45.583754,0,St-Donat,CSSDM,3155 Rue Desautels,Montréal,Québec,H1N 3B8,Mur plafond plancher calorifuge,Rapport 351 BAPE 2020,LSST RSST et CSTC,Établissement scolaire,45.583754,-73.540205,H1N 3B8,Mur plafond plancher calorifuge,LSST RSST et CSTC,Établissement scolaire
-73.537944,45.584033,0,St-Donat Annexe,CSSDM,3100 Rue Arcand,Montréal,Québec,H1N 3C7,Mur plafond plancher calorifuge,Rapport 351 BAPE 2020,LSST RSST et CSTC,Établissement scolaire,45.584033,-73.537944,H1N 3C7,Mur plafond plancher calorifuge,LSST RSST et CSTC,Établissement scolaire
-73.589081,45.560201,0,Ste-Bernadette-Soubirous,CSSDM,6855 16E Avenue,Montréal,Québec,H1X 2T5,Plafond plancher calorifuge,Rapport 351 BAPE 2020,LSST RSST et CSTC,Établissement scolaire,45.560201,-73.589081,H1X 2T5,Plafond plancher calorifuge,LSST RSST et CSTC,Établissement scolaire
-73.578004,45.553834,0,Ste-Bibiane,CSSDM,5755 13E Avenue,Montréal,Québec,H1X 2Y3,Mur plafond plancher calorifuge,Rapport 351 BAPE 2020,LSST RSST et CSTC,Établissement scolaire,45.553834,-73.578004,H1X 2Y3,Mur plafond plancher calorifuge,LSST RSST et CSTC,Établissement scolaire
-73.618499,45.537219,0,Ste-Cécile,CSSDM,7230 Avenue De Gaspé,Montréal,Québec,H2R 1Z6,Mur plafond plancher calorifuge,Rapport 351 BAPE 2020,LSST RSST et CSTC,Établissement scolaire,45.537219,-73.618499,H2R 1Z6,Mur plafond plancher calorifuge,LSST RSST et CSTC,Établissement scolaire
-73.525676,45.599938,0,Ste-Claire,CSSDM,8500 Rue Sainte-Claire,Montréal,Québec,H1L 1X7,Mur plafond plancher calorifuge,Rapport 351 BAPE 2020,LSST RSST et CSTC,Établissement scolaire,45.599938,-73.525676,H1L 1X7,Mur plafond plancher calorifuge,LSST RSST et CSTC,Établissement scolaire
-73.555138,45.548931,0,Ste-Jeanne-Darc,CSSDM,3700 Rue Sherbrooke Est,Montréal,Québec,H1X 1Z8,Mur plafond plancher calorifuge,Rapport 351 BAPE 2020,LSST RSST et CSTC,Établissement scolaire,45.548931,-73.555138,H1X 1Z8,Mur plafond plancher calorifuge,LSST RSST et CSTC,Établissement scolaire
-73.530174,45.596359,0,Ste-Louise-De-Marillac,CSSDM,8100 Rue De Marseille,Montréal,Québec,H1L 1P3,Mur plafond plancher calorifuge,Rapport 351 BAPE 2020,LSST RSST et CSTC,Établissement scolaire,45.596359,-73.530174,H1L 1P3,Mur plafond plancher calorifuge,LSST RSST et CSTC,Établissement scolaire
-73.624579,45.570501,0,Ste-Lucie,CSSDM,8901 Boul. Saint-Michel,Montréal,Québec,H1Z 3G3,Plafond plancher calorifuge,Rapport 351 BAPE 2020,LSST RSST et CSTC,Établissement scolaire,45.570501,-73.624579,H1Z 3G3,Plafond plancher calorifuge,LSST RSST et CSTC,Établissement scolaire
-73.55848,45.546586,0,St-Emile,CSSDM,3450 Rue Davidson,Montréal,Québec,H1W 2Z5,Mur plafond plancher calorifuge,Rapport 351 BAPE 2020,LSST RSST et CSTC,Établissement scolaire,45.546586,-73.55848,H1W 2Z5,Mur plafond plancher calorifuge,LSST RSST et CSTC,Établissement scolaire
-73.597192,45.535904,0,St-Etienne,CSSDM,5959 Rue Christophe-Colomb,Montréal,Québec,H2S 2G3,Mur plafond plancher calorifuge,Rapport 351 BAPE 2020,LSST RSST et CSTC,Établissement scolaire,45.535904,-73.597192,H2S 2G3,Mur plafond plancher calorifuge,LSST RSST et CSTC,Établissement scolaire
-73.550958,45.582778,0,St-Fabien,CSSDM,6500 Avenue De Renty,Montréal,Québec,H1M 1M4,Plafond plancher calorifuge,Rapport 351 BAPE 2020,LSST RSST et CSTC,Établissement scolaire,45.582778,-73.550958,H1M 1M4,Plafond plancher calorifuge,LSST RSST et CSTC,Établissement scolaire
-73.610688,45.546974,0,St-Gabriel-Lalemant Annexe,CSSDM,7350 Rue Garnier,Montréal,Québec,H2E 2A3,Mur plafond plancher,Rapport 351 BAPE 2020,LSST RSST et CSTC,Établissement scolaire,45.546974,-73.610688,H2E 2A3,Mur plafond plancher,LSST RSST et CSTC,Établissement scolaire
-73.610688,45.546974,0,St-Gabriel-Lalement,CSSDM,7350 Rue Garnier,Montréal,Québec,H2E 2A3,Plafond plancher calorifuge,Rapport 351 BAPE 2020,LSST RSST et CSTC,Établissement scolaire,45.546974,-73.610688,H2E 2A3,Plafond plancher calorifuge,LSST RSST et CSTC,Établissement scolaire
-73.615855,45.552572,0,St-Gregoire-Le-Grand,CSSDM,7950 Rue Cartier,Montréal,Québec,H2E 2K2,Mur plafond plancher calorifuge,Rapport 351 BAPE 2020,LSST RSST et CSTC,Établissement scolaire,45.552572,-73.615855,H2E 2K2,Mur plafond plancher calorifuge,LSST RSST et CSTC,Établissement scolaire
-73.643731,45.558776,0,St-Isaac-Jogues,CSSDM,9355 Avenue De Galinée,Montréal,Québec,H2M 2A7,Mur extérieur plafond plancher calorifuge,Rapport 351 BAPE 2020,LSST RSST et CSTC,Établissement scolaire,45.558776,-73.643731,H2M 2A7,Mur extérieur plafond plancher calorifuge,LSST RSST et CSTC,Établissement scolaire
-73.570654,45.548835,0,St-Jean-De-La-Lande Annexe,CSSDM,5095 9E Avenue,Montréal,Québec,H1Y 2J3,Mur plancher calorifuge,Rapport 351 BAPE 2020,LSST RSST et CSTC,Établissement scolaire,45.548835,-73.570654,H1Y 2J3,Mur plancher calorifuge,LSST RSST et CSTC,Établissement scolaire
-73.592995,45.455774,0,St-Jean-Matha,CSSDM,1975 Boul. Desmarchais,Montréal,Québec,H4E 2B9,Plafond plancher calorifuge,Rapport 351 BAPE 2020,LSST RSST et CSTC,Établissement scolaire,45.455774,-73.592995,H4E 2B9,Plafond plancher calorifuge,LSST RSST et CSTC,Établissement scolaire
-73.531958,45.605897,0,St-Justin,CSSDM,5005 Rue Mousseau,Montréal,Québec,H1K 2V8,Plafond plancher calorifuge,Rapport 351 BAPE 2020,LSST RSST et CSTC,Établissement scolaire,45.605897,-73.531958,H1K 2V8,Plafond plancher calorifuge,LSST RSST et CSTC,Établissement scolaire
-73.531958,45.605897,0,St-Justin,CSSDM,5005 Rue Mousseau,Montréal,Québec,H1K 2V8,Mur plancher calorifuge,Rapport 351 BAPE 2020,LSST RSST et CSTC,Établissement scolaire,45.605897,-73.531958,H1K 2V8,Mur plancher calorifuge,LSST RSST et CSTC,Établissement scolaire
-73.565017,45.536551,0,St-Louis-De-Gonzague,CSSDM,2430 Terrasse Mercure,Montréal,Québec,J0S 1T0,Mur plafond plancher calorifuge,Rapport 351 BAPE 2020,LSST RSST et CSTC,Établissement scolaire,45.536551,-73.565017,J0S 1T0,Mur plafond plancher calorifuge,LSST RSST et CSTC,Établissement scolaire
-73.643137,45.474382,0,St-Luc,CSSDM,6300 Chemin De La Côte-Saint-Luc,Montréal,Québec,H3X 2H4,Mur plancher calorifuge,Rapport 351 BAPE 2020,LSST RSST et CSTC,Établissement scolaire,45.474382,-73.643137,H3X 2H4,Mur plancher calorifuge,LSST RSST et CSTC,Établissement scolaire
-73.613231,45.577764,0,8777 Av. 24e,CSSDM,8777 Av. 24e,Montréal,Québec,H1Z 3Z8,Calorifuge,Rapport 351 BAPE 2020,LSST RSST et CSTC,Établissement scolaire,45.577764,-73.613231,H1Z 3Z8,Calorifuge,LSST RSST et CSTC,Établissement scolaire
-73.706762,45.534121,0,St-Odile_Annexe,CSSDM,12055 Rue Dépatie,Montréal,Québec,H4J 1W9,Mur plancher calorifuge,Rapport 351 BAPE 2020,LSST RSST et CSTC,Établissement scolaire,45.534121,-73.706762,H4J 1W9,Mur plancher calorifuge,LSST RSST et CSTC,Établissement scolaire
-73.634629,45.501858,0,St-Pascal-Baylon,CSSDM,6320 Chemin De La Côte-Des-Neiges,Montréal,Québec,H3S 2A4,Mur plafond plancher calorifuge,Rapport 351 BAPE 2020,LSST RSST et CSTC,Établissement scolaire,45.501858,-73.634629,H3S 2A4,Mur plafond plancher calorifuge,LSST RSST et CSTC,Établissement scolaire
-73.66205,45.559335,0,St-Paul-De-La-Croix,CSSDM,10495 Avenue Georges-Baril,Montréal,Québec,H2C 2N1,Mur plancher,Rapport 351 BAPE 2020,LSST RSST et CSTC,Établissement scolaire,45.559335,-73.66205,H2C 2N1,Mur plancher,LSST RSST et CSTC,Établissement scolaire
-73.576737,45.537987,0,St-Pierre-Claver,CSSDM,2110 Boul. Saint-Joseph Est,Montréal,Québec,H2H 1E7,Mur plafond plancher calorifuge,Rapport 351 BAPE 2020,LSST RSST et CSTC,Établissement scolaire,45.537987,-73.576737,H2H 1E7,Mur plafond plancher calorifuge,LSST RSST et CSTC,Établissement scolaire
-73.646648,45.539983,0,St-Simon Apotre,CSSDM,195 Rue De Beauharnois Ouest,Montréal,Québec,H2N 1K1,Mur plafond plancher calorifuge,Rapport 351 BAPE 2020,LSST RSST et CSTC,Établissement scolaire,45.539983,-73.646648,H2N 1K1,Mur plafond plancher calorifuge,LSST RSST et CSTC,Établissement scolaire
-73.626348,45.551768,0,Victor-Dore,CSSDM,1350 Boul. Crémazie Est,Montréal,Québec,H2E 1A1,Mur plafond plancher calorifuge,Rapport 351 BAPE 2020,LSST RSST et CSTC,Établissement scolaire,45.551768,-73.626348,H2E 1A1,Mur plafond plancher calorifuge,LSST RSST et CSTC,Établissement scolaire
-73.578549,45.479458,0,Victor-Rousselot,CSSDM,3525 Rue Sainte-Émilie,Montréal,Québec,H4C 1Z3,Mur plafond plancher calorifuge,Rapport 351 BAPE 2020,LSST RSST et CSTC,Établissement scolaire,45.479458,-73.578549,H4C 1Z3,Mur plafond plancher calorifuge,LSST RSST et CSTC,Établissement scolaire
-73.62072,45.501344,0,2910  Boul. Édouard-Montpetit,Université de Montréal,2910 Boul. Édouard-Montpetit,Montréal,Québec,H3T 1J7,Murs plafonds calorifuge,Rapport 351 BAPE 2020,LSST RSST et CSTC,Établissement scolaire,45.501344,-73.62072,H3T 1J7,Murs plafonds calorifuge,LSST RSST et CSTC,Établissement scolaire
-73.614962,45.504338,0,Centrale Thermique,Université de Montréal,2787 Chemin Des Services,Montréal,Québec,H3T 1J4,Plafonds calorifuge,Rapport 351 BAPE 2020,LSST RSST et CSTC,Établissement scolaire,45.504338,-73.614962,H3T 1J4,Plafonds calorifuge,LSST RSST et CSTC,Établissement scolaire
-73.613725,45.50884,0,Cepsum (Stade D'Hiver Centre D'Éducation Physique Et Des Sports Corridor),Université de Montréal,2100 Boul. Édouard-Montpetit,Montréal,Québec,H3T 1J4,Murs plafonds calorifuges,Rapport 351 BAPE 2020,LSST RSST et CSTC,Établissement scolaire,45.508840,-73.613725,H3T 1J4,Murs plafonds calorifuges,LSST RSST et CSTC,Établissement scolaire
-73.617661,45.500829,0,Garage Louis-Colin,Université de Montréal,5255 Av. Louis-Colin,Montréal,Québec,H3T 1N8,Murs plafonds,Rapport 351 BAPE 2020,LSST RSST et CSTC,Établissement scolaire,45.500829,-73.617661,H3T 1N8,Murs plafonds,LSST RSST et CSTC,Établissement scolaire
-73.614962,45.504338,0,Pavillon De La Direction Des Immeubles,Université de Montréal,2787 Chem. Des Services,Montréal,Québec,H3T 1J4,Murs plafonds calorifuge,Rapport 351 BAPE 2020,LSST RSST et CSTC,Établissement scolaire,45.504338,-73.614962,H3T 1J4,Murs plafonds calorifuge,LSST RSST et CSTC,Établissement scolaire
-73.621858,45.504752,0,Pavillon De La Faculté De L'Aménagement,Université de Montréal,2940 Chem. De La Côte-Sainte-Catherine,Montréal,Québec,H3T 1B9,Murs plafonds,Rapport 351 BAPE 2020,LSST RSST et CSTC,Établissement scolaire,45.504752,-73.621858,H3T 1B9,Murs plafonds,LSST RSST et CSTC,Établissement scolaire
-73.610401,45.50943,0,Pavillon De La Faculté De Musique Et Salle Claude-Champagne,Université de Montréal,200 Av. Vincent-D'Indy,Montréal,Québec,H2V 2T2,Murs plafonds calorifuges autres,Rapport 351 BAPE 2020,LSST RSST et CSTC,Établissement scolaire,45.509430,-73.610401,H2V 2T2,Murs plafonds calorifuges autres,LSST RSST et CSTC,Établissement scolaire
-73.615115,45.507307,0,Pavillon J.-A. Desève,Université de Montréal,2332 Bd Édouard-Montpetit,Montréal,Québec,H3T 1J4,Murs plafonds calorifuge,Rapport 351 BAPE 2020,LSST RSST et CSTC,Établissement scolaire,45.507307,-73.615115,H3T 1J4,Murs plafonds calorifuge,LSST RSST et CSTC,Établissement scolaire
-73.62072,45.501344,0,Pavillon Jean-Marc-Léger,Université de Montréal,2910 Boul. Édouard-Montpetit,Montréal,Québec,H3T 1J7,Murs plafonds,Rapport 351 BAPE 2020,LSST RSST et CSTC,Établissement scolaire,45.501344,-73.62072,H3T 1J7,Murs plafonds,LSST RSST et CSTC,Établissement scolaire
-73.618006,45.50916,0,Pavillon Marguerite-D'Youville Et Pavillon Lilliane De Stewart,Université de Montréal,2375 Chem. De La Côte-Sainte-Catherine,Montréal,Québec,H3T 1A8,Murs plafonds,Rapport 351 BAPE 2020,LSST RSST et CSTC,Établissement scolaire,45.509160,-73.618006,H3T 1A8,Murs plafonds,LSST RSST et CSTC,Établissement scolaire
-73.611815,45.510075,0,Pavillon Marie-Victorin,Université de Montréal,90 Av. Vincent-D'Indy,Montréal,Québec,H2V 2S9,Murs plafonds calorifuges,Rapport 351 BAPE 2020,LSST RSST et CSTC,Établissement scolaire,45.510075,-73.611815,H2V 2S9,Murs plafonds calorifuges,LSST RSST et CSTC,Établissement scolaire
-73.61806,45.500012,0,Pavillon Maximilien Caron 3200 Jean-Brillant Et Pavillon Lionel Groulx,Université de Montréal,3200 Jean-Brillant,Montréal,Québec,H3T 1N8,Plafonds calorifuge,Rapport 351 BAPE 2020,LSST RSST et CSTC,Établissement scolaire,45.500012,-73.61806,H3T 1N8,Plafonds calorifuge,LSST RSST et CSTC,Établissement scolaire
-73.61655,45.500951,0,Pavillon René-J.-A.- Lévesque,Université de Montréal,2905 Chem. Des Services,Montréal,Québec,H3T 1J4,Murs plafonds calorifuge,Rapport 351 BAPE 2020,LSST RSST et CSTC,Établissement scolaire,45.500951,-73.61655,H3T 1J4,Murs plafonds calorifuge,LSST RSST et CSTC,Établissement scolaire
-73.618725,45.503275,0,Pavillon Roger-Gaudry,Université de Montréal,2900 Bd Édouard-Montpetit ·,Montréal,Québec,H3T 1J4,Murs plafonds calorifuge,Rapport 351 BAPE 2020,LSST RSST et CSTC,Établissement scolaire,45.503275,-73.618725,H3T 1J4,Murs plafonds calorifuge,LSST RSST et CSTC,Établissement scolaire
-73.619897,45.497885,0,Pavillon Samuel-Bronfman,Université de Montréal,3000 Rue Jean-Brillant,Montréal,Québec,H3T 1N7,Calorifuge,Rapport 351 BAPE 2020,LSST RSST et CSTC,Établissement scolaire,45.497885,-73.619897,H3T 1N7,Calorifuge,LSST RSST et CSTC,Établissement scolaire
-73.616076,45.506253,0,Pavillon Thérèse-Casgrain,Université de Montréal,2450 Boul. Édouard-Montpetit,Montréal,Québec,H3T 1J4,Murs plafonds calorifuges,Rapport 351 BAPE 2020,LSST RSST et CSTC,Établissement scolaire,45.506253,-73.616076,H3T 1J4,Murs plafonds calorifuges,LSST RSST et CSTC,Établissement scolaire
-73.614347,45.502375,0,Poste D'Alimentation De L'Hydro-Québec,Université de Montréal,2950 Chemin Des Services,Montréal,Québec,H3T 1J3,Murs plafonds calorifuges,Rapport 351 BAPE 2020,LSST RSST et CSTC,Établissement scolaire,45.502375,-73.614347,H3T 1J3,Murs plafonds calorifuges,LSST RSST et CSTC,Établissement scolaire
-73.616006,45.50633,0,Résidence A Et Annexe,Université de Montréal,2442 Bd Édouard-Montpetit,Montréal,Québec,H3T 1J4,Murs plafonds calorifuge,Rapport 351 BAPE 2020,LSST RSST et CSTC,Établissement scolaire,45.506330,-73.616006,H3T 1J4,Murs plafonds calorifuge,LSST RSST et CSTC,Établissement scolaire
-73.615203,45.507211,0,Résidence C,Université de Montréal,2350 Bd Édouard-Montpetit,Montréal,Québec,H3T 1J4,Murs,Rapport 351 BAPE 2020,LSST RSST et CSTC,Établissement scolaire,45.507211,-73.615203,H3T 1J4,Murs,LSST RSST et CSTC,Établissement scolaire
-73.56065,45.512368,0,1250 Rue Sanguinet,Université du Québec à Montréal,1250 Rue Sanguinet,Montréal,Québec,H2X 3E7,Plâtre plafond composé gypse crépi calorifuge ciment,Rapport 351 BAPE 2020,LSST RSST et CSTC,Établissement scolaire,45.512368,-73.56065,H2X 3E7,Plâtre plafond composé gypse crépi calorifuge ciment,LSST RSST et CSTC,Établissement scolaire
-73.56105,45.513922,0,Athanase-David,Université du Québec à Montréal,1430 Rue Saint-Denis,Montréal,Québec,H2X 3J8,Flocage poutre,Rapport 351 BAPE 2020,LSST RSST et CSTC,Établissement scolaire,45.513922,-73.56105,H2X 3J8,Flocage poutre,LSST RSST et CSTC,Établissement scolaire
-73.559753,45.511953,0,Centre Sportif,Université du Québec à Montréal,1212 Rue Sanguinet,Montréal,Québec,H2X 3E7,Calorifuge(raccord soupape coude),Rapport 351 BAPE 2020,LSST RSST et CSTC,Établissement scolaire,45.511953,-73.559753,H2X 3E7,Calorifuge(raccord soupape coude),LSST RSST et CSTC,Établissement scolaire
-73.567915,45.520521,0,Danse,Université du Québec à Montréal,840 Rue Cherrier,Montréal,Québec,H2L 1H4,Mur ciment plâtre plâtre plafond,Rapport 351 BAPE 2020,LSST RSST et CSTC,Établissement scolaire,45.520521,-73.567915,H2L 1H4,Mur ciment plâtre plâtre plafond,LSST RSST et CSTC,Établissement scolaire
-73.561641,45.512618,0,Du Faubourg,Université du Québec à Montréal,279 Rue Sainte-Catherine Est,Montréal,Québec,H2X 1L5,Structure intérieur mur,Rapport 351 BAPE 2020,LSST RSST et CSTC,Établissement scolaire,45.512618,-73.561641,H2X 1L5,Structure intérieur mur,LSST RSST et CSTC,Établissement scolaire
-73.560461,45.513773,0,Hubert-Aquin,Université du Québec à Montréal,400 Rue Sainte-Catherine Est,Montréal,Québec,H2L 2C5,Calorifuge(raccord soupape coude)TVA,Rapport 351 BAPE 2020,LSST RSST et CSTC,Établissement scolaire,45.513773,-73.560461,H2L 2C5,Calorifuge(raccord soupape coude)TVA,LSST RSST et CSTC,Établissement scolaire
-73.560603,45.51383,0,Judith-Jasmin,Université du Québec à Montréal,405 Rue Sainte-Catherine E,Montréal,Québec,H2L 2C4,Calorifuge(raccord soupape coude)TVA,Rapport 351 BAPE 2020,LSST RSST et CSTC,Établissement scolaire,45.513830,-73.560603,H2L 2C4,Calorifuge(raccord soupape coude)TVA,LSST RSST et CSTC,Établissement scolaire
-73.561995,45.514519,0,Maisonneuve,Université du Québec à Montréal,405 Boul. De Maisonneuve Est,Montréal,Québec,H2L 4J5,Calorifuge(raccord soupape coude),Rapport 351 BAPE 2020,LSST RSST et CSTC,Établissement scolaire,45.514519,-73.561995,H2L 4J5,Calorifuge(raccord soupape coude),LSST RSST et CSTC,Établissement scolaire
-73.560549,45.513672,0,Saint-Denis,Université du Québec à Montréal,1290 RueSaint-Denis,Montréal,Québec,H2X 3R9,Plâtre plafond composé gypse crépi TVA,Rapport 351 BAPE 2020,LSST RSST et CSTC,Établissement scolaire,45.513672,-73.560549,H2X 3R9,Plâtre plafond composé gypse crépi TVA,LSST RSST et CSTC,Établissement scolaire
-73.562229,45.511939,0,Sainte-Catherine,Université du Québec à Montréal,209 Rue Sainte-Catherine,Montréal,Québec,H2X 1L1,Plâtre plafondcolonne composé gypse  TVA,Rapport 351 BAPE 2020,LSST RSST et CSTC,Établissement scolaire,45.511939,-73.562229,H2X 1L1,Plâtre plafondcolonne composé gypse  TVA,LSST RSST et CSTC,Établissement scolaire
-73.561345,45.512969,0,Sciences De La Gestion,Université du Québec à Montréal,315 Rue Sainte-Catherine Est,Montréal,Québec,H2X 3X2,Calorifuge(raccord soupape coude),Rapport 351 BAPE 2020,LSST RSST et CSTC,Établissement scolaire,45.512969,-73.561345,H2X 3X2,Calorifuge(raccord soupape coude),LSST RSST et CSTC,Établissement scolaire
-73.570566,45.509908,0,Sherbrooke,Université du Québec à Montréal,200 Rue Sherbrooke Oues,Montréal,Québec,H2X 3P2,Plâtre plafond composé gypse crépi flocage,Rapport 351 BAPE 2020,LSST RSST et CSTC,Établissement scolaire,45.509908,-73.570566,H2X 3P2,Plâtre plafond composé gypse crépi flocage,LSST RSST et CSTC,Établissement scolaire
-73.558408,45.512839,0,Thérèse-Casgrain,Université du Québec à Montréal,455 Boul. René-Lévesque Est,Montréal,Québec,H2L 4Y2,Flocage poutre calorifuge(raccord soupape coude),Rapport 351 BAPE 2020,LSST RSST et CSTC,Établissement scolaire,45.512839,-73.558408,H2L 4Y2,Flocage poutre calorifuge(raccord soupape coude),LSST RSST et CSTC,Établissement scolaire
-73.578044,45.502631,0,3459 Rue Peel,Université McGill,3459 Rue Peel,Montréal,Québec,H3A 1W7,Isolant dans certains endroits et Murs,Rapport 351 BAPE 2020,LSST RSST et CSTC,Établissement scolaire,45.502631,-73.578044,H3A 1W7,Isolant dans certains endroits et Murs,LSST RSST et CSTC,Établissement scolaire
-73.578154,45.502685,0,3463 Rue Peel,Université McGill,3463 Rue Peel,Montréal,Québec,H3A 1W7,Isolant dans certains endroits et Murs,Rapport 351 BAPE 2020,LSST RSST et CSTC,Établissement scolaire,45.502685,-73.578154,H3A 1W7,Isolant dans certains endroits et Murs,LSST RSST et CSTC,Établissement scolaire
-73.57821,45.502712,0,3465 Rue Peel,Université McGill,3465 Rue Peel,Montréal,Québec,H3A 1W7,Isolant dans certains endroits et Murs,Rapport 351 BAPE 2020,LSST RSST et CSTC,Établissement scolaire,45.502712,-73.57821,H3A 1W7,Isolant dans certains endroits et Murs,LSST RSST et CSTC,Établissement scolaire
-73.578376,45.502794,0,3471 Rue Peel,Université McGill,3471 Rue Peel,Montréal,Québec,H3A 1W7,Isolant dans certains endroits et Murs,Rapport 351 BAPE 2020,LSST RSST et CSTC,Établissement scolaire,45.502794,-73.578376,H3A 1W7,Isolant dans certains endroits et Murs,LSST RSST et CSTC,Établissement scolaire
-73.578486,45.502848,0,3475 Rue Peel,Université McGill,3475 Rue Peel,Montréal,Québec,H3A 1W7,Isolant dans certains endroits et Murs,Rapport 351 BAPE 2020,LSST RSST et CSTC,Établissement scolaire,45.502848,-73.578486,H3A 1W7,Isolant dans certains endroits et Murs,LSST RSST et CSTC,Établissement scolaire
-73.578597,45.502902,0,3479 Rue Peel,Université McGill,3479 Rue Peel,Montréal,Québec,H3A 1W7,Isolant dans certains endroits et Murs,Rapport 351 BAPE 2020,LSST RSST et CSTC,Établissement scolaire,45.502902,-73.578597,H3A 1W7,Isolant dans certains endroits et Murs,LSST RSST et CSTC,Établissement scolaire
-73.578708,45.502956,0,3483 Rue Peel,Université McGill,3483 Rue Peel,Montréal,Québec,H3A 1W7,Isolant dans certains endroits et Murs,Rapport 351 BAPE 2020,LSST RSST et CSTC,Établissement scolaire,45.502956,-73.578708,H3A 1W7,Isolant dans certains endroits et Murs,LSST RSST et CSTC,Établissement scolaire
-73.578819,45.50301,0,3487 Rue Peel,Université McGill,3487 Rue Peel,Montréal,Québec,H3A 1W7,Isolant dans certains endroits et Murs,Rapport 351 BAPE 2020,LSST RSST et CSTC,Établissement scolaire,45.503010,-73.578819,H3A 1W7,Isolant dans certains endroits et Murs,LSST RSST et CSTC,Établissement scolaire
-73.578929,45.503064,0,3491 Rue Peel,Université McGill,3491 Rue Peel,Montréal,Québec,H3A 1W7,Isolant dans certains endroits et Murs,Rapport 351 BAPE 2020,LSST RSST et CSTC,Établissement scolaire,45.503064,-73.578929,H3A 1W7,Isolant dans certains endroits et Murs,LSST RSST et CSTC,Établissement scolaire
-73.579035,45.503119,0,3495 Rue Peel,Université McGill,3495 Rue Peel,Montréal,Québec,H3A 1W7,Isolant dans certains endroits et Murs,Rapport 351 BAPE 2020,LSST RSST et CSTC,Établissement scolaire,45.503119,-73.579035,H3A 1W7,Isolant dans certains endroits et Murs,LSST RSST et CSTC,Établissement scolaire
-73.579303,45.503263,0,3505 Rue Peel,Université McGill,3505 Rue Peel,Montréal,Québec,H3A 1W7,Isolant dans certains endroits et Murs,Rapport 351 BAPE 2020,LSST RSST et CSTC,Établissement scolaire,45.503263,-73.579303,H3A 1W7,Isolant dans certains endroits et Murs,LSST RSST et CSTC,Établissement scolaire
-73.580116,45.503672,0,3661A Rue Peel,Université McGill,3661A Rue Peel,Montréal,Québec,G4T 1C7,Isolant dans certains endroits et Murs,Rapport 351 BAPE 2020,LSST RSST et CSTC,Établissement scolaire,45.503672,-73.580116,G4T 1C7,Isolant dans certains endroits et Murs,LSST RSST et CSTC,Établissement scolaire
-73.581379,45.504147,0,3710 Rue Peel,Université McGill,3710 Rue Peel,Montréal,Québec,H3A 1X1,Isolant dans certains endroits et Murs,Rapport 351 BAPE 2020,LSST RSST et CSTC,Établissement scolaire,45.504147,-73.581379,H3A 1X1,Isolant dans certains endroits et Murs,LSST RSST et CSTC,Établissement scolaire
-73.581422,45.504167,0,3712 Rue Peel,Université McGill,3712 Rue Peel,Montréal,Québec,H3A 1X1,Isolant dans certains endroits et Murs,Rapport 351 BAPE 2020,LSST RSST et CSTC,Établissement scolaire,45.504167,-73.581422,H3A 1X1,Isolant dans certains endroits et Murs,LSST RSST et CSTC,Établissement scolaire
-73.581307,45.504251,0,3715 Rue Peel,Université McGill,3715 Rue Peel,Montréal,Québec,H3A 1X1,Isolant dans certains endroits et Murs,Rapport 351 BAPE 2020,LSST RSST et CSTC,Établissement scolaire,45.504251,-73.581307,H3A 1X1,Isolant dans certains endroits et Murs,LSST RSST et CSTC,Établissement scolaire
-73.57444,45.505352,0,Adams Building,Université McGill,3450 Rue University,Montréal,Québec,H3A 2A7,Certain endroits isolant et mur,Rapport 351 BAPE 2020,LSST RSST et CSTC,Établissement scolaire,45.505352,-73.57444,H3A 2A7,Certain endroits isolant et mur,LSST RSST et CSTC,Établissement scolaire
-73.575035,45.503493,0,Arts Building,Université McGill,853 Rue Sherbrooke O,Montréal,Québec,H3A 2A7,Calorifuge et isolant,Rapport 351 BAPE 2020,LSST RSST et CSTC,Établissement scolaire,45.503493,-73.575035,H3A 2A7,Calorifuge et isolant,LSST RSST et CSTC,Établissement scolaire
-73.577127,45.506654,0,Birks Building,Université McGill,3520 Rue University #2Nd,Montréal,Québec,H3A 2A7,Isolant dans certains endroits,Rapport 351 BAPE 2020,LSST RSST et CSTC,Établissement scolaire,45.506654,-73.577127,H3A 2A7,Isolant dans certains endroits,LSST RSST et CSTC,Établissement scolaire
-73.582958,45.510174,0,Bishop Mountain Hall,Université McGill,3935 Rue University,Montréal,Québec,H3A 2B4,Isolant dans certains endroits,Rapport 351 BAPE 2020,LSST RSST et CSTC,Établissement scolaire,45.510174,-73.582958,H3A 2B4,Isolant dans certains endroits,LSST RSST et CSTC,Établissement scolaire
-73.576034,45.502476,0,Bronfman Building,Université McGill,1001 Rue Sherbrooke O,Montréal,Québec,H3A 1G5,Isolant dans certains endroits,Rapport 351 BAPE 2020,LSST RSST et CSTC,Établissement scolaire,45.502476,-73.576034,H3A 1G5,Isolant dans certains endroits,LSST RSST et CSTC,Établissement scolaire
-73.574585,45.503951,0,Burnside Hall,Université McGill,805 Rue Sherbrooke O,Montréal,Québec,H3A 2K6,Isolant dans certains endroits,Rapport 351 BAPE 2020,LSST RSST et CSTC,Établissement scolaire,45.503951,-73.574585,H3A 2K6,Isolant dans certains endroits,LSST RSST et CSTC,Établissement scolaire
-73.581249,45.504085,0,Centennial Centre,Université McGill,3704 Rue Peel,Montréal,Québec,H3A 1W9,Murs calorifuge Isolant dans certains endroit,Rapport 351 BAPE 2020,LSST RSST et CSTC,Établissement scolaire,45.504085,-73.581249,H3A 1W9,Murs calorifuge Isolant dans certains endroit,LSST RSST et CSTC,Établissement scolaire
-73.579692,45.503325,0,Chancellor Day Hall,Université McGill,3644 Rue Peel,Montréal,Québec,H3A 1W9,Isolant dans certains endroits,Rapport 351 BAPE 2020,LSST RSST et CSTC,Établissement scolaire,45.503325,-73.579692,H3A 1W9,Isolant dans certains endroits,LSST RSST et CSTC,Établissement scolaire
-73.582268,45.504205,0,Charles Meredith House,Université McGill,1130 Av Des Pins O,Montréal,Québec,H3A 1A3,Isolant dans certains endroits et Murs,Rapport 351 BAPE 2020,LSST RSST et CSTC,Établissement scolaire,45.504205,-73.582268,H3A 1A3,Isolant dans certains endroits et Murs,LSST RSST et CSTC,Établissement scolaire
-73.579242,45.509868,0,Currie Gymnasium,Université McGill,475 Av Des Pins O,Montréal,Québec,H2W 1S4,Isolant dans certains endroits,Rapport 351 BAPE 2020,LSST RSST et CSTC,Établissement scolaire,45.509868,-73.579242,H2W 1S4,Isolant dans certains endroits,LSST RSST et CSTC,Établissement scolaire
-73.582461,45.502463,0,Davis House,Université McGill,3654 Promenade Sir-William-Osler,Montréal,Québec,H3G 1Y5,Isolant dans certains endroits et Murs,Rapport 351 BAPE 2020,LSST RSST et CSTC,Établissement scolaire,45.502463,-73.582461,H3G 1Y5,Isolant dans certains endroits et Murs,LSST RSST et CSTC,Établissement scolaire
-73.582954,45.501721,0,Davis House Annex,Université McGill,3653 Rue De La Montagne.,Montréal,Québec,H3G 2A7,Isolant dans certains endroits et Murs,Rapport 351 BAPE 2020,LSST RSST et CSTC,Établissement scolaire,45.501721,-73.582954,H3G 2A7,Isolant dans certains endroits et Murs,LSST RSST et CSTC,Établissement scolaire
-73.575035,45.503493,0,Dawson Hall,Université McGill,853 Sherbrooke O,Montréal,Québec,H3A 0G5,Isolant dans certains endroits et Murs,Rapport 351 BAPE 2020,LSST RSST et CSTC,Établissement scolaire,45.503493,-73.575035,H3A 0G5,Isolant dans certains endroits et Murs,LSST RSST et CSTC,Établissement scolaire
-73.580533,45.508444,0,Duff Medical Building,Université McGill,3775 Rue University,Montréal,Québec,H3A 2B4,Isolant dans certains endroits Plafonds Calorifuge et Murs,Rapport 351 BAPE 2020,LSST RSST et CSTC,Établissement scolaire,45.508444,-73.580533,H3A 2B4,Isolant dans certains endroits Plafonds Calorifuge et Murs,LSST RSST et CSTC,Établissement scolaire
-73.58092,45.505099,0,Duggan House,Université McGill,3724 Rue Mctavish,Montréal,Québec,H3A 1Y2,Isolant dans certains endroits et Murs,Rapport 351 BAPE 2020,LSST RSST et CSTC,Établissement scolaire,45.505099,-73.58092,H3A 1Y2,Isolant dans certains endroits et Murs,LSST RSST et CSTC,Établissement scolaire
-73.581223,45.505248,0,Duggan House Annex,Université McGill,3740 Rue Mctavish,Montréal,Québec,H3A 1Y2,Isolant dans certains endroits et Murs,Rapport 351 BAPE 2020,LSST RSST et CSTC,Établissement scolaire,45.505248,-73.581223,H3A 1Y2,Isolant dans certains endroits et Murs,LSST RSST et CSTC,Établissement scolaire
-73.573758,45.507803,0,Durocher 3465,Université McGill,3465 Rue Durocher,Montréal,Québec,H2X 0A8,Isolant dans certains endroits et Murs,Rapport 351 BAPE 2020,LSST RSST et CSTC,Établissement scolaire,45.507803,-73.573758,H2X 0A8,Isolant dans certains endroits et Murs,LSST RSST et CSTC,Établissement scolaire
-73.574626,45.503907,0,East Cottage 1-2,Université McGill,815 Rue Sherbrooke O,Montréal,Québec,H3A 0C2,Isolant dans certains endroits et Murs,Rapport 351 BAPE 2020,LSST RSST et CSTC,Établissement scolaire,45.503907,-73.574626,H3A 0C2,Isolant dans certains endroits et Murs,LSST RSST et CSTC,Établissement scolaire
-73.574626,45.503907,0,East Cottage 3-4,Université McGill,815 Rue Sherbrooke O,Montréal,Québec,H3A 0C2,Isolant dans certains endroits et Murs,Rapport 351 BAPE 2020,LSST RSST et CSTC,Établissement scolaire,45.503907,-73.574626,H3A 0C2,Isolant dans certains endroits et Murs,LSST RSST et CSTC,Établissement scolaire
-73.574626,45.503907,0,East Cottage 5-6,Université McGill,815 Rue Sherbrooke O,Montréal,Québec,H3A 0C2,Isolant dans certains endroits et Murs,Rapport 351 BAPE 2020,LSST RSST et CSTC,Établissement scolaire,45.503907,-73.574626,H3A 0C2,Isolant dans certains endroits et Murs,LSST RSST et CSTC,Établissement scolaire
-73.574626,45.503907,0,East Cottage 7-8,Université McGill,815 Rue Sherbrooke O,Montréal,Québec,H3A 0C2,Isolant dans certains endroits et Murs,Rapport 351 BAPE 2020,LSST RSST et CSTC,Établissement scolaire,45.503907,-73.574626,H3A 0C2,Isolant dans certains endroits et Murs,LSST RSST et CSTC,Établissement scolaire
-73.580465,45.504876,0,Education Building,Université McGill,3700 Rue Mctavish,Montréal,Québec,H3A 1Y2,Isolant dans certains endroits et Murs,Rapport 351 BAPE 2020,LSST RSST et CSTC,Établissement scolaire,45.504876,-73.580465,H3A 1Y2,Isolant dans certains endroits et Murs,LSST RSST et CSTC,Établissement scolaire
-73.576895,45.503147,0,Faculty Club,Université McGill,3450 Rue Mctavish,Montréal,Québec,H3A 0E5,Isolant dans certains endroits et Murs,Rapport 351 BAPE 2020,LSST RSST et CSTC,Établissement scolaire,45.503147,-73.576895,H3A 0E5,Isolant dans certains endroits et Murs,LSST RSST et CSTC,Établissement scolaire
-73.578465,45.50484,0,Ferrier Building,Université McGill,840 Av. Du Docteur-Penfield,Montréal,Québec,H3A 1A4,Isolant dans certains endroits et Murs,Rapport 351 BAPE 2020,LSST RSST et CSTC,Établissement scolaire,45.504840,-73.578465,H3A 1A4,Isolant dans certains endroits et Murs,LSST RSST et CSTC,Établissement scolaire
-73.582877,45.510025,0,Gardner Hall,Université McGill,3925 University Street,Montréal,Québec,H3A 2B7,,Rapport 351 BAPE 2020,LSST RSST et CSTC,Établissement scolaire,45.510025,-73.582877,H3A 2B7,,LSST RSST et CSTC,Établissement scolaire
-73.581862,45.502177,0,Hosmer House,Université McGill,3630 Promenade Sir-William-Osler,Montréal,Québec,H3G 1Y5,Isolant dans certains endroits et Murs,Rapport 351 BAPE 2020,LSST RSST et CSTC,Établissement scolaire,45.502177,-73.581862,H3G 1Y5,Isolant dans certains endroits et Murs,LSST RSST et CSTC,Établissement scolaire
-73.581659,45.501106,0,Hosmer House Annex,Université McGill,3541 Rue De La Montagne,Montréal,Québec,H3G 2A6,Isolant dans certains endroits et Murs,Rapport 351 BAPE 2020,LSST RSST et CSTC,Établissement scolaire,45.501106,-73.581659,H3G 2A6,Isolant dans certains endroits et Murs,LSST RSST et CSTC,Établissement scolaire
-73.58092,45.505099,0,Hugessen House,Université McGill,3724 Rue Mctavish,Montréal,Québec,H3A 1Y2,Isolant dans certains endroits et Murs,Rapport 351 BAPE 2020,LSST RSST et CSTC,Établissement scolaire,45.505099,-73.58092,H3A 1Y2,Isolant dans certains endroits et Murs,LSST RSST et CSTC,Établissement scolaire
-73.573193,45.508299,0,Hutchison 3464,Université McGill,3464 Hutchison,Montréal,Québec,H2X 2G6,Isolant dans certains endroits et Murs,Rapport 351 BAPE 2020,LSST RSST et CSTC,Établissement scolaire,45.508299,-73.573193,H2X 2G6,Isolant dans certains endroits et Murs,LSST RSST et CSTC,Établissement scolaire
-73.574749,45.503775,0,James Administration Building,Université McGill,845 Rue Sherbrooke O,Montréal,Québec,H3A 2T5,Isolant dans certains endroits Plafonds Calorifuges et Murs,Rapport 351 BAPE 2020,LSST RSST et CSTC,Établissement scolaire,45.503775,-73.574749,H3A 2T5,Isolant dans certains endroits Plafonds Calorifuges et Murs,LSST RSST et CSTC,Établissement scolaire
-73.582027,45.504456,0,Lady Meredith House,Université McGill,1110 Av Des Pins O,Montréal,Québec,H3G 1A1,Isolant dans certains endroits et Murs,Rapport 351 BAPE 2020,LSST RSST et CSTC,Établissement scolaire,45.504456,-73.582027,H3G 1A1,Isolant dans certains endroits et Murs,LSST RSST et CSTC,Établissement scolaire
-73.575133,45.503397,0,Leacock Building,Université McGill,855 Rue Sherbrooke O,Montréal,Québec,H3A 2T7,Isolant dans certains endroits et Murs,Rapport 351 BAPE 2020,LSST RSST et CSTC,Établissement scolaire,45.503397,-73.575133,H3A 2T7,Isolant dans certains endroits et Murs,LSST RSST et CSTC,Établissement scolaire
-73.581925,45.504757,0,Ludmer Building,Université McGill,1033 Avenue Des Pins Ouest,Montréal,Québec,H3A 1A1,Isolant dans certains endroits et Murs,Rapport 351 BAPE 2020,LSST RSST et CSTC,Établissement scolaire,45.504757,-73.581925,H3A 1A1,Isolant dans certains endroits et Murs,LSST RSST et CSTC,Établissement scolaire
-73.574569,45.503968,0,Maass Chemistry Building,Université McGill,801 Rue Sherbrooke O,Montréal,Québec,H3A 0B8,Isolant dans certains endroits et Murs,Rapport 351 BAPE 2020,LSST RSST et CSTC,Établissement scolaire,45.503968,-73.574569,H3A 0B8,Isolant dans certains endroits et Murs,LSST RSST et CSTC,Établissement scolaire
-73.574634,45.503898,0,Macdonald Engineering Building,Université McGill,817 Rue Sherbrooke O,Montréal,Québec,H3A OC3,Isolant dans certains endroits et Murs,Rapport 351 BAPE 2020,LSST RSST et CSTC,Établissement scolaire,45.503898,-73.574634,H3A OC3,Isolant dans certains endroits et Murs,LSST RSST et CSTC,Établissement scolaire
-73.574626,45.503907,0,Macdonald Harrington Building,Université McGill,815 Rue Sherbrooke O,Montréal,Québec,H3A 0C2,Isolant dans certains endroits et Murs,Rapport 351 BAPE 2020,LSST RSST et CSTC,Établissement scolaire,45.503907,-73.574626,H3A 0C2,Isolant dans certains endroits et Murs,LSST RSST et CSTC,Établissement scolaire
-73.575749,45.50275,0,Macdonald Stewart Library Building,Université McGill,3459 Rue Mctavish,Montréal,Québec,H3A 0C9,Isolant dans certains endroits et Murs,Rapport 351 BAPE 2020,LSST RSST et CSTC,Établissement scolaire,45.502750,-73.575749,H3A 0C9,Isolant dans certains endroits et Murs,LSST RSST et CSTC,Établissement scolaire
-73.573888,45.50042,0,Martlet House,Université McGill,1430 Rue Peel,Montréal,Québec,H3A 1S8,Isolant dans certains endroits et Murs,Rapport 351 BAPE 2020,LSST RSST et CSTC,Établissement scolaire,45.500420,-73.573888,H3A 1S8,Isolant dans certains endroits et Murs,LSST RSST et CSTC,Établissement scolaire
-73.582698,45.509728,0,Mcconnell Hall,Université McGill,3905 Rue University,Montréal,Québec,H3A 2B5,Isolant dans certains endroits,Rapport 351 BAPE 2020,LSST RSST et CSTC,Établissement scolaire,45.509728,-73.582698,H3A 2B5,Isolant dans certains endroits,LSST RSST et CSTC,Établissement scolaire
-73.582537,45.509441,0,Mcconnell Rink,Université McGill,3883 Rue University,Montréal,Québec,H3A 2B4,Isolant dans certains endroits,Rapport 351 BAPE 2020,LSST RSST et CSTC,Établissement scolaire,45.509441,-73.582537,H3A 2B4,Isolant dans certains endroits,LSST RSST et CSTC,Établissement scolaire
-73.582369,45.502558,0,Mcintyre Medical Building,Université McGill,3655 Promenade Sir-William-Osler,Montréal,Québec,H3G 1Y6,Isolant dans certains endroits,Rapport 351 BAPE 2020,LSST RSST et CSTC,Établissement scolaire,45.502558,-73.582369,H3G 1Y6,Isolant dans certains endroits,LSST RSST et CSTC,Établissement scolaire
-73.575749,45.50275,0,Mclennan Library Building,Université McGill,3459 Rue Mctavish,Montréal,Québec,H3A 0C9,Isolant dans certains endroits et Murs,Rapport 351 BAPE 2020,LSST RSST et CSTC,Établissement scolaire,45.502750,-73.575749,H3A 0C9,Isolant dans certains endroits et Murs,LSST RSST et CSTC,Établissement scolaire
-73.576309,45.502874,0,Mctavish 3430,Université McGill,3430 Mc Tavish,Montréal,Québec,H3A 0E2,Isolant dans certains endroits et Murs,Rapport 351 BAPE 2020,LSST RSST et CSTC,Établissement scolaire,45.502874,-73.576309,H3A 0E2,Isolant dans certains endroits et Murs,LSST RSST et CSTC,Établissement scolaire
-73.576426,45.502929,0,Mctavish 3434,Université McGill,3434 Mc Tavish,Montréal,Québec,H3A 0E3,Isolant dans certains endroits et Murs,Rapport 351 BAPE 2020,LSST RSST et CSTC,Établissement scolaire,45.502929,-73.576426,H3A 0E3,Isolant dans certains endroits et Murs,LSST RSST et CSTC,Établissement scolaire
-73.576543,45.502983,0,Mctavish 3438,Université McGill,3438 R McTavish,Montréal,Québec,H3A 0E4,Isolant dans certains endroits et Murs,Rapport 351 BAPE 2020,LSST RSST et CSTC,Établissement scolaire,45.502983,-73.576543,H3A 0E4,Isolant dans certains endroits et Murs,LSST RSST et CSTC,Établissement scolaire
-73.57876,45.50404,0,Mctavish 3610,Université McGill,3610 Mc Tavish,Montréal,Québec,H3A 1Y2,Isolant dans certains endroits et Murs,Rapport 351 BAPE 2020,LSST RSST et CSTC,Établissement scolaire,45.504040,-73.57876,H3A 1Y2,Isolant dans certains endroits et Murs,LSST RSST et CSTC,Établissement scolaire
-73.581335,45.504126,0,Meredith Annex,Université McGill,3708 Rue Peel,Montréal,Québec,H3A 1W9,Isolant dans certains endroits et Murs,Rapport 351 BAPE 2020,LSST RSST et CSTC,Établissement scolaire,45.504126,-73.581335,H3A 1W9,Isolant dans certains endroits et Murs,LSST RSST et CSTC,Établissement scolaire
-73.5828,45.509877,0,Molson Hall,Université McGill,3915 Rue University,Montréal,Québec,H3A 2B6,Isolant dans certains endroits et Murs,Rapport 351 BAPE 2020,LSST RSST et CSTC,Établissement scolaire,45.509877,-73.5828,H3A 2B6,Isolant dans certains endroits et Murs,LSST RSST et CSTC,Établissement scolaire
-73.581021,45.50868,0,Montreal Neurological Institute,Université McGill,3801 Rue University,Montréal,Québec,H3A 2B4,Isolant dans certains endroits et Murs,Rapport 351 BAPE 2020,LSST RSST et CSTC,Établissement scolaire,45.508680,-73.581021,H3A 2B4,Isolant dans certains endroits et Murs,LSST RSST et CSTC,Établissement scolaire
-73.577322,45.503484,0,Morrice Hall,Université McGill,3485 Rue Mctavish,Montréal,Québec,H3A 0E1,Isolant dans certains endroits et Murs,Rapport 351 BAPE 2020,LSST RSST et CSTC,Établissement scolaire,45.503484,-73.577322,H3A 0E1,Isolant dans certains endroits et Murs,LSST RSST et CSTC,Établissement scolaire
-73.582531,45.501515,0,Mountain 3605,Université McGill,3605 De La Montagne,Montréal,Québec,H3G 2M1,Isolant dans certains endroits et Murs,Rapport 351 BAPE 2020,LSST RSST et CSTC,Établissement scolaire,45.501515,-73.582531,H3G 2M1,Isolant dans certains endroits et Murs,LSST RSST et CSTC,Établissement scolaire
-73.5763,45.510752,0,New Residence Hall,Université McGill,3625 Av Du Parc,Montréal,Québec,H2X 3P8,Pas de données pour le moment,Rapport 351 BAPE 2020,LSST RSST et CSTC,Établissement scolaire,45.510752,-73.5763,H2X 3P8,Pas de données pour le moment,LSST RSST et CSTC,Établissement scolaire
-73.938422,45.408472,0,Parasitology Building,Université McGill,21111 Lakeshore Rd,Montréal,Québec,H9X 3V9,Isolant dans certains endroits et Murs,Rapport 351 BAPE 2020,LSST RSST et CSTC,Établissement scolaire,45.408472,-73.938422,H9X 3V9,Isolant dans certains endroits et Murs,LSST RSST et CSTC,Établissement scolaire
-73.575699,45.510444,0,Parc Avenue 3575 (La Cite),Université McGill,3575 Avenue Du Parc,Montréal,Québec,H2X 3P9,Isolant dans certains endroits et Murs,Rapport 351 BAPE 2020,LSST RSST et CSTC,Établissement scolaire,45.510444,-73.575699,H2X 3P9,Isolant dans certains endroits et Murs,LSST RSST et CSTC,Établissement scolaire
-73.579814,45.503524,0,Peel Rue 3647,Université McGill,3647 Rue Peel,Montréal,Québec,H3A 1X1,Isolant dans certains endroits et Murs,Rapport 351 BAPE 2020,LSST RSST et CSTC,Établissement scolaire,45.503524,-73.579814,H3A 1X1,Isolant dans certains endroits et Murs,LSST RSST et CSTC,Établissement scolaire
-73.580116,45.503672,0,Peel Rue 3661,Université McGill,3661 Rue Peel,Montréal,Québec,G4T 1K8,Isolant dans certains endroits et Murs,Rapport 351 BAPE 2020,LSST RSST et CSTC,Établissement scolaire,45.503672,-73.580116,G4T 1K8,Isolant dans certains endroits et Murs,LSST RSST et CSTC,Établissement scolaire
-73.580428,45.503684,0,Peel Rue 3674,Université McGill,3674 Rue Peel,Montréal,Québec,H3A 1W9,Isolant dans certains endroits et Murs,Rapport 351 BAPE 2020,LSST RSST et CSTC,Établissement scolaire,45.503684,-73.580428,H3A 1W9,Isolant dans certains endroits et Murs,LSST RSST et CSTC,Établissement scolaire
-73.580821,45.503876,0,Peel Rue 3690,Université McGill,3690 Rue Peel,Montréal,Québec,H3A 1W9,Isolant dans certains endroits et Murs,Rapport 351 BAPE 2020,LSST RSST et CSTC,Établissement scolaire,45.503876,-73.580821,H3A 1W9,Isolant dans certains endroits et Murs,LSST RSST et CSTC,Établissement scolaire
-73.581249,45.504085,0,Peel Rue 3704,Université McGill,3704 Rue Peel,Montréal,Québec,H3A 1W9,Isolant dans certains endroits et Murs,Rapport 351 BAPE 2020,LSST RSST et CSTC,Établissement scolaire,45.504085,-73.581249,H3A 1W9,Isolant dans certains endroits et Murs,LSST RSST et CSTC,Établissement scolaire
-73.579115,45.503719,0,Penfield 1085,Université McGill,1085 Avenue Docteur Penfield,Montréal,Québec,H3A 1A7,Isolant dans certains endroits et Murs,Rapport 351 BAPE 2020,LSST RSST et CSTC,Établissement scolaire,45.503719,-73.579115,H3A 1A7,Isolant dans certains endroits et Murs,LSST RSST et CSTC,Établissement scolaire
-73.577189,45.503284,0,Peterson Hall,Université McGill,3460 Rue Mctavish,Montréal,Québec,H3A 0E6,Isolant dans certains endroits et Murs,Rapport 351 BAPE 2020,LSST RSST et CSTC,Établissement scolaire,45.503284,-73.577189,H3A 0E6,Isolant dans certains endroits et Murs,LSST RSST et CSTC,Établissement scolaire
-73.582384,45.504084,0,Pine 1140,Université McGill,1140 Pine Avenue,Montréal,Québec,H3A 1A3,Isolant dans certains endroits et Murs,Rapport 351 BAPE 2020,LSST RSST et CSTC,Établissement scolaire,45.504084,-73.582384,H3A 1A3,Isolant dans certains endroits et Murs,LSST RSST et CSTC,Établissement scolaire
-73.579787,45.509248,0,Pine 501,Université McGill,501 Avenue Des Pins,Montréal,Québec,H2W 1S4,Isolant dans certains endroits et Murs,Rapport 351 BAPE 2020,LSST RSST et CSTC,Établissement scolaire,45.509248,-73.579787,H2W 1S4,Isolant dans certains endroits et Murs,LSST RSST et CSTC,Établissement scolaire
-73.579843,45.509137,0,Pine 505,Université McGill,505 Avenue Des Pins,Montréal,Québec,H2W 1S6,Isolant dans certains endroits et Murs,Rapport 351 BAPE 2020,LSST RSST et CSTC,Établissement scolaire,45.509137,-73.579843,H2W 1S6,Isolant dans certains endroits et Murs,LSST RSST et CSTC,Établissement scolaire
-73.5796,45.509071,0,Pine 506,Université McGill,506 Avenue Des Pins,Montréal,Québec,H2W 1S6,Isolant dans certains endroits et Murs,Rapport 351 BAPE 2020,LSST RSST et CSTC,Établissement scolaire,45.509071,-73.5796,H2W 1S6,Isolant dans certains endroits et Murs,LSST RSST et CSTC,Établissement scolaire
-73.579898,45.509026,0,Pine 509,Université McGill,509 Avenue Des Pins,Montréal,Québec,H2W 1S6,Isolant dans certains endroits et Murs,Rapport 351 BAPE 2020,LSST RSST et CSTC,Établissement scolaire,45.509026,-73.579898,H2W 1S6,Isolant dans certains endroits et Murs,LSST RSST et CSTC,Établissement scolaire
-73.579653,45.508965,0,Pine 510,Université McGill,510 Avenue Des Pins,Montréal,Québec,H2W 1S6,Isolant dans certains endroits et Murs,Rapport 351 BAPE 2020,LSST RSST et CSTC,Établissement scolaire,45.508965,-73.579653,H2W 1S6,Isolant dans certains endroits et Murs,LSST RSST et CSTC,Établissement scolaire
-73.579952,45.508834,0,Pine 515,Université McGill,515 Avenue Des Pins,Montréal,Québec,H2W 1S6,Isolant dans certains endroits et Murs,Rapport 351 BAPE 2020,LSST RSST et CSTC,Établissement scolaire,45.508834,-73.579952,H2W 1S6,Isolant dans certains endroits et Murs,LSST RSST et CSTC,Établissement scolaire
-73.579968,45.508743,0,Pine 517,Université McGill,517 Avenue Des Pins,Montréal,Québec,H2W 1S6,Isolant dans certains endroits et Murs,Rapport 351 BAPE 2020,LSST RSST et CSTC,Établissement scolaire,45.508743,-73.579968,H2W 1S6,Isolant dans certains endroits et Murs,LSST RSST et CSTC,Établissement scolaire
-73.579844,45.508639,0,Pine 522,Université McGill,522 Avenue Des Pins,Montréal,Québec,H2W 1S6,Isolant dans certains endroits et Murs,Rapport 351 BAPE 2020,LSST RSST et CSTC,Établissement scolaire,45.508639,-73.579844,H2W 1S6,Isolant dans certains endroits et Murs,LSST RSST et CSTC,Établissement scolaire
-73.580007,45.508657,0,Pine 523,Université McGill,523 Avenue Des Pins,Montréal,Québec,H2W 1S6,Isolant dans certains endroits et Murs,Rapport 351 BAPE 2020,LSST RSST et CSTC,Établissement scolaire,45.508657,-73.580007,H2W 1S6,Isolant dans certains endroits et Murs,LSST RSST et CSTC,Établissement scolaire
-73.580033,45.508599,0,Pine 527,Université McGill,527 Avenue Des Pins,Montréal,Québec,H2W 1S6,Isolant dans certains endroits et Murs,Rapport 351 BAPE 2020,LSST RSST et CSTC,Établissement scolaire,45.508599,-73.580033,H2W 1S6,Isolant dans certains endroits et Murs,LSST RSST et CSTC,Établissement scolaire
-73.580034,45.508219,0,Pine 546,Université McGill,546 Avenue Des Pins,Montréal,Québec,H2W 1S6,Isolant dans certains endroits et Murs,Rapport 351 BAPE 2020,LSST RSST et CSTC,Établissement scolaire,45.508219,-73.580034,H2W 1S6,Isolant dans certains endroits et Murs,LSST RSST et CSTC,Établissement scolaire
-73.579599,45.503419,0,Powell Building,Université McGill,3637 Rue Peel.,Montréal,Québec,H3A 1X1,Isolant dans certains endroits et Murs,Rapport 351 BAPE 2020,LSST RSST et CSTC,Établissement scolaire,45.503419,-73.579599,H3A 1X1,Isolant dans certains endroits et Murs,LSST RSST et CSTC,Établissement scolaire
-73.573597,45.504957,0,Pulp & Paper Building,Université McGill,3420 Rue University,Montréal,Québec,H3A 0C7,Isolant dans certains endroits et Murs,Rapport 351 BAPE 2020,LSST RSST et CSTC,Établissement scolaire,45.504957,-73.573597,H3A 0C7,Isolant dans certains endroits et Murs,LSST RSST et CSTC,Établissement scolaire
-73.581508,45.504969,0,Purvis Hall,Université McGill,1020 Av Des Pins O,Montréal,Québec,H3A 1A2,Isolant dans certains endroits et Murs,Rapport 351 BAPE 2020,LSST RSST et CSTC,Établissement scolaire,45.504969,-73.581508,H3A 1A2,Isolant dans certains endroits et Murs,LSST RSST et CSTC,Établissement scolaire
-73.582666,45.501284,0,Rabinovitch House,Université McGill,3630 Rue de la Montagne,Montréal,Québec,H3G 2A8,Isolant dans certains endroits et Murs,Rapport 351 BAPE 2020,LSST RSST et CSTC,Établissement scolaire,45.501284,-73.582666,H3G 2A8,Isolant dans certains endroits et Murs,LSST RSST et CSTC,Établissement scolaire
-73.57587,45.502807,0,Redpath Hall,Université McGill,3461 Rue Mctavish,Montréal,Québec,H3A 0E1,Isolant dans certains endroits et Murs,Rapport 351 BAPE 2020,LSST RSST et CSTC,Établissement scolaire,45.502807,-73.57587,H3A 0E1,Isolant dans certains endroits et Murs,LSST RSST et CSTC,Établissement scolaire
-73.575749,45.50275,0,Redpath Library Building,Université McGill,3459 Rue Mctavish,Montréal,Québec,H3A 0C9,Isolant dans certains endroits et Murs,Rapport 351 BAPE 2020,LSST RSST et CSTC,Établissement scolaire,45.502750,-73.575749,H3A 0C9,Isolant dans certains endroits et Murs,LSST RSST et CSTC,Établissement scolaire
-73.575329,45.503207,0,Redpath Museum,Université McGill,859 Rue Sherbrooke O,Montréal,Québec,H3A 0C4,Isolant dans certains endroits et Murs,Rapport 351 BAPE 2020,LSST RSST et CSTC,Établissement scolaire,45.503207,-73.575329,H3A 0C4,Isolant dans certains endroits et Murs,LSST RSST et CSTC,Établissement scolaire
-73.935496,45.4066,0,Royal Victoria College (Rvc) Residence,Université McGill,3425 Rue University,Montréal,Québec,H3A 2A8,Isolant dans certains endroits et Murs,Rapport 351 BAPE 2020,LSST RSST et CSTC,Établissement scolaire,45.406600,-73.935496,H3A 2A8,Isolant dans certains endroits et Murs,LSST RSST et CSTC,Établissement scolaire
-73.57838,45.507343,0,Rutherford Physics Building,Université McGill,3600 Rue University,Montréal,Québec,H3A 2T8,Isolant dans certains endroits et Murs,Rapport 351 BAPE 2020,LSST RSST et CSTC,Établissement scolaire,45.507343,-73.57838,H3A 2T8,Isolant dans certains endroits et Murs,LSST RSST et CSTC,Établissement scolaire
-73.573678,45.504682,0,Sherbrooke 688,Université McGill,688 Sherbrooke,Montréal,Québec,H3A 3R1,Isolant dans certains endroits et Murs,Rapport 351 BAPE 2020,LSST RSST et CSTC,Établissement scolaire,45.504682,-73.573678,H3A 3R1,Isolant dans certains endroits et Murs,LSST RSST et CSTC,Établissement scolaire
-73.576895,45.503147,0,South Power House,Université McGill,3450 Rue Mctavish,Montréal,Québec,H3A 1X9,Isolant dans certains endroits et Murs,Rapport 351 BAPE 2020,LSST RSST et CSTC,Établissement scolaire,45.503147,-73.576895,H3A 1X9,Isolant dans certains endroits et Murs,LSST RSST et CSTC,Établissement scolaire
-73.58066,45.502539,0,Stewart Biology Building,Université McGill,1205 Av. Du Docteur-Penfield,Montréal,Québec,H3A 1B1,Isolant dans certains endroits Plafonds Calorifuge et Murs,Rapport 351 BAPE 2020,LSST RSST et CSTC,Établissement scolaire,45.502539,-73.58066,H3A 1B1,Isolant dans certains endroits Plafonds Calorifuge et Murs,LSST RSST et CSTC,Établissement scolaire
-73.58066,45.502539,0,Stewart House,Université McGill,1205 Av. Du Docteur-Penfield,Montréal,Québec,H3A 1B1,Isolant dans certains endroits et Murs,Rapport 351 BAPE 2020,LSST RSST et CSTC,Établissement scolaire,45.502539,-73.58066,H3A 1B1,Isolant dans certains endroits et Murs,LSST RSST et CSTC,Établissement scolaire
-73.580115,45.508102,0,Strathcona Anatomy And Dentistry,Université McGill,3640 Rue University,Montréal,Québec,H3A 0C7,Isolant dans certains endroits et Murs,Rapport 351 BAPE 2020,LSST RSST et CSTC,Établissement scolaire,45.508102,-73.580115,H3A 0C7,Isolant dans certains endroits et Murs,LSST RSST et CSTC,Établissement scolaire
-73.573,45.505625,0,Strathcona Music Building,Université McGill,555 Rue Sherbrooke O,Montréal,Québec,H3A 1E3,Isolant dans certains endroits et Murs,Rapport 351 BAPE 2020,LSST RSST et CSTC,Établissement scolaire,45.505625,-73.573,H3A 1E3,Isolant dans certains endroits et Murs,LSST RSST et CSTC,Établissement scolaire
-73.579518,45.504412,0,Thomson House,Université McGill,3650 Rue Mctavish,Montréal,Québec,H3A 1Y2,Isolant dans certains endroits et Murs,Rapport 351 BAPE 2020,LSST RSST et CSTC,Établissement scolaire,45.504412,-73.579518,H3A 1Y2,Isolant dans certains endroits et Murs,LSST RSST et CSTC,Établissement scolaire
-73.579518,45.504412,0,Thomson House Annex,Université McGill,3650A Rue Mctavish,Montréal,Québec,J6K 3B1,Isolant dans certains endroits et Murs,Rapport 351 BAPE 2020,LSST RSST et CSTC,Établissement scolaire,45.504412,-73.579518,J6K 3B1,Isolant dans certains endroits et Murs,LSST RSST et CSTC,Établissement scolaire
-73.575736,45.506113,0,University 3481 - Rexford Hall,Université McGill,3481 Rue Université,Montréal,Québec,H3A 2A8,Isolant dans certains endroits et Murs,Rapport 351 BAPE 2020,LSST RSST et CSTC,Établissement scolaire,45.506113,-73.575736,H3A 2A8,Isolant dans certains endroits et Murs,LSST RSST et CSTC,Établissement scolaire
-73.577458,45.50682,0,University 3534,Université McGill,3534 Rue Université,Montréal,Québec,H3A 2A7,Isolant dans certains endroits et Murs,Rapport 351 BAPE 2020,LSST RSST et CSTC,Établissement scolaire,45.506820,-73.577458,H3A 2A7,Isolant dans certains endroits et Murs,LSST RSST et CSTC,Établissement scolaire
-73.577844,45.507153,0,University 3559,Université McGill,3559 Rue Université,Montréal,Québec,H3A 2B1,Isolant dans certains endroits et Murs,Rapport 351 BAPE 2020,LSST RSST et CSTC,Établissement scolaire,45.507153,-73.577844,H3A 2B1,Isolant dans certains endroits et Murs,LSST RSST et CSTC,Établissement scolaire
-73.578175,45.507314,0,University 3575,Université McGill,3575 Rue Université,Montréal,Québec,H3A 2B1,Isolant dans certains endroits et Murs,Rapport 351 BAPE 2020,LSST RSST et CSTC,Établissement scolaire,45.507314,-73.578175,H3A 2B1,Isolant dans certains endroits et Murs,LSST RSST et CSTC,Établissement scolaire
-73.579563,45.507978,0,University 3641,Université McGill,3641 Rue University,Montréal,Québec,H3A 2B3,Isolant dans certains endroits et Murs,Rapport 351 BAPE 2020,LSST RSST et CSTC,Établissement scolaire,45.507978,-73.579563,H3A 2B3,Isolant dans certains endroits et Murs,LSST RSST et CSTC,Établissement scolaire
-73.580023,45.508197,0,University 3661,Université McGill,3661 Rue Université,Montréal,Québec,H3A 2B3,Isolant dans certains endroits et Murs,Rapport 351 BAPE 2020,LSST RSST et CSTC,Établissement scolaire,45.508197,-73.580023,H3A 2B3,Isolant dans certains endroits et Murs,LSST RSST et CSTC,Établissement scolaire
-73.574749,45.503775,0,University Centre,Université McGill,845 Rue Sherbrooke O,Montréal,Québec,H3A 0G4,Isolant dans certains endroits et Murs,Rapport 351 BAPE 2020,LSST RSST et CSTC,Établissement scolaire,45.503775,-73.574749,H3A 0G4,Isolant dans certains endroits et Murs,LSST RSST et CSTC,Établissement scolaire
-73.575342,45.505923,0,University Hall Residence,Université McGill,3473 Rue University,Montréal,Québec,H3A 2A8,Isolant dans certains endroits et Murs,Rapport 351 BAPE 2020,LSST RSST et CSTC,Établissement scolaire,45.505923,-73.575342,H3A 2A8,Isolant dans certains endroits et Murs,LSST RSST et CSTC,Établissement scolaire
-73.576796,45.506488,0,Wilson Hall,Université McGill,3506 Rue University,Montréal,Québec,H3A 2A7,Isolant dans certains endroits et Murs,Rapport 351 BAPE 2020,LSST RSST et CSTC,Établissement scolaire,45.506488,-73.576796,H3A 2A7,Isolant dans certains endroits et Murs,LSST RSST et CSTC,Établissement scolaire
-73.634295,45.597803,0,École primaire De La Fraternité,de la Pointe-de-l’Île ,11241 Av Drapeau,Montréal,Québec,H1H 3K3,,Demande d'accès à l'information MEQ 2026,LSST RSST et CSTC,Établissement scolaire,45.597803,-73.634295,H1H 3K3,,LSST RSST et CSTC,Établissement scolaire
-73.542726,45.604721,0,École Chénier,de la Pointe-de-l’Île ,5800 Avenue St Donat,Montréal,Québec,H1K 3P7,,Demande d'accès à l'information MEQ 2032,LSST RSST et CSTC,Établissement scolaire,45.604721,-73.542726,H1K 3P7,,LSST RSST et CSTC,Établissement scolaire
-73.580885,45.581259,0,École primaire La Dauversière (CSSPI),de la Pointe-de-l’Île ,5485 Rue Jean-Talon E,Montréal,Québec,H1S 9Y9,,Demande d'accès à l'information MEQ 2034,LSST RSST et CSTC,Établissement scolaire,45.581259,-73.580885,H1S 9Y9,,LSST RSST et CSTC,Établissement scolaire
-73.538619,45.602338,0,École secondaire d'Anjou,de la Pointe-de-l’Île ,8205 Rue Fonteneau,Montréal,Québec,H1K4E1,,Demande d'accès à l'information MEQ 2043,LSST RSST et CSTC,Établissement scolaire,45.602338,-73.538619,H1K4E1,,LSST RSST et CSTC,Établissement scolaire
-73.506709,45.640308,0,Centre Paul-Gratton,de la Pointe-de-l’Île ,11865 Rue de Montigny,Montréal,Québec,H1B1P2,,Demande d'accès à l'information MEQ 2024,LSST RSST et CSTC,Établissement scolaire,45.640308,-73.506709,H1B1P2,,LSST RSST et CSTC,Établissement scolaire
-73.604285,45.635492,0,École primaire Marc-Aurèle-Fortin – Annexe,de la Pointe-de-l’Île ,12550 Av. Fernand-Gauthier,Montréal,Québec,H1E1S8,,Demande d'accès à l'information MEQ 2048,LSST RSST et CSTC,Établissement scolaire,45.635492,-73.604285,H1E1S8,,LSST RSST et CSTC,Établissement scolaire
