lat,lon,Z,Name,Organisme,Adresse,Ville,Province,Code_postal,Localisation_de_l_amiante,Source,L__gislation,Cat__gorie,Latitude__y_,Longitude__x_,Code postal,amiante,gislation,gorie
-73.534437,45.568176,0,Location,,2350 Rue Dickson,Montréal,Québec,H1N 3T1,ND,"Inventaire national de l'amiante dans les immeubles fédéraux  
https://www.tpsgc-pwgsc.gc.ca/biens-property/ami-asb/index-fra.html",Partie 2 du Code canadien du travail et le Règlement canadien sur la santé et la sécurité du travail,Services gouv. du fédéral,45.568176,-73.534437,H1N 3T1,ND,Partie 2 du Code canadien du travail et le Règlement canadien sur la santé et la sécurité du travail,Services gouv. du fédéral
-73.559069,45.517775,0,Location,,1001 Boul. De Maisonneuve Est,Montréal,Québec,H2L 4P9,ND,"Inventaire national de l'amiante dans les immeubles fédéraux  
https://www.tpsgc-pwgsc.gc.ca/biens-property/ami-asb/index-fra.html",Partie 2 du Code canadien du travail et le Règlement canadien sur la santé et la sécurité du travail,Services gouv. du fédéral,45.517775,-73.559069,H2L 4P9,ND,Partie 2 du Code canadien du travail et le Règlement canadien sur la santé et la sécurité du travail,Services gouv. du fédéral
-73.555762,45.506282,0,Place De La Justice,,1 Rue Notre-Dame Est,Montréal,Québec,H2Y 1B6,ND,"Inventaire national de l'amiante dans les immeubles fédéraux  
https://www.tpsgc-pwgsc.gc.ca/biens-property/ami-asb/index-fra.html",Partie 2 du Code canadien du travail et le Règlement canadien sur la santé et la sécurité du travail,Services gouv. du fédéral,45.506282,-73.555762,H2Y 1B6,ND,Partie 2 du Code canadien du travail et le Règlement canadien sur la santé et la sécurité du travail,Services gouv. du fédéral
-73.557435,45.504658,0,Pari Cnrc Montréal,,507 Place D'Armes,Montréal,Québec,H2Y 2W8,ND,"Inventaire national de l'amiante dans les immeubles fédéraux  
https://www.tpsgc-pwgsc.gc.ca/biens-property/ami-asb/index-fra.html",Partie 2 du Code canadien du travail et le Règlement canadien sur la santé et la sécurité du travail,Services gouv. du fédéral,45.504658,-73.557435,H2Y 2W8,ND,Partie 2 du Code canadien du travail et le Règlement canadien sur la santé et la sécurité du travail,Services gouv. du fédéral
-73.555918,45.500313,0,Édifice Dominique Ducharme,,105105 Rue Mcgill/400 Place D'Youville,Montréal,Québec,H2Y 3N4,ND,"Inventaire national de l'amiante dans les immeubles fédéraux  
https://www.tpsgc-pwgsc.gc.ca/biens-property/ami-asb/index-fra.html",Partie 2 du Code canadien du travail et le Règlement canadien sur la santé et la sécurité du travail,Services gouv. du fédéral,45.500313,-73.555918,H2Y 3N4,ND,Partie 2 du Code canadien du travail et le Règlement canadien sur la santé et la sécurité du travail,Services gouv. du fédéral
-73.564202,45.50617,0,Location,,305 Boul. René-Lévesque Ouest,Montréal,Québec,H2Z 1A6,ND,"Inventaire national de l'amiante dans les immeubles fédéraux  
https://www.tpsgc-pwgsc.gc.ca/biens-property/ami-asb/index-fra.html",Partie 2 du Code canadien du travail et le Règlement canadien sur la santé et la sécurité du travail,Services gouv. du fédéral,45.50617,-73.564202,H2Z 1A6,ND,Partie 2 du Code canadien du travail et le Règlement canadien sur la santé et la sécurité du travail,Services gouv. du fédéral
-73.562442,45.507563,0,Complexe Guy-Favreau (Tour Est),,200 Boul. René-Lévesque Ouest,Montréal,Québec,H2Z 1X4,ND,"Inventaire national de l'amiante dans les immeubles fédéraux  
https://www.tpsgc-pwgsc.gc.ca/biens-property/ami-asb/index-fra.html",Partie 2 du Code canadien du travail et le Règlement canadien sur la santé et la sécurité du travail,Services gouv. du fédéral,45.507563,-73.562442,H2Z 1X4,ND,Partie 2 du Code canadien du travail et le Règlement canadien sur la santé et la sécurité du travail,Services gouv. du fédéral
-73.562442,45.507563,0,Complexe Guy-Favreau (Tour Ouest),,200 Boul. René-Lévesque Ouest,Montréal,Québec,H2Z 1X4,ND,"Inventaire national de l'amiante dans les immeubles fédéraux  
https://www.tpsgc-pwgsc.gc.ca/biens-property/ami-asb/index-fra.html",Partie 2 du Code canadien du travail et le Règlement canadien sur la santé et la sécurité du travail,Services gouv. du fédéral,45.507563,-73.562442,H2Z 1X4,ND,Partie 2 du Code canadien du travail et le Règlement canadien sur la santé et la sécurité du travail,Services gouv. du fédéral
-73.571589,45.504116,0,Place London Life,,2001 Boul. Robert-Bourassa,Montréal,Québec,H3A 2A6,ND,"Inventaire national de l'amiante dans les immeubles fédéraux  
https://www.tpsgc-pwgsc.gc.ca/biens-property/ami-asb/index-fra.html",Partie 2 du Code canadien du travail et le Règlement canadien sur la santé et la sécurité du travail,Services gouv. du fédéral,45.504116,-73.571589,H3A 2A6,ND,Partie 2 du Code canadien du travail et le Règlement canadien sur la santé et la sécurité du travail,Services gouv. du fédéral
-73.571102,45.504741,0,Édifice Parkade,,2021 Rue Union,Montréal,Québec,H3A 2S9,ND,"Inventaire national de l'amiante dans les immeubles fédéraux  
https://www.tpsgc-pwgsc.gc.ca/biens-property/ami-asb/index-fra.html",Partie 2 du Code canadien du travail et le Règlement canadien sur la santé et la sécurité du travail,Services gouv. du fédéral,45.504741,-73.571102,H3A 2S9,ND,Partie 2 du Code canadien du travail et le Règlement canadien sur la santé et la sécurité du travail,Services gouv. du fédéral
-73.57138,45.502199,0,Location,,1501 Avenue Mcgill,Montréal,Québec,H3A 3M8,ND,"Inventaire national de l'amiante dans les immeubles fédéraux  
https://www.tpsgc-pwgsc.gc.ca/biens-property/ami-asb/index-fra.html",Partie 2 du Code canadien du travail et le Règlement canadien sur la santé et la sécurité du travail,Services gouv. du fédéral,45.502199,-73.57138,H3A 3M8,ND,Partie 2 du Code canadien du travail et le Règlement canadien sur la santé et la sécurité du travail,Services gouv. du fédéral
-73.568009,45.501002,0,Location,,800 Boul. René-Lévesque Ouest,Montréal,Québec,H3B 1X9,ND,"Inventaire national de l'amiante dans les immeubles fédéraux  
https://www.tpsgc-pwgsc.gc.ca/biens-property/ami-asb/index-fra.html",Partie 2 du Code canadien du travail et le Règlement canadien sur la santé et la sécurité du travail,Services gouv. du fédéral,45.501002,-73.568009,H3B 1X9,ND,Partie 2 du Code canadien du travail et le Règlement canadien sur la santé et la sécurité du travail,Services gouv. du fédéral
-73.571159,45.500262,0,Édifice Sun Life,,1155 Rue Metcalfe,Montréal,Québec,H3B 2V6,ND,"Inventaire national de l'amiante dans les immeubles fédéraux  
https://www.tpsgc-pwgsc.gc.ca/biens-property/ami-asb/index-fra.html",Partie 2 du Code canadien du travail et le Règlement canadien sur la santé et la sécurité du travail,Services gouv. du fédéral,45.500262,-73.571159,H3B 2V6,ND,Partie 2 du Code canadien du travail et le Règlement canadien sur la santé et la sécurité du travail,Services gouv. du fédéral
-73.564464,45.498905,0,865 Saint-Antoine W Montréal Qc,,865 Rue Saint-Antoine,Montréal,Québec,H3C 1A6,ND,"Inventaire national de l'amiante dans les immeubles fédéraux  
https://www.tpsgc-pwgsc.gc.ca/biens-property/ami-asb/index-fra.html",Partie 2 du Code canadien du travail et le Règlement canadien sur la santé et la sécurité du travail,Services gouv. du fédéral,45.498905,-73.564464,H3C 1A6,ND,Partie 2 du Code canadien du travail et le Règlement canadien sur la santé et la sécurité du travail,Services gouv. du fédéral
-73.561445,45.494844,0,Pari Cnrc Montréal,,355 Rue Peel,Montréal,Québec,H3C 2G9,ND,"Inventaire national de l'amiante dans les immeubles fédéraux  
https://www.tpsgc-pwgsc.gc.ca/biens-property/ami-asb/index-fra.html",Partie 2 du Code canadien du travail et le Règlement canadien sur la santé et la sécurité du travail,Services gouv. du fédéral,45.494844,-73.561445,H3C 2G9,ND,Partie 2 du Code canadien du travail et le Règlement canadien sur la santé et la sécurité du travail,Services gouv. du fédéral
-73.565473,45.496315,0,Parcs Canada,,715 Rue Peel,Montréal,Québec,H3C 4H6,ND,"Inventaire national de l'amiante dans les immeubles fédéraux  
https://www.tpsgc-pwgsc.gc.ca/biens-property/ami-asb/index-fra.html",Partie 2 du Code canadien du travail et le Règlement canadien sur la santé et la sécurité du travail,Services gouv. du fédéral,45.496315,-73.565473,H3C 4H6,ND,Partie 2 du Code canadien du travail et le Règlement canadien sur la santé et la sécurité du travail,Services gouv. du fédéral
-73.576333,45.496477,0,Édifice Léonce-Lessard,,1420 Rue Saint-Catherine O.,Montréal,Québec,H3G 1R3,ND,"Inventaire national de l'amiante dans les immeubles fédéraux  
https://www.tpsgc-pwgsc.gc.ca/biens-property/ami-asb/index-fra.html",Partie 2 du Code canadien du travail et le Règlement canadien sur la santé et la sécurité du travail,Services gouv. du fédéral,45.496477,-73.576333,H3G 1R3,ND,Partie 2 du Code canadien du travail et le Règlement canadien sur la santé et la sécurité du travail,Services gouv. du fédéral
-73.624553,45.5307,0,Pari Cnrc Montréal,,405 Avenue Ogilvy,Montréal,Québec,H3N 1M3,ND,"Inventaire national de l'amiante dans les immeubles fédéraux  
https://www.tpsgc-pwgsc.gc.ca/biens-property/ami-asb/index-fra.html",Partie 2 du Code canadien du travail et le Règlement canadien sur la santé et la sécurité du travail,Services gouv. du fédéral,45.5307,-73.624553,H3N 1M3,ND,Partie 2 du Code canadien du travail et le Règlement canadien sur la santé et la sécurité du travail,Services gouv. du fédéral
-73.630664,45.484018,0,Location,,5160 Boul. Décarie,Montréal,Québec,H3X 2H9,ND,"Inventaire national de l'amiante dans les immeubles fédéraux  
https://www.tpsgc-pwgsc.gc.ca/biens-property/ami-asb/index-fra.html",Partie 2 du Code canadien du travail et le Règlement canadien sur la santé et la sécurité du travail,Services gouv. du fédéral,45.484018,-73.630664,H3X 2H9,ND,Partie 2 du Code canadien du travail et le Règlement canadien sur la santé et la sécurité du travail,Services gouv. du fédéral
-73.674893,45.487543,0,Mtlr-1,,6100 Avenue Royalmount,Montréal,Québec,H4P 2R2,ND,"Inventaire national de l'amiante dans les immeubles fédéraux  
https://www.tpsgc-pwgsc.gc.ca/biens-property/ami-asb/index-fra.html",Partie 2 du Code canadien du travail et le Règlement canadien sur la santé et la sécurité du travail,Services gouv. du fédéral,45.487543,-73.674893,H4P 2R2,ND,Partie 2 du Code canadien du travail et le Règlement canadien sur la santé et la sécurité du travail,Services gouv. du fédéral
-73.5614,45.501075,0,Tour De La Bourse,,800Square Victoria,Montréal,Québec,H4Z 1J2,ND,"Inventaire national de l'amiante dans les immeubles fédéraux  
https://www.tpsgc-pwgsc.gc.ca/biens-property/ami-asb/index-fra.html",Partie 2 du Code canadien du travail et le Règlement canadien sur la santé et la sécurité du travail,Services gouv. du fédéral,45.501075,-73.5614,H4Z 1J2,ND,Partie 2 du Code canadien du travail et le Règlement canadien sur la santé et la sécurité du travail,Services gouv. du fédéral
-73.56552,45.500344,0,Place Bonaventure,,800 Rue De La Gauchetière Ouest,Montréal,Québec,H5A 1L6,ND,"Inventaire national de l'amiante dans les immeubles fédéraux  
https://www.tpsgc-pwgsc.gc.ca/biens-property/ami-asb/index-fra.html",Partie 2 du Code canadien du travail et le Règlement canadien sur la santé et la sécurité du travail,Services gouv. du fédéral,45.500344,-73.56552,H5A 1L6,ND,Partie 2 du Code canadien du travail et le Règlement canadien sur la santé et la sécurité du travail,Services gouv. du fédéral
-73.554974,45.507008,0,Palais De Justice. Cour D'Appel Du Québec,,100 Rue Notre-Dame Est,Montréal,Québec,H2Y 4B6,ND,SQI Accès à l'information,LSST RSST et CSTC,Services gouv. du provincial,45.507008,-73.554974,H2Y 4B6,ND,LSST RSST et CSTC,Services gouv. du provincial
-73.675484,45.543508,0,Établissement De Détention Maison Tanguay,,555 Boulevard Henri-Bourassa Ouest,Montréal,Québec,H3L 1P3,ND,SQI Accès à l'information,LSST RSST et CSTC,Services gouv. du provincial,45.543508,-73.675484,H3L 1P3,ND,LSST RSST et CSTC,Services gouv. du provincial
-73.554368,45.513316,0,Bibliothèque Et Archives Nationales,,535 Avenue Viger,Montréal,Québec,H2L 2P3,ND,SQI Accès à l'information,LSST RSST et CSTC,Services gouv. du provincial,45.513316,-73.554368,H2L 2P3,ND,LSST RSST et CSTC,Services gouv. du provincial
-73.555762,45.506282,0,Palais De Justice,MJQ,1 Rue Notre-Dame Est,Montréal,Québec,H2Y 1B6,ND,SQI Accès à l'information,LSST RSST et CSTC,Services gouv. du provincial,45.506282,-73.555762,H2Y 1B6,ND,LSST RSST et CSTC,Services gouv. du provincial
-73.572282,45.606246,0,Société Québécoise Des Infrastructures,,9000 Boulevard Louis-H. Lafontaine,Montréal,Québec,H1J 2M7,ND,SQI Accès à l'information,LSST RSST et CSTC,Services gouv. du provincial,45.606246,-73.572282,H1J 2M7,ND,LSST RSST et CSTC,Services gouv. du provincial
-73.570279,45.511122,0,Directeur De L'État Civil,,3450rue Saint-Urbain,Montréal,Québec,H2X 2N5,ND,SQI Accès à l'information,LSST RSST et CSTC,Services gouv. du provincial,45.511122,-73.570279,H2X 2N5,ND,LSST RSST et CSTC,Services gouv. du provincial
-73.601864,45.532602,0,Société Québécoise Des Infrastructures - Stationnement Place D'Youville,,410 Rue de Bellechasse,Montréal,Québec,H2S 1X3,ND,SQI Accès à l'information,LSST RSST et CSTC,Services gouv. du provincial,45.532602,-73.601864,H2S 1X3,ND,LSST RSST et CSTC,Services gouv. du provincial
-73.691447,45.546154,0,Justice Québec - Chambre De La Jeunesse,,800 Boulevard Gouin,Montréal,Québec,H3L 1K7,ND,SQI Accès à l'information,LSST RSST et CSTC,Services gouv. du provincial,45.546154,-73.691447,H3L 1K7,ND,LSST RSST et CSTC,Services gouv. du provincial
-73.555045,45.52898,0,Palais De Justice,,1701 Rue Parthenais,Montréal,Québec,H2K 3S7,ND,SQI Accès à l'information,LSST RSST et CSTC,Services gouv. du provincial,45.52898,-73.555045,H2K 3S7,ND,LSST RSST et CSTC,Services gouv. du provincial
-73.557016,45.500064,0,Ministère Des Transports Et De La Mobilité Durable,,360 Rue McGill,Montréal,Québec,H2Y 2E9,ND,SQI Accès à l'information,LSST RSST et CSTC,Services gouv. du provincial,45.500064,-73.557016,H2Y 2E9,ND,LSST RSST et CSTC,Services gouv. du provincial
-73.571882,45.606058,0,Société Québécoise Des Infrastructures Édifice Gérald Godin,,7510 Rue Jarry Est,Montréal,Québec,H1J 1G9,ND,SQI Accès à l'information,LSST RSST et CSTC,Services gouv. du provincial,45.606058,-73.571882,H1J 1G9,ND,LSST RSST et CSTC,Services gouv. du provincial
-73.518763,45.644678,0,Société Québécoise Des Infrastructures - Entrepôt,,3675 Boulevard Saint-Jean-Baptiste,Montréal,Québec,H1B 4B2,ND,SQI Accès à l'information,LSST RSST et CSTC,Services gouv. du provincial,45.644678,-73.518763,H1B 4B2,ND,LSST RSST et CSTC,Services gouv. du provincial
-73.570267,45.511102,0,Office Québécois De La Langue Française,,125 Rue Sherbrooke,Montréal,Québec,H2X 1X4,ND,SQI Accès à l'information,LSST RSST et CSTC,Services gouv. du provincial,45.511102,-73.570267,H2X 1X4,ND,LSST RSST et CSTC,Services gouv. du provincial
-73.640031,45.543443,0,Institut National De Santé Publique Du Québec,,190 Boulevard Crémazie Est,Montréal,Québec,H2P 1E1,ND,SQI Accès à l'information,LSST RSST et CSTC,Services gouv. du provincial,45.543443,-73.640031,H2P 1E1,ND,LSST RSST et CSTC,Services gouv. du provincial
-73.640568,45.543785,0,"Ministère De La Santé Et Des Services Sociaux - 
Secrétariat Aux Services Internationaux À L’Enfant",,201 Boulevard Crémazie Est,Montréal,Québec,H2M 1L2,ND,SQI Accès à l'information,LSST RSST et CSTC,Services gouv. du provincial,45.543785,-73.640568,H2M 1L2,ND,LSST RSST et CSTC,Services gouv. du provincial
-73.551471,45.527309,0,Sécurité Publique,,1605 Rue Parthenais,Montréal,Québec,H2K 3S1,ND,SQI Accès à l'information,LSST RSST et CSTC,Services gouv. du provincial,45.527309,-73.551471,H2K 3S1,ND,LSST RSST et CSTC,Services gouv. du provincial
-73.546102,45.526079,0,Ministère De La Famille,,600 Rue Fullum,Montréal,Québec,H2K 3L6,ND,SQI Accès à l'information,LSST RSST et CSTC,Services gouv. du provincial,45.526079,-73.546102,H2K 3L6,ND,LSST RSST et CSTC,Services gouv. du provincial
-73.570991,45.519739,0,Ministère De La Santé Et Des Services Sociaux,,3700 Rue Berri,Montréal,Québec,H2L 4G9,ND,SQI Accès à l'information,LSST RSST et CSTC,Services gouv. du provincial,45.519739,-73.570991,H2L 4G9,ND,LSST RSST et CSTC,Services gouv. du provincial
-73.548236,45.527093,0,Propriété. Ancien Bureau De Télé Québec,,1000 Rue Fullum,Montréal,Québec,H2K 3L7,ND,SQI Accès à l'information,LSST RSST et CSTC,Services gouv. du provincial,45.527093,-73.548236,H2K 3L7,ND,LSST RSST et CSTC,Services gouv. du provincial
-73.580239,45.508145,0,Hôpital Royal Victoria,,687 des Pins,Montréal,Québec,H3A 1A1,ND,SQI Accès à l'information,LSST RSST et CSTC,Services gouv. du provincial,45.508145,-73.580239,H3A 1A1,ND,LSST RSST et CSTC,Services gouv. du provincial
-73.57719,45.462403,0,Services Québec,,1035 Rue Galt,Montréal,Québec,H4G 2R1,ND,SQI Accès à l'information,LSST RSST et CSTC,Services gouv. du provincial,45.462403,-73.57719,H4G 2R1,ND,LSST RSST et CSTC,Services gouv. du provincial
-73.57723,45.57525,0,Centre De Réadaptation Marie Enfant,CHU Sainte-Justine,5200 rue Bélanger,Montréal,Québec,H1T 1C9,100%,Demande d'accès à l'information  MSSS  2024,LSST RSST et CSTC*,Établissement de Santé,45.57525,-73.57723,H1T 1C9,100%,LSST RSST et CSTC*,Établissement de Santé
-73.574931,45.575529,0,Centre De Réadaptation Marie Enfant,CHU Sainte-Justine,6800 42e Avenue,Montréal,Québec,H1T 2T2,80%,Demande d'accès à l'information  MSSS  2024,LSST RSST et CSTC,Établissement de Santé,45.575529,-73.574931,H1T 2T2,80%,LSST RSST et CSTC,Établissement de Santé
-73.625998,45.501128,0,Centre Hospitalier Universitaire Sainte-Justine,CHU Sainte-Justine,5757 avenue Decelles,Montréal,Québec,H3S 2C3,100%,Demande d'accès à l'information  MSSS  2024,LSST RSST et CSTC,Établissement de Santé,45.501128,-73.625998,H3S 2C3,100%,LSST RSST et CSTC,Établissement de Santé
-73.624523,45.503484,0,Chu Sainte-Justine,Centre Hospitalier de L'Université de Montréal,3175 chemin de la Côte-Sainte-Catherine,Montréal,Québec,H3T 1C5,100%,Demande d'accès à l'information  MSSS  2024,LSST RSST et CSTC,Établissement de Santé,45.503484,-73.624523,H3T 1C5,100%,LSST RSST et CSTC,Établissement de Santé
-73.555866,45.511912,0,Bureaux Administratifs - 1001 Rue Saint-Denis,Centre Hospitalier de L'Université de Montréal,1001 rue Saint-Denis,Montréal,Québec,H2X 3H9,100%,Demande d'accès à l'information  MSSS  2024,LSST RSST et CSTC*,Établissement de Santé,45.511912,-73.555866,H2X 3H9,100%,LSST RSST et CSTC*,Établissement de Santé
-73.57806,45.513891,0,Hôtel-Dieu Du Centre Hospitalier De L'Université De Montréal,Centre Hospitalier de L'Université de Montréal,3830 rue Saint-Urbain,Montréal,Québec,H2W 1T7,100%,Demande d'accès à l'information  MSSS  2024,LSST RSST et CSTC,Établissement de Santé,45.513891,-73.57806,H2W 1T7,100%,LSST RSST et CSTC,Établissement de Santé
-73.578024,45.514428,0,Hôtel-Dieu Du Centre Hospitalier De L'Université De Montréal,Centre Hospitalier de L'Université de Montréal,3840 rue Saint-Urbain,Montréal,Québec,H2W 1T8,100%,Demande d'accès à l'information  MSSS  2024,LSST RSST et CSTC,Établissement de Santé,45.514428,-73.578024,H2W 1T8,100%,LSST RSST et CSTC,Établissement de Santé
-73.559074,45.511286,0,Pavillon Edouard-Asselin,Centre Miriam,264 boulevard René-Lévesque Est,Montréal,Québec,H2X 1P1,100%,Demande d'accès à l'information  MSSS  2024,LSST RSST et CSTC,Établissement de Santé,45.511286,-73.559074,H2X 1P1,100%,LSST RSST et CSTC,Établissement de Santé
-73.630828,45.507015,0,Centre D'Hébergement Father Dowd,CIUSSS du Centre-Ouest-de-L'Île-de-Montréal,6565 chemin Hudson,Montréal,Québec,H3S 2T7,100%,Demande d'accès à l'information  MSSS  2024,LSST RSST et CSTC,Établissement de Santé,45.507015,-73.630828,H3S 2T7,100%,LSST RSST et CSTC,Établissement de Santé
-73.645736,45.47182,0,Centre D'Hébergement Henri-Bradet,CIUSSS du Centre-Ouest-de-L'Île-de-Montréal,5425 avenue Bessborough,Montréal,Québec,H4V 2S7,100%,Demande d'accès à l'information  MSSS  2024,LSST RSST et CSTC,Établissement de Santé,45.47182,-73.645736,H4V 2S7,100%,LSST RSST et CSTC,Établissement de Santé
-73.628522,45.463269,0,Centre D'Hébergement Saint-Andrew,CIUSSS du Centre-Ouest-de-L'Île-de-Montréal,3350 boulevard Cavendish,Montréal,Québec,H4B 2M7,50%,Demande d'accès à l'information  MSSS  2024,LSST RSST et CSTC,Établissement de Santé,45.463269,-73.628522,H4B 2M7,50%,LSST RSST et CSTC,Établissement de Santé
-73.633892,45.492978,0,CHSLD Hope,CHSLD Juif de Montréal,5725 avenue Victoria,Montréal,Québec,H3W 3H6,50%,Demande d'accès à l'information  MSSS  2024,LSST RSST et CSTC,Établissement de Santé,45.492978,-73.633892,H3W 3H6,50%,LSST RSST et CSTC,Établissement de Santé
-73.632549,45.494167,0,CHSLD Hope,Centre de Réadaptation Lethbridge-Layton-Mackay,5750 rue Lavoie,Montréal,Québec,H3W 3H5,50%,Demande d'accès à l'information  MSSS  2024,LSST RSST et CSTC,Établissement de Santé,45.494167,-73.632549,H3W 3H5,50%,LSST RSST et CSTC,Établissement de Santé
-73.633706,45.458372,0,Crdp Constance-Lethbridge,Centre de Réadaptation Lethbridge-Layton-Mackay,7005 boulevard De Maisonneuve Ouest,Montréal,Québec,H4B 1T3,100%,Demande d'accès à l'information  MSSS  2024,LSST RSST et CSTC,Établissement de Santé,45.458372,-73.633706,H4B 1T3,100%,LSST RSST et CSTC,Établissement de Santé
-73.634847,45.458631,0,Crdp Mab,Centre de Réadaptation Lethbridge-Layton-Mackay,6980 rue Sherbrooke Ouest,Montréal,Québec,H4B 1R2,100%,Demande d'accès à l'information  MSSS  2024,LSST RSST et CSTC,Établissement de Santé,45.458631,-73.634847,H4B 1R2,100%,LSST RSST et CSTC,Établissement de Santé
-73.635743,45.459141,0,Crdp Mab,Centre de Réadaptation Lethbridge-Layton-Mackay,7010 rue Sherbrooke Ouest,Montréal,Québec,H4B 1R2,100%,Demande d'accès à l'information  MSSS  2024,LSST RSST et CSTC,Établissement de Santé,45.459141,-73.635743,H4B 1R2,100%,LSST RSST et CSTC,Établissement de Santé
-73.611586,45.475006,0,Crdp Mackay,CIUSSS du Centre-Ouest-de-L'Île-de-Montréal,3500 boulevard Décarie,Montréal,Québec,H4A 3J5,100%,Demande d'accès à l'information  MSSS  2024,LSST RSST et CSTC,Établissement de Santé,45.475006,-73.611586,H4A 3J5,100%,LSST RSST et CSTC,Établissement de Santé
-73.635618,45.464104,0,Hôpital Catherine Booth,L'Hôpital Général Juif Sir Mortimer B. Davis,4375 avenue Montclair,Montréal,Québec,H4B 2J5,100%,Demande d'accès à l'information  MSSS  2024,LSST RSST et CSTC,Établissement de Santé,45.464104,-73.635618,H4B 2J5,100%,LSST RSST et CSTC,Établissement de Santé
-73.62951,45.497771,0,Hôpital Général Juif,L'Hôpital Général Juif Sir Mortimer B. Davis,3755 chemin de la Côte-Sainte-Catherine,Montréal,Québec,H3T 1E2,100%,Demande d'accès à l'information  MSSS  2024,LSST RSST et CSTC,Établissement de Santé,45.497771,-73.62951,H3T 1E2,100%,LSST RSST et CSTC,Établissement de Santé
-73.629019,45.499036,0,Hôpital Général Juif,L'Hôpital Général Juif Sir Mortimer B. Davis,5770 Cote des Neiges,Montréal,Québec,H3S 1Y9,100%,Demande d'accès à l'information  MSSS  2024,LSST RSST et CSTC,Établissement de Santé,45.499036,-73.629019,H3S 1Y9,100%,LSST RSST et CSTC,Établissement de Santé
-73.629632,45.499313,0,Hôpital Général Juif,L'Hôpital Général Juif Sir Mortimer B. Davis,5800 Cote des Neiges,Montréal,Québec,H3S 1Y9,100%,Demande d'accès à l'information  MSSS  2024,LSST RSST et CSTC,Établissement de Santé,45.499313,-73.629632,H3S 1Y9,100%,LSST RSST et CSTC,Établissement de Santé
-73.630481,45.496156,0,Hôpital Général Juif,Hôpital Mont Sinaï,4333 chemin de la Côte-Sainte-Catherine,Montréal,Québec,H3T 1E4,100%,Demande d'accès à l'information  MSSS  2024,LSST RSST et CSTC,Établissement de Santé,45.496156,-73.630481,H3T 1E4,100%,LSST RSST et CSTC,Établissement de Santé
-73.631807,45.49432,0,L'Hôpital Général Juif - Maison Cohen,CIUSSS du Centre-Sud-de-L'Île-de-Montréal,4615 ch de la Cote Sainte-Catherine,Montréal,Québec,H3W 1M1,100%,Demande d'accès à l'information  MSSS  2024,LSST RSST et CSTC,Établissement de Santé,45.49432,-73.631807,H3W 1M1,100%,LSST RSST et CSTC,Établissement de Santé
-73.53632,45.589467,0,Buanderie Centrale De Montréal,CIUSSS du Centre-Sud-de-L'Île-de-Montréal,7250 rue Joseph-Daoust,Montréal,Québec,H1N 3N9,100%,Demande d'accès à l'information MSSS 2024,LSST RSST et CSTC*,Établissement de Santé,45.589467,-73.53632,H1N 3N9,100%,LSST RSST et CSTC*,Établissement de Santé
-73.543769,45.55035,0,Centre Act. De Jour Di Et Tsa Jeanne-D'Arc,CIUSSS du Centre-Sud-de-L'Île-de-Montréal,2103 avenue Jeanne-d'Arc,Montréal,Québec,H1W 3V6,100%,Demande d'accès à l'information MSSS 2024,LSST RSST et CSTC,Établissement de Santé,45.55035,-73.543769,H1W 3V6,100%,LSST RSST et CSTC,Établissement de Santé
-73.627384,45.490749,0,Centre D'Hébergement Alfred-Desrochers,CIUSSS du Centre-Sud-de-L'Île-de-Montréal,5325 avenue Victoria,Montréal,Québec,H3W 2P2,80%,Demande d'accès à l'information MSSS 2024,LSST RSST et CSTC,Établissement de Santé,45.490749,-73.627384,H3W 2P2,80%,LSST RSST et CSTC,Établissement de Santé
-73.563471,45.535785,0,Centre D'Hébergement Armand-Lavergne,CIUSSS du Centre-Sud-de-L'Île-de-Montréal,3500 rue Chapleau,Montréal,Québec,H2K 4N3,80%,Demande d'accès à l'information MSSS 2024,LSST RSST et CSTC,Établissement de Santé,45.535785,-73.563471,H2K 4N3,80%,LSST RSST et CSTC,Établissement de Santé
-73.58686,45.439092,0,Centre D'Hébergement Champlain,Groupe Champlain Inc. - Asss06,1325 rue Crawford,Montréal,Québec,H4H 2N6,100%,Demande d'accès à l'information MSSS 2024,LSST RSST et CSTC,Établissement de Santé,45.439092,-73.58686,H4H 2N6,100%,LSST RSST et CSTC,Établissement de Santé
-73.60374,45.61622,0,Centre D'Hébergement Champlain - Marie-Victorin,CIUSSS du Centre-Sud-de-L'Île-de-Montréal,7150 rue Marie-Victorin,Montréal,Québec,H1G 2J5,80%,Demande d'accès à l'information MSSS 2024,LSST RSST et CSTC,Établissement de Santé,45.61622,-73.60374,H1G 2J5,80%,LSST RSST et CSTC,Établissement de Santé
-73.593533,45.469508,0,Centre D'Hébergement De Saint-Henri,CIUSSS du Centre-Sud-de-L'Île-de-Montréal,5205 rue Notre-Dame Ouest,Montréal,Québec,H4C 3L2,100%,Demande d'accès à l'information MSSS 2024,LSST RSST et CSTC,Établissement de Santé,45.469508,-73.593533,H4C 3L2,100%,LSST RSST et CSTC,Établissement de Santé
-73.571228,45.489571,0,Centre D'Hébergement Des Seigneurs,CIUSSS du Centre-Sud-de-L'Île-de-Montréal,1800 rue Saint-Jacques Ouest,Montréal,Québec,H3J 2R5,80%,Demande d'accès à l'information MSSS 2024,LSST RSST et CSTC,Établissement de Santé,45.489571,-73.571228,H3J 2R5,80%,LSST RSST et CSTC,Établissement de Santé
-73.548132,45.528379,0,Centre D'Hébergement Émilie-Gamelin,CIUSSS du Centre-Sud-de-L'Île-de-Montréal,1440 rue Dufresne,Montréal,Québec,H2K 3J3,100%,Demande d'accès à l'information MSSS 2024,LSST RSST et CSTC,Établissement de Santé,45.528379,-73.548132,H2K 3J3,100%,LSST RSST et CSTC,Établissement de Santé
-73.564455,45.52131,0,Centre D'Hébergement Ernest-Routhier,CIUSSS du Centre-Sud-de-L'Île-de-Montréal,2110 rue Wolfe,Montréal,Québec,H2L 4V4,80%,Demande d'accès à l'information MSSS 2024,LSST RSST et CSTC,Établissement de Santé,45.52131,-73.564455,H2L 4V4,80%,LSST RSST et CSTC,Établissement de Santé
-73.56993,45.531305,0,Centre D'Hébergement Jean-De-La-Lande,CIUSSS du Centre-Sud-de-L'Île-de-Montréal,4255 avenue Papineau,Montréal,Québec,H2H 2P6,100%,Demande d'accès à l'information MSSS 2024,LSST RSST et CSTC,Établissement de Santé,45.531305,-73.56993,H2H 2P6,100%,LSST RSST et CSTC,Établissement de Santé
-73.571592,45.509311,0,Centre D'Hébergement Jeanne-Mance,CIUSSS du Centre-Sud-de-L'Île-de-Montréal,3430 rue Jeanne-Mance,Montréal,Québec,H2X 2J9,100%,Demande d'accès à l'information MSSS 2024,LSST RSST et CSTC,Établissement de Santé,45.509311,-73.571592,H2X 2J9,100%,LSST RSST et CSTC,Établissement de Santé
-73.566377,45.482011,0,Centre D'Hébergement Louis-Riel,CIUSSS du Centre-Sud-de-L'Île-de-Montréal,2120 rue Augustin-Cantin,Montréal,Québec,H3K 3G3,80%,Demande d'accès à l'information MSSS 2024,LSST RSST et CSTC,Établissement de Santé,45.482011,-73.566377,H3K 3G3,80%,LSST RSST et CSTC,Établissement de Santé
-73.565994,45.534551,0,Centre D'Hébergement Paul-Bruchési,CIUSSS du Centre-Sud-de-L'Île-de-Montréal,2225 rue Rachel Est,Montréal,Québec,H2H 1R4,100%,Demande d'accès à l'information MSSS 2024,LSST RSST et CSTC,Établissement de Santé,45.534551,-73.565994,H2H 1R4,100%,LSST RSST et CSTC,Établissement de Santé
-73.560455,45.50955,0,Centre D'Hébergement Paul-Émile-Léger,CIUSSS du Centre-Sud-de-L'Île-de-Montréal,66 boulevard René-Lévesque Est,Montréal,Québec,H2X 1N3,50%,Demande d'accès à l'information MSSS 2024,LSST RSST et CSTC,Établissement de Santé,45.50955,-73.560455,H2X 1N3,50%,LSST RSST et CSTC,Établissement de Santé
-73.60369,45.453943,0,Centre D'Hébergement Yvon-Brunet,Clinique Communautaire de Pointe St-Charles,6250 avenue Newman,Montréal,Québec,H4E 4K4,80%,Demande d'accès à l'information MSSS 2024,LSST RSST et CSTC,Établissement de Santé,45.453943,-73.60369,H4E 4K4,80%,LSST RSST et CSTC,Établissement de Santé
-73.556841,45.478353,0,Clinique Communautaire De Pointe St-Charles,CIUSSS du Centre-Sud-de-L'Île-de-Montréal,500 avenue Ash,Montréal,Québec,H3K 2R4,100%,Demande d'accès à l'information MSSS 2024,LSST RSST et CSTC,Établissement de Santé,45.478353,-73.556841,H3K 2R4,100%,LSST RSST et CSTC,Établissement de Santé
-73.558895,45.521015,0,CLSC De La Visitation Et Gmfu Des Faubourgs,CIUSSS du Centre-Sud-de-L'Île-de-Montréal,1705 rue de la Visitation,Montréal,Québec,H2L 3C3,100%,Demande d'accès à l'information MSSS 2024,LSST RSST et CSTC,Établissement de Santé,45.521015,-73.558895,H2L 3C3,100%,LSST RSST et CSTC,Établissement de Santé
-73.583654,45.478759,0,CLSC De Saint-Henri,CIUSSS du Centre-Sud-de-L'Île-de-Montréal,3833 rue Notre-Dame Ouest,Montréal,Québec,H2H 2B4,80%,Demande d'accès à l'information MSSS 2024,LSST RSST et CSTC,Établissement de Santé,45.478759,-73.583654,H2H 2B4,80%,LSST RSST et CSTC,Établissement de Santé
-73.574015,45.536324,0,CLSC Du Plateau-Mont-Royal,CIUSSS du Centre-Sud-de-L'Île-de-Montréal,4625 avenue De Lorimier,Montréal,Québec,H2H 1V4,80%,Demande d'accès à l'information MSSS 2024,LSST RSST et CSTC,Établissement de Santé,45.536324,-73.574015,H2H 1V4,80%,LSST RSST et CSTC,Établissement de Santé
-73.665982,45.560648,0,CPEJ Henri-Bourassa Est,CIUSSS du Centre-Sud-de-L'Île-de-Montréal,1161 boulevard Henri-Bourassa Est,Montréal,Québec,H2C 3K2,100%,Demande d'accès à l'information MSSS 2024,LSST RSST et CSTC,Établissement de Santé,45.560648,-73.665982,H2C 3K2,100%,LSST RSST et CSTC,Établissement de Santé
-73.665982,45.560648,0,CPEJ Henri-Bourassa Est,CIUSSS du Centre-Sud-de-L'Île-de-Montréal,1161 boulevard Henri-Bourassa Est,Montréal,Québec,H2C 3K2,100%,Demande d'accès à l'information MSSS 2024,LSST RSST et CSTC,Établissement de Santé,45.560648,-73.665982,H2C 3K2,100%,LSST RSST et CSTC,Établissement de Santé
-73.666045,45.561253,0,CPEJ Henri-Bourassa Est,CIUSSS du Centre-Sud-de-L'Île-de-Montréal,1165 boulevard Henri-Bourassa Est,Montréal,Québec,H2C 3K2,100%,Demande d'accès à l'information MSSS 2024,LSST RSST et CSTC,Établissement de Santé,45.561253,-73.666045,H2C 3K2,100%,LSST RSST et CSTC,Établissement de Santé
-73.666226,45.560881,0,CPEJ Henri-Bourassa Est,CIUSSS du Centre-Sud-de-L'Île-de-Montréal,1150 boulevard Gouin Est,Montréal,Québec,H1E 6N1,100%,Demande d'accès à l'information MSSS 2024,LSST RSST et CSTC,Établissement de Santé,45.560881,-73.666226,H1E 6N1,100%,LSST RSST et CSTC,Établissement de Santé
-73.536797,45.553841,0,CPEJ La Fontaine,CIUSSS du Centre-Sud-de-L'Île-de-Montréal,4477 rue La Fontaine,Montréal,Québec,H1V 1P4,100%,Demande d'accès à l'information MSSS 2024,LSST RSST et CSTC,Établissement de Santé,45.553841,-73.536797,H1V 1P4,100%,LSST RSST et CSTC,Établissement de Santé
-73.622179,45.479956,0,Cprjda Décarie,CIUSSS du Centre-Sud-de-L'Île-de-Montréal,4434 boulevard Décarie,Montréal,Québec,H4A 3P2,100%,Demande d'accès à l'information MSSS 2024,LSST RSST et CSTC,Établissement de Santé,45.479956,-73.622179,H4A 3P2,100%,LSST RSST et CSTC,Établissement de Santé
-73.648345,45.554241,0,Crd Louvain,CIUSSS du Centre-Sud-de-L'Île-de-Montréal,950 de Louvain Est,Montréal,Québec,H2M 2E8,100%,Demande d'accès à l'information MSSS 2024,LSST RSST et CSTC,Établissement de Santé,45.554241,-73.648345,H2M 2E8,100%,LSST RSST et CSTC,Établissement de Santé
-73.573497,45.512409,0,Crd Prince-Arthur,CIUSSS du Centre-Sud-de-L'Île-de-Montréal,110 rue Prince-Arthur Ouest,Montréal,Québec,H2X 1S7,100%,Demande d'accès à l'information MSSS 2024,LSST RSST et CSTC,Établissement de Santé,45.512409,-73.573497,H2X 1S7,100%,LSST RSST et CSTC,Établissement de Santé
-73.573162,45.512127,0,Crd Prince-Arthur,CIUSSS du Centre-Sud-de-L'Île-de-Montréal,3530 rue Saint-Urbain,Montréal,Québec,H2X 2N7,100%,Demande d'accès à l'information MSSS 2024,LSST RSST et CSTC,Établissement de Santé,45.512127,-73.573162,H2X 2N7,100%,LSST RSST et CSTC,Établissement de Santé
-73.638899,45.609267,0,CRDI-TSA Gouin,CIUSSS du Centre-Sud-de-L'Île-de-Montréal,5025 boulevard Gouin Est,Montréal,Québec,H1G 1A3,100%,Demande d'accès à l'information MSSS 2024,LSST RSST et CSTC,Établissement de Santé,45.609267,-73.638899,H1G 1A3,100%,LSST RSST et CSTC,Établissement de Santé
-73.5626,45.570106,0,CRDI-TSA Marie-Bourassa,CIUSSS du Centre-Sud-de-L'Île-de-Montréal,5695 avenue des Maronniers,Montréal,Québec,H1T 2W3,100%,Demande d'accès à l'information MSSS 2024,LSST RSST et CSTC,Établissement de Santé,45.570106,-73.5626,H1T 2W3,100%,LSST RSST et CSTC,Établissement de Santé
-73.576997,45.540461,0,Crdp Lucie-Bruneau-Laurier,CIUSSS du Centre-Sud-de-L'Île-de-Montréal,2275 avenue Laurier Est,Montréal,Québec,H2H 2N8,100%,Demande d'accès à l'information MSSS 2024,LSST RSST et CSTC,Établissement de Santé,45.540461,-73.576997,H2H 2N8,100%,LSST RSST et CSTC,Établissement de Santé
-73.576754,45.539394,0,Crdp Raymond-Deward-Laurier,CIUSSS du Centre-Sud-de-L'Île-de-Montréal,2222 avenue Laurier Est,Montréal,Québec,H2H 1C4,100%,Demande d'accès à l'information MSSS 2024,LSST RSST et CSTC,Établissement de Santé,45.539394,-73.576754,H2H 1C4,100%,LSST RSST et CSTC,Établissement de Santé
-73.540269,45.662599,0,CRJDA Cité-Des-Prairies,CIUSSS du Centre-Sud-de-L'Île-de-Montréal,12165 boulevard Saint-Jean-Baptiste,Montréal,Québec,H1C 1S4,100%,Demande d'accès à l'information MSSS 2024,LSST RSST et CSTC,Établissement de Santé,45.662599,-73.540269,H1C 1S4,100%,LSST RSST et CSTC,Établissement de Santé
-73.510108,45.589798,0,CRJDA De Beaurivage,CIUSSS du Centre-Sud-de-L'Île-de-Montréal,1409 rue de Beaurivage,Montréal,Québec,H1L 5V3,100%,Demande d'accès à l'information MSSS 2024,LSST RSST et CSTC,Établissement de Santé,45.589798,-73.510108,H1L 5V3,100%,LSST RSST et CSTC,Établissement de Santé
-73.647056,45.553034,0,CRJDA Dominique-Savio,CIUSSS du Centre-Sud-de-L'Île-de-Montréal,9335 rue Saint-Hubert,Montréal,Québec,H2M 1Y7,100%,Demande d'accès à l'information MSSS 2024,LSST RSST et CSTC,Établissement de Santé,45.553034,-73.647056,H2M 1Y7,100%,LSST RSST et CSTC,Établissement de Santé
-73.537092,45.599475,0,CRJDA Du Mont Saint-Antoine,CIUSSS du Centre-Sud-de-L'Île-de-Montréal,8147 rue Sherbrooke Est,Montréal,Québec,H1L 1A7,100%,Demande d'accès à l'information MSSS 2024,LSST RSST et CSTC,Établissement de Santé,45.599475,-73.537092,H1L 1A7,100%,LSST RSST et CSTC,Établissement de Santé
-73.590192,45.524227,0,Csss Jeanne-Mance - Siège Social,CIUSSS du Centre-Sud-de-L'Île-de-Montréal,155 boulevard Saint-Joseph Est,Montréal,Québec,H2T 1H4,100%,Demande d'accès à l'information MSSS 2024,LSST RSST et CSTC,Établissement de Santé,45.524227,-73.590192,H2T 1H4,100%,LSST RSST et CSTC,Établissement de Santé
-73.54961,45.552718,0,Foyer De Groupe Pour Jda Chambord,CIUSSS du Centre-Sud-de-L'Île-de-Montréal,2574 boulevard Pie-IX,Montréal,Québec,H1V 2E7,100%,Demande d'accès à l'information MSSS 2024,LSST RSST et CSTC,Établissement de Santé,45.552718,-73.54961,H1V 2E7,100%,LSST RSST et CSTC,Établissement de Santé
-73.667753,45.54066,0,Foyer De Groupe Pour Jda Meilleur,CIUSSS du Centre-Sud-de-L'Île-de-Montréal,10160 rue Meilleur,Montréal,Québec,H3L 3J8,100%,Demande d'accès à l'information MSSS 2024,LSST RSST et CSTC,Établissement de Santé,45.54066,-73.667753,H3L 3J8,100%,LSST RSST et CSTC,Établissement de Santé
-73.62867,45.508263,0,Hôpital Et Crdp Irglm-Gustave-Gingras,CIUSSS du Centre-Sud-de-L'Île-de-Montréal,6300 avenue Darlington,Montréal,Québec,H3S 2J4,100%,Demande d'accès à l'information MSSS 2024,LSST RSST et CSTC,Établissement de Santé,45.508263,-73.62867,H3S 2J4,100%,LSST RSST et CSTC,Établissement de Santé
-73.62941,45.506834,0,Hôpital Et Crdp Irglm-Gustave-Gingras,CIUSSS du Centre-Sud-de-L'Île-de-Montréal,6363 chemin Hudson,Montréal,Québec,H3S 1M9,100%,Demande d'accès à l'information MSSS 2024,LSST RSST et CSTC,Établissement de Santé,45.506834,-73.62941,H3S 1M9,100%,LSST RSST et CSTC,Établissement de Santé
-73.564071,45.526195,0,Hôpital Notre-Dame,CIUSSS du Centre-Sud-de-L'Île-de-Montréal,1560 rue Sherbrooke Est,Montréal,Québec,H2L 4M1,100%,Demande d'accès à l'information MSSS 2024,LSST RSST et CSTC,Établissement de Santé,45.526195,-73.564071,H2L 4M1,100%,LSST RSST et CSTC,Établissement de Santé
-73.623335,45.491178,0,Institut Universitaire De Gériatrie De Montréal,CIUSSS du Centre-Sud-de-L'Île-de-Montréal,4565 chemin Queen-Mary,Montréal,Québec,H3W 1W5,100%,Demande d'accès à l'information MSSS 2024,LSST RSST et CSTC,Établissement de Santé,45.491178,-73.623335,H3W 1W5,100%,LSST RSST et CSTC,Établissement de Santé
-73.540683,45.588842,0,Pavillon Jean-Marc Chabot,CIUSSS du Centre-Sud-de-L'Île-de-Montréal,3800 rue Radisson,Montréal,Québec,H1M 1X6,100%,Demande d'accès à l'information MSSS 2024,LSST RSST et CSTC,Établissement de Santé,45.588842,-73.540683,H1M 1X6,100%,LSST RSST et CSTC,Établissement de Santé
-73.529836,45.602661,0,Rac Balwin,CIUSSS du Centre-Sud-de-L'Île-de-Montréal,3190 rue Baldwin,Montréal,Québec,H1L 5C1,80%,Demande d'accès à l'information MSSS 2024,LSST RSST et CSTC,Établissement de Santé,45.602661,-73.529836,H1L 5C1,80%,LSST RSST et CSTC,Établissement de Santé
-73.634121,45.546174,0,Résidence - Rue De Liège Est,CIUSSS du Centre-Sud-de-L'Île-de-Montréal,600 rue de Liège Est,Montréal,Québec,H2P 1K3,100%,Demande d'accès à l'information MSSS 2024,LSST RSST et CSTC,Établissement de Santé,45.546174,-73.634121,H2P 1K3,100%,LSST RSST et CSTC,Établissement de Santé
-73.587055,45.629693,0,Résidence Communautaire - Boulevard Armand-Bombardier,CIUSSS du Centre-Sud-de-L'Île-de-Montréal,11625 boulevard Armand-Bombardier,Montréal,Québec,H1E 4H8,80%,Demande d'accès à l'information MSSS 2024,LSST RSST et CSTC,Établissement de Santé,45.629693,-73.587055,H1E 4H8,80%,LSST RSST et CSTC,Établissement de Santé
-73.506551,45.639849,0,Résidence Communautaire - Rue Demontigny,CIUSSS du Centre-Sud-de-L'Île-de-Montréal,11830 rue Demontigny,Montréal,Québec,H1B 1N9,100%,Demande d'accès à l'information MSSS 2024,LSST RSST et CSTC,Établissement de Santé,45.639849,-73.506551,H1B 1N9,100%,LSST RSST et CSTC,Établissement de Santé
-73.54311,45.589471,0,Résidence Communautaire - Rue Radisson,CIUSSS du Centre-Sud-de-L'Île-de-Montréal,4800 rue Radisson,Montréal,Québec,H1M 1X6,100%,Demande d'accès à l'information MSSS 2024,LSST RSST et CSTC,Établissement de Santé,45.589471,-73.54311,H1M 1X6,100%,LSST RSST et CSTC,Établissement de Santé
-73.597642,45.547119,0,Résidence Delorimier,CIUSSS du Centre-Sud-de-L'Île-de-Montréal,2100 rue Saint-Zotique Est,Montréal,Québec,H2G 1J5,100%,Demande d'accès à l'information MSSS 2024,LSST RSST et CSTC,Établissement de Santé,45.547119,-73.597642,H2G 1J5,100%,LSST RSST et CSTC,Établissement de Santé
-73.580116,45.641575,0,Ri-Résidence Ramy,CIUSSS du Centre-Sud-de-L'Île-de-Montréal,12145 avenue Gaston-Maillet,Montréal,Québec,H1H 5T5,80%,Demande d'accès à l'information MSSS 2024,LSST RSST et CSTC,Établissement de Santé,45.641575,-73.580116,H1H 5T5,80%,LSST RSST et CSTC,Établissement de Santé
-73.524543,45.598838,0,Ri-Résidenceoasis Danielle Enr.,Centre Universitaire de Santé Mcgill,2727 rue Saint-Donat,Montréal,Québec,H1L 5K6,100%,Demande d'accès à l'information MSSS 2024,LSST RSST et CSTC,Établissement de Santé,45.598838,-73.524543,H1L 5K6,100%,LSST RSST et CSTC,Établissement de Santé
-73.604897,45.473256,0,Bureaux Administratifs ,Centre Universitaire de Santé Mcgill,5252 boulevard de Maisonneuve Ouest,Montréal,Québec,H4A 3S5,80%,Demande d'accès à l'information MSSS 2024,LSST RSST et CSTC*,Établissement de Santé,45.473256,-73.604897,H4A 3S5,80%,LSST RSST et CSTC*,Établissement de Santé
-73.662528,45.499431,0,Hôpital De Lachine,Centre Universitaire de Santé Mcgill,8300 boulevard Décarie,Montréal,Québec,H4P 2P5,100%,Demande d'accès à l'information MSSS 2024,LSST RSST et CSTC,Établissement de Santé,45.499431,-73.662528,H4P 2P5,100%,LSST RSST et CSTC,Établissement de Santé
-73.589099,45.497253,0,Hôpital Général De Montréal,Centre Universitaire de Santé Mcgill,1650 avenue Cedar,Montréal,Québec,H3G 1A4,100%,Demande d'accès à l'information MSSS 2024,LSST RSST et CSTC,Établissement de Santé,45.497253,-73.589099,H3G 1A4,100%,LSST RSST et CSTC,Établissement de Santé
-73.581312,45.508117,0,Hôpital Royal Victoria Legacy,CIUSSS de L'Est-de-L'Île-de-Montréal,687 Avenue Des Pins Ouest,Montréal,Québec,H3A 1A1,100%,Demande d'accès à l'information MSSS 2024,LSST RSST et CSTC,Établissement de Santé,45.508117,-73.581312,H3A 1A1,100%,LSST RSST et CSTC,Établissement de Santé
-73.543739,45.667393,0,Boscoville,CIUSSS de L'Est-de-L'Île-de-Montréal,10950 boulevard Perras,Montréal,Québec,H1C 1B3,100%,Demande d'accès à l'information MSSS 2024,LSST RSST et CSTC*,Établissement de Santé,45.667393,-73.543739,H1C 1B3,100%,LSST RSST et CSTC*,Établissement de Santé
-73.558812,45.542646,0,Centre D'Hébergement J.-Henri-Charbonneau,CIUSSS de L'Est-de-L'Île-de-Montréal,3095 rue Sherbrooke Est,Montréal,Québec,H1W 1B2,100%,Demande d'accès à l'information MSSS 2024,LSST RSST et CSTC,Établissement de Santé,45.542646,-73.558812,H1W 1B2,100%,LSST RSST et CSTC,Établissement de Santé
-73.551005,45.572993,0,CHSLD Benjamin-Victor-Rousselot,CIUSSS de L'Est-de-L'Île-de-Montréal,5655 rue Sherbrooke Est,Montréal,Québec,H1N 1A4,100%,Demande d'accès à l'information MSSS 2024,LSST RSST et CSTC,Établissement de Santé,45.572993,-73.551005,H1N 1A4,100%,LSST RSST et CSTC,Établissement de Santé
-73.610599,45.562162,0,CHSLD De Saint-Michel,CIUSSS de L'Est-de-L'Île-de-Montréal,3130 rue Jarry Est,Montréal,Québec,H1Z 4N8,100%,Demande d'accès à l'information MSSS 2024,LSST RSST et CSTC,Établissement de Santé,45.562162,-73.610599,H1Z 4N8,100%,LSST RSST et CSTC,Établissement de Santé
-73.541743,45.577174,0,CHSLD Éloria-Lepage,CIUSSS de L'Est-de-L'Île-de-Montréal,3090 avenue de la Pépinière,Montréal,Québec,H1N 3N4,80%,Demande d'accès à l'information MSSS 2024,LSST RSST et CSTC,Établissement de Santé,45.577174,-73.541743,H1N 3N4,80%,LSST RSST et CSTC,Établissement de Santé
-73.535994,45.596134,0,CHSLD Jean-Hubert-Biermans,CIUSSS de L'Est-de-L'Île-de-Montréal,7905 rue Sherbrooke Est,Montréal,Québec,H1L 1A4,100%,Demande d'accès à l'information MSSS 2024,LSST RSST et CSTC,Établissement de Santé,45.596134,-73.535994,H1L 1A4,100%,LSST RSST et CSTC,Établissement de Santé
-73.601925,45.559779,0,CHSLD Joseph-François-Perreault,CIUSSS de L'Est-de-L'Île-de-Montréal,7400 boulevard Saint-Michel,Montréal,Québec,H2A 2Z8,100%,Demande d'accès à l'information MSSS 2024,LSST RSST et CSTC,Établissement de Santé,45.559779,-73.601925,H2A 2Z8,100%,LSST RSST et CSTC,Établissement de Santé
-73.529868,45.606531,0,CHSLD Judith-Jasmin,CIUSSS de L'Est-de-L'Île-de-Montréal,8850 rue Bisaillon,Montréal,Québec,H1K 4N2,80%,Demande d'accès à l'information MSSS 2024,LSST RSST et CSTC,Établissement de Santé,45.606531,-73.529868,H1K 4N2,80%,LSST RSST et CSTC,Établissement de Santé
-73.575862,45.57335,0,CHSLD Marie-Rollet,CIUSSS de L'Est-de-L'Île-de-Montréal,5003 rue Saint-Zotique Est,Montréal,Québec,H1T 1N6,80%,Demande d'accès à l'information MSSS 2024,LSST RSST et CSTC,Établissement de Santé,45.57335,-73.575862,H1T 1N6,80%,LSST RSST et CSTC,Établissement de Santé
-73.548696,45.54768,0,CHSLD Nicolet,CIUSSS de L'Est-de-L'Île-de-Montréal,2300 rue Nicolet,Montréal,Québec,H1W 3L4,100%,Demande d'accès à l'information MSSS 2024,LSST RSST et CSTC,Établissement de Santé,45.54768,-73.548696,H1W 3L4,100%,LSST RSST et CSTC,Établissement de Santé
-73.535375,45.600796,0,CHSLD Pierre-Joseph-Triest,CIUSSS de L'Est-de-L'Île-de-Montréal,4900 boulevard Lapointe,Montréal,Québec,H1K 4W9,80%,Demande d'accès à l'information MSSS 2024,LSST RSST et CSTC,Établissement de Santé,45.600796,-73.535375,H1K 4W9,80%,LSST RSST et CSTC,Établissement de Santé
-73.574259,45.581062,0,CHSLD Polonais Marie-Curie-Sklodowska,CIUSSS de L'Est-de-L'Île-de-Montréal,5655 rue Bélanger,Montréal,Québec,H1T 1G2,100%,Demande d'accès à l'information MSSS 2024,LSST RSST et CSTC,Établissement de Santé,45.581062,-73.574259,H1T 1G2,100%,LSST RSST et CSTC,Établissement de Santé
-73.578963,45.557559,0,CHSLD Robert-Cliche,CIUSSS de L'Est-de-L'Île-de-Montréal,3730 rue de Bellechasse,Montréal,Québec,H1X 3E5,80%,Demande d'accès à l'information MSSS 2024,LSST RSST et CSTC,Établissement de Santé,45.557559,-73.578963,H1X 3E5,80%,LSST RSST et CSTC,Établissement de Santé
-73.493517,45.666869,0,CLSC De L'Est-De-Montréal,CIUSSS de L'Est-de-L'Île-de-Montréal,13950 rue Notre-Dame Est,Montréal,Québec,H1A 1T5,80%,Demande d'accès à l'information MSSS 2024,LSST RSST et CSTC,Établissement de Santé,45.666869,-73.493517,H1A 1T5,80%,LSST RSST et CSTC,Établissement de Santé
-73.493564,45.666368,0,CLSC De L'Est-De-Montréal,CIUSSS de L'Est-de-L'Île-de-Montréal,13926 rue Notre-Dame Est,Montréal,Québec,H1A 1T5,100%,Demande d'accès à l'information MSSS 2024,LSST RSST et CSTC,Établissement de Santé,45.666368,-73.493564,H1A 1T5,100%,LSST RSST et CSTC,Établissement de Santé
-73.585741,45.644652,0,CLSC De Rivière-Des-Prairies,CIUSSS de L'Est-de-L'Île-de-Montréal,8655 boulevard Perras,Montréal,Québec,H1E 4M7,80%,Demande d'accès à l'information MSSS 2024,LSST RSST et CSTC,Établissement de Santé,45.644652,-73.585741,H1E 4M7,80%,LSST RSST et CSTC,Établissement de Santé
-73.532313,45.589092,0,Hôpital De Soins Psychiatriques De L'Est De Montréal,CIUSSS de L'Est-de-L'Île-de-Montréal,7455 rue Hochelaga,Montréal,Québec,H1N 3V2,100%,Demande d'accès à l'information MSSS 2024,LSST RSST et CSTC,Établissement de Santé,45.589092,-73.532313,H1N 3V2,100%,LSST RSST et CSTC,Établissement de Santé
-73.53033,45.589551,0,Hôpital De Soins Psychiatriques De L'Est De Montréal,CIUSSS de L'Est-de-L'Île-de-Montréal,7401 rue Hochelaga,Montréal,Québec,H1N 3M5,100%,Demande d'accès à l'information MSSS 2024,LSST RSST et CSTC,Établissement de Santé,45.589551,-73.53033,H1N 3M5,100%,LSST RSST et CSTC,Établissement de Santé
-73.530734,45.589494,0,Hôpital De Soins Psychiatriques De L'Est De Montréal,CIUSSS de L'Est-de-L'Île-de-Montréal,7331 rue Hochelaga,Montréal,Québec,H1N 3V2,50%,Demande d'accès à l'information MSSS 2024,LSST RSST et CSTC,Établissement de Santé,45.589494,-73.530734,H1N 3V2,50%,LSST RSST et CSTC,Établissement de Santé
-73.558455,45.574113,0,Hôpital Maisonneuve-Rosemont,CIUSSS de L'Est-de-L'Île-de-Montréal,5415 boulevard de l'Assomption,Montréal,Québec,H1T 2M4,100%,Demande d'accès à l'information MSSS 2024,LSST RSST et CSTC,Établissement de Santé,45.574113,-73.558455,H1T 2M4,100%,LSST RSST et CSTC,Établissement de Santé
-73.558464,45.574216,0,Hôpital Maisonneuve-Rosemont,CIUSSS de L'Est-de-L'Île-de-Montréal,5305 boulevard de l'Assomption,Montréal,Québec,H1T 0B4,100%,Demande d'accès à l'information MSSS 2024,LSST RSST et CSTC,Établissement de Santé,45.574216,-73.558464,H1T 0B4,100%,LSST RSST et CSTC,Établissement de Santé
-73.556008,45.574183,0,Hôpital Maisonneuve-Rosemont,CIUSSS de L'Est-de-L'Île-de-Montréal,5345 boulevard de l'Assomption,Montréal,Québec,H1T 4B3,80%,Demande d'accès à l'information MSSS 2024,LSST RSST et CSTC,Établissement de Santé,45.574183,-73.556008,H1T 4B3,80%,LSST RSST et CSTC,Établissement de Santé
-73.558464,45.574216,0,Hôpital Maisonneuve-Rosemont,Hôpital Santa Cabrini,5305 boulevard de l'Assomption,Montréal,Québec,H1T 0B4,100%,Demande d'accès à l'information MSSS 2024,LSST RSST et CSTC,Établissement de Santé,45.574216,-73.558464,H1T 0B4,100%,LSST RSST et CSTC,Établissement de Santé
-73.573475,45.580126,0,Hôpital Santa Cabrini,Hôpital Santa Cabrini,6887 rue Chatelain,Montréal,Québec,H1T 3X7,80%,Demande d'accès à l'information MSSS 2024,LSST RSST et CSTC,Établissement de Santé,45.580126,-73.573475,H1T 3X7,80%,LSST RSST et CSTC,Établissement de Santé
-73.571591,45.579696,0,Hôpital Santa Cabrini,CIUSSS de L'Est-de-L'Île-de-Montréal,5655 rue Saint-Zotique Est,Montréal,Québec,H1T 1P7,100%,Demande d'accès à l'information MSSS 2024,LSST RSST et CSTC,Établissement de Santé,45.579696,-73.571591,H1T 1P7,100%,LSST RSST et CSTC,Établissement de Santé
-73.56189,45.577398,0,Pavillon Rosemont,CIUSSS de L'Est-de-L'Île-de-Montréal,5689 boulevard Rosemont,Montréal,Québec,H1T 2H1,100%,Demande d'accès à l'information MSSS 2024,LSST RSST et CSTC,Établissement de Santé,45.577398,-73.56189,H1T 2H1,100%,LSST RSST et CSTC,Établissement de Santé
-73.564623,45.58862,0,Résidence - Rue Pierre Gaulin,CIUSSS de L'Est-de-L'Île-de-Montréal,6545-6547 rue Pierre-Gaulin,Montréal,Québec,H1M 2V2,100%,Demande d'accès à l'information MSSS 2024,LSST RSST et CSTC,Établissement de Santé,45.58862,-73.564623,H1M 2V2,100%,LSST RSST et CSTC,Établissement de Santé
-73.609051,45.595411,0,Résidence Couture,Institut de Cardiologie de Montréal,5630 boulevard Couture,Montréal,Québec,H1R 1E3,100%,Demande d'accès à l'information MSSS 2024,LSST RSST et CSTC,Établissement de Santé,45.595411,-73.609051,H1R 1E3,100%,LSST RSST et CSTC,Établissement de Santé
-73.57484,45.574609,0,Centre E.P.I.C - Institut De Cardiologie De Montréal,Institut de Cardiologie de Montréal,5055 rue Saint-Zotique,Montréal,Québec,H1T 1N6,100%,Demande d'accès à l'information MSSS 2024,LSST RSST et CSTC*,Établissement de Santé,45.574609,-73.57484,H1T 1N6,100%,LSST RSST et CSTC*,Établissement de Santé
-73.578516,45.574377,0,Institut De Cardiologie De Montréal,Institut National de Psychiatrie Légale Philippe-Pinel,5000 rue Bélanger,Montréal,Québec,H1T 1C8,100%,Demande d'accès à l'information MSSS 2024,LSST RSST et CSTC,Établissement de Santé,45.574377,-73.578516,H1T 1C8,100%,LSST RSST et CSTC,Établissement de Santé
-73.533301,45.655782,0,Institut National De Psychiatrie Légale Philippe-Pinel,CIUSSS du Nord-de-L'Ile-de-Montréal,10905 boulevard Henri-Bourassa Est,Montréal,Québec,H1C 1H1,100%,Demande d'accès à l'information MSSS 2024,LSST RSST et CSTC*,Établissement de Santé,45.655782,-73.533301,H1C 1H1,100%,LSST RSST et CSTC*,Établissement de Santé
-73.608973,45.545428,0,Bureaux Administratifs - Hôpital Jean-Talon - Rue Jean-Talon,CIUSSS du Nord-de-L'Ile-de-Montréal,1360 rue Jean-Talon Est,Montréal,Québec,H2E 1S2,100%,Demande d'accès à l'information MSSS 2024,LSST RSST et CSTC,Établissement de Santé,45.545428,-73.608973,H2E 1S2,100%,LSST RSST et CSTC,Établissement de Santé
-73.68797,45.547241,0,Centre D'Hébergement Notre-Dame-De-La-Merci,CIUSSS du Nord-de-L'Ile-de-Montréal,555 boulevard Gouin Ouest,Montréal,Québec,H3L 1K5,100%,Demande d'accès à l'information MSSS 2024,LSST RSST et CSTC,Établissement de Santé,45.547241,-73.68797,H3L 1K5,100%,LSST RSST et CSTC,Établissement de Santé
-73.611447,45.623085,0,Centre Multi. Sss Rivière-Des-Prairies,CIUSSS du Nord-de-L'Ile-de-Montréal,7070 boulevard Perras,Montréal,Québec,H1E 1A4,80%,Demande d'accès à l'information MSSS 2024,LSST RSST et CSTC,Établissement de Santé,45.623085,-73.611447,H1E 1A4,80%,LSST RSST et CSTC,Établissement de Santé
-73.65373,45.549129,0,Centre Serv. Amb Et Maison De Naissance Louvain,CIUSSS du Nord-de-L'Ile-de-Montréal,9600 rue Saint-Denis,Montréal,Québec,H2M 1P2,100%,Demande d'accès à l'information MSSS 2024,LSST RSST et CSTC,Établissement de Santé,45.549129,-73.65373,H2M 1P2,100%,LSST RSST et CSTC,Établissement de Santé
-73.609098,45.539742,0,CHSLD Auclair,CIUSSS du Nord-de-L'Ile-de-Montréal,6910 rue Boyer,Montréal,Québec,H2S 2J7,80%,Demande d'accès à l'information MSSS 2024,LSST RSST et CSTC,Établissement de Santé,45.539742,-73.609098,H2S 2J7,80%,LSST RSST et CSTC,Établissement de Santé
-73.717215,45.531327,0,CHSLD De Cartierville,CIUSSS du Nord-de-L'Ile-de-Montréal,12235 rue Grenet,Montréal,Québec,H4J 2N9,100%,Demande d'accès à l'information MSSS 2024,LSST RSST et CSTC,Établissement de Santé,45.531327,-73.717215,H4J 2N9,100%,LSST RSST et CSTC,Établissement de Santé
-73.600667,45.546093,0,CHSLD De La Petite-Patrie,CIUSSS du Nord-de-L'Ile-de-Montréal,6767 rue Cartier,Montréal,Québec,H2G 3G2,80%,Demande d'accès à l'information MSSS 2024,LSST RSST et CSTC,Établissement de Santé,45.546093,-73.600667,H2G 3G2,80%,LSST RSST et CSTC,Établissement de Santé
-73.679912,45.516907,0,CHSLD De Saint-Laurent,CIUSSS du Nord-de-L'Ile-de-Montréal,1275 boulevard de la Côte-Vertu,Montréal,Québec,H4L 4V2,100%,Demande d'accès à l'information MSSS 2024,LSST RSST et CSTC,Établissement de Santé,45.516907,-73.679912,H4L 4V2,100%,LSST RSST et CSTC,Établissement de Santé
-73.680849,45.517238,0,CHSLD De Saint-Laurent,CIUSSS du Nord-de-L'Ile-de-Montréal,1055 ave. Ste-Croix,Montréal,Québec,H4L 3Z2,80%,Demande d'accès à l'information MSSS 2024,LSST RSST et CSTC,Établissement de Santé,45.517238,-73.680849,H4L 3Z2,80%,LSST RSST et CSTC,Établissement de Santé
-73.662035,45.568083,0,CHSLD Laurendeau,CIUSSS du Nord-de-L'Ile-de-Montréal,1725 boulevard Gouin Est,Montréal,Québec,H2C 3H6,100%,Demande d'accès à l'information MSSS 2024,LSST RSST et CSTC,Établissement de Santé,45.568083,-73.662035,H2C 3H6,100%,LSST RSST et CSTC,Établissement de Santé
-73.635034,45.558602,0,CHSLD Légaré,CIUSSS du Nord-de-L'Ile-de-Montréal,1615 avenue Émile-Journault,Montréal,Québec,H2M 2G3,100%,Demande d'accès à l'information MSSS 2024,LSST RSST et CSTC,Établissement de Santé,45.558602,-73.635034,H2M 2G3,100%,LSST RSST et CSTC,Établissement de Santé
-73.599621,45.532343,0,CHSLD Paul-Gouin,CIUSSS du Nord-de-L'Ile-de-Montréal,5900 rue De Saint-Vallier,Montréal,Québec,H2S 2P3,80%,Demande d'accès à l'information MSSS 2024,LSST RSST et CSTC,Établissement de Santé,45.532343,-73.599621,H2S 2P3,80%,LSST RSST et CSTC,Établissement de Santé
-73.690396,45.540927,0,CHSLD Saint-Joseph-De-La-Providence,CIUSSS du Nord-de-L'Ile-de-Montréal,11844 avenue du Bois-de-Boulogne,Montréal,Québec,H3M 2X7,100%,Demande d'accès à l'information MSSS 2024,LSST RSST et CSTC,Établissement de Santé,45.540927,-73.690396,H3M 2X7,100%,LSST RSST et CSTC,Établissement de Santé
-73.689432,45.540853,0,CHSLD Saint-Joseph-De-La-Providence,CIUSSS du Nord-de-L'Ile-de-Montréal,11822 avenue du Bois-de-Boulogne,Montréal,Québec,H3M 2X6,100%,Demande d'accès à l'information MSSS 2024,LSST RSST et CSTC,Établissement de Santé,45.540853,-73.689432,H3M 2X6,100%,LSST RSST et CSTC,Établissement de Santé
-73.690391,45.541367,0,CHSLD Saint-Joseph-De-La-Providence,CIUSSS du Nord-de-L'Ile-de-Montréal,11850 avenue du Bois-de-Boulogne,Montréal,Québec,H3M 2X6,80%,Demande d'accès à l'information MSSS 2024,LSST RSST et CSTC,Établissement de Santé,45.541367,-73.690391,H3M 2X6,80%,LSST RSST et CSTC,Établissement de Santé
-73.605205,45.534809,0,CLSC De La Petite-Patrie,CIUSSS du Nord-de-L'Ile-de-Montréal,6520 rue De Saint-Vallier,Montréal,Québec,H2S 2P7,100%,Demande d'accès à l'information MSSS 2024,LSST RSST et CSTC,Établissement de Santé,45.534809,-73.605205,H2S 2P7,100%,LSST RSST et CSTC,Établissement de Santé
-73.714118,45.532648,0,Hôpital Du Sacré-Coeur De Montréal,CIUSSS du Nord-de-L'Ile-de-Montréal,5400 boulevard Gouin Ouest,Montréal,Québec,H3L 1J2,50%,Demande d'accès à l'information MSSS 2024,LSST RSST et CSTC,Établissement de Santé,45.532648,-73.714118,H3L 1J2,50%,LSST RSST et CSTC,Établissement de Santé
-73.728871,45.529089,0,Hôpital En Santé Mentale Albert-Prévost,CIUSSS du Nord-de-L'Ile-de-Montréal,6555 boulevard Gouin Ouest,Montréal,Québec,H4K 1B3,50%,Demande d'accès à l'information MSSS 2024,LSST RSST et CSTC,Établissement de Santé,45.529089,-73.728871,H4K 1B3,50%,LSST RSST et CSTC,Établissement de Santé
-73.649955,45.572225,0,Hôpital Fleury,CIUSSS du Nord-de-L'Ile-de-Montréal,2180 rue Fleury Est,Montréal,Québec,H2B 1K3,100%,Demande d'accès à l'information MSSS 2024,LSST RSST et CSTC,Établissement de Santé,45.572225,-73.649955,H2B 1K3,100%,LSST RSST et CSTC,Établissement de Santé
-73.647799,45.570887,0,Hôpital Fleury,CIUSSS du Nord-de-L'Ile-de-Montréal,2169 rue Sauriol Est,Montréal,Québec,H2B 1G1,100%,Demande d'accès à l'information MSSS 2024,LSST RSST et CSTC,Établissement de Santé,45.570887,-73.647799,H2B 1G1,100%,LSST RSST et CSTC,Établissement de Santé
-73.609438,45.545663,0,Hôpital Jean-Talon,CIUSSS de L'Ouest-de-L'Île-de-Montréal,1385 rue Jean-Talon Est,Montréal,Québec,H2E 1S6,100%,Demande d'accès à l'information MSSS 2024,LSST RSST et CSTC,Établissement de Santé,45.545663,-73.609438,H2E 1S6,100%,LSST RSST et CSTC,Établissement de Santé
-73.623591,45.463708,0,Atelier De Travail Et Centre Act. De Jour Benny,CIUSSS de L'Ouest-de-L'Île-de-Montréal,2221 avenue Benny,Montréal,Québec,H4B 2R5,100%,Demande d'accès à l'information MSSS 2024,LSST RSST et CSTC,Établissement de Santé,45.463708,-73.623591,H4B 2R5,100%,LSST RSST et CSTC,Établissement de Santé
-73.529671,45.559843,0,Centre De Soins Prolongés Grâce Dart,CIUSSS de L'Ouest-de-L'Île-de-Montréal,5155 rue Sainte-Catherine Est,Montréal,Québec,H1V 2A5,100%,Demande d'accès à l'information MSSS 2024,LSST RSST et CSTC,Établissement de Santé,45.559843,-73.529671,H1V 2A5,100%,LSST RSST et CSTC,Établissement de Santé
-73.689485,45.440562,0,Centre D'Hébergement De Lachine,CIUSSS de L'Ouest-de-L'Île-de-Montréal,650 place d'Accueil,Montréal,Québec,H8S 3Z5,100%,Demande d'accès à l'information MSSS 2024,LSST RSST et CSTC,Établissement de Santé,45.440562,-73.689485,H8S 3Z5,100%,LSST RSST et CSTC,Établissement de Santé
-73.869882,45.490672,0,Centre D'Hébergement Denis-Benjamin-Viger,CIUSSS de L'Ouest-de-L'Île-de-Montréal,3292 rue Cherrier,Montréal,Québec,H9C 1E4,80%,Demande d'accès à l'information MSSS 2024,LSST RSST et CSTC,Établissement de Santé,45.490672,-73.869882,H9C 1E4,80%,LSST RSST et CSTC,Établissement de Santé
-73.62436,45.495009,0,Centre Hospitalier De St. Mary,Centre Hospitalier de St. Mary,3830 avenue Lacombe,Montréal,Québec,H3T 1M5,100%,Demande d'accès à l'information MSSS 2024,LSST RSST et CSTC,Établissement de Santé,45.495009,-73.62436,H3T 1M5,100%,LSST RSST et CSTC,Établissement de Santé
-73.62426,45.494576,0,Centre Hospitalier De St. Mary,Centre Hospitalier de St. Mary,3777 Jean-Brillant,Montréal,Québec,H3T 0A2,100%,Demande d'accès à l'information MSSS 2024,LSST RSST et CSTC,Établissement de Santé,45.494576,-73.62426,H3T 0A2,100%,LSST RSST et CSTC,Établissement de Santé
-73.62436,45.495009,0,Centre Hospitalier De St. Mary,CIUSSS de L'Ouest-de-L'Île-de-Montréal,3830 avenue Lacombe,Montréal,Québec,H3T 1M5,100%,Demande d'accès à l'information MSSS 2024,LSST RSST et CSTC,Établissement de Santé,45.495009,-73.62436,H3T 1M5,100%,LSST RSST et CSTC,Établissement de Santé
-73.627612,45.477281,0,Foyer De Groupe Colton,CIUSSS de L'Ouest-de-L'Île-de-Montréal,4559 avenue d'Oxford,Montréal,Québec,H4A 2Y9,100%,Demande d'accès à l'information MSSS 2024,LSST RSST et CSTC,Établissement de Santé,45.477281,-73.627612,H4A 2Y9,100%,LSST RSST et CSTC,Établissement de Santé
-73.627146,45.487066,0,Foyer De Groupe Dornal,CIUSSS de L'Ouest-de-L'Île-de-Montréal,4912 avenue Dornal,Montréal,Québec,H3W 1W2,100%,Demande d'accès à l'information MSSS 2024,LSST RSST et CSTC,Établissement de Santé,45.487066,-73.627146,H3W 1W2,100%,LSST RSST et CSTC,Établissement de Santé
-73.615116,45.474583,0,Foyer De Groupe Hawkins,CIUSSS de L'Ouest-de-L'Île-de-Montréal,5455 chemin de la Côte-Saint-Antoine,Montréal,Québec,H4A 1R1,100%,Demande d'accès à l'information MSSS 2024,LSST RSST et CSTC,Établissement de Santé,45.474583,-73.615116,H4A 1R1,100%,LSST RSST et CSTC,Établissement de Santé
-73.638918,45.467938,0,Foyer De Groupe Odyssey,CIUSSS de L'Ouest-de-L'Île-de-Montréal,4840 boulevard Cavendish,Montréal,Québec,H4V 2R3,100%,Demande d'accès à l'information MSSS 2024,LSST RSST et CSTC,Établissement de Santé,45.467938,-73.638918,H4V 2R3,100%,LSST RSST et CSTC,Établissement de Santé
-73.797648,45.507073,0,Foyer De Groupe Roxboro,CIUSSS de L'Ouest-de-L'Île-de-Montréal,105 4e avenue Sud,Montréal,Québec,H8Y 2L6,100%,Demande d'accès à l'information MSSS 2024,LSST RSST et CSTC,Établissement de Santé,45.507073,-73.797648,H8Y 2L6,100%,LSST RSST et CSTC,Établissement de Santé
-73.615311,45.47437,0,Foyer De Groupe Rudel,CIUSSS de L'Ouest-de-L'Île-de-Montréal,5475 chemin de la Côte-Saint-Antoine,Montréal,Québec,H4A 1R1,100%,Demande d'accès à l'information MSSS 2024,LSST RSST et CSTC,Établissement de Santé,45.47437,-73.615311,H4A 1R1,100%,LSST RSST et CSTC,Établissement de Santé
-73.616227,45.464342,0,Foyer De Groupe Saint-James,CIUSSS de L'Ouest-de-L'Île-de-Montréal,6151 rue Saint-Jacques,Montréal,Québec,H4B 1T7,100%,Demande d'accès à l'information MSSS 2024,LSST RSST et CSTC,Établissement de Santé,45.464342,-73.616227,H4B 1T7,100%,LSST RSST et CSTC,Établissement de Santé
-73.695924,45.435355,0,Unité De Débordement - Rue Du Fort-Rolland,CISSS de L'Outaouais,3540 rue du Fort-Rolland,Montréal,Québec,H8T 1V7,100%,Demande d'accès à l'information MSSS 2024,LSST RSST et CSTC,Établissement de Santé,45.435355,-73.695924,H8T 1V7,100%,LSST RSST et CSTC,Établissement de Santé
